,Name,Campsite,Address,Similar_idx,Name_similar,Campsite_similar,Campsite_ratio,Address_similar,Address_ratio
0,Shelly,樂活森林農場,545南投縣埔里鎮桃米路55-1號,1214,Shelly,翠林農場,85.71428571428572,555南投縣魚池鄉投69-3鄉道555號,43.47826086956522
1,Shelly,陽光露營區,546南投縣仁愛鄉榮光巷50號5,206,Shelly,鐵砧山星光露營區,88.88888888888889,437台中市大甲區成功路221號,12.903225806451612
2,Shelly,燈火嵐杉野奢露營區inHere（請勿自行導航）,545南投縣埔里鎮種瓜路33-5號,603,Shelly,露樹露營區,60.0,262001宜蘭縣礁溪鄉白石腳路101號,20.68965517241379
3,Shelly,森山谷 中寮森林營地（免搭帳 懶人露營）目前只開放週四-週日預訂,541南投縣中寮鄉福山巷,265,Shelly,林園營地,75.0,232新北市坪林區號,0.0
4,Shelly,新境露營區,544南投縣國姓鄉長北路70之1號,500,Shelly,林間秘境露營區,88.88888888888889,605嘉義縣阿里山鄉,31.57894736842105
5,Shelly,暮雲春樹露營區,545南投縣埔里鎮種瓜路33-3號,603,Shelly,露樹露營區,88.88888888888889,262001宜蘭縣礁溪鄉白石腳路101號,20.68965517241379
6,Shelly,LOLO農場-休閒露營園區,545南投縣埔里鎮眉原路1-4號,695,Shelly,樂園露營區,66.66666666666667,929屏東縣琉球鄉復興路32-15號,27.586206896551722
7,Shelly,涵香小屋露營驛站,555南投縣魚池鄉五馬巷2之10號,319,Shelly,冠達驛站,66.66666666666667,722台南市佳里區麻佳路三段138巷150弄21號,34.78260869565217
8,Shelly,緣溪行森林營地,545南投縣埔里鎮乾溪景觀橋545號,265,Shelly,林園營地,85.71428571428572,232新北市坪林區號,18.181818181818176
9,Shelly,湯尼瑪麗露營區,545南投縣埔里鎮種瓜路,1556,Eta,阿麗露營區,88.88888888888889,苗栗縣泰安鄉大興村5鄰38號,13.33333333333333
10,Shelly,武界雲窩森林露營區,546南投縣仁愛鄉茶園巷1附2號,299,Shelly,露舍營家露營區,60.0,845高雄市內門區,19.999999999999996
11,Shelly,樹不老 L’mosay,546南投縣仁愛鄉山林巷46附2號,776,Shelly,樹不老休閒莊園,60.0,336桃園市復興區,16.666666666666664
12,Shelly,畫眉園露營區,546南投縣仁愛鄉山林巷10號,695,Shelly,樂園露營區,88.88888888888889,929屏東縣琉球鄉復興路32-15號,28.57142857142857
13,Shelly,日月潭 九蛙秘境露營區,555南投縣魚池鄉中山路510巷9之22號日月潭,299,Shelly,露舍營家露營區,60.0,845高雄市內門區,19.999999999999996
14,Shelly,1-2號營地,555南投縣魚池鄉文武巷1-2號,29,Shelly,龍泉營地,66.66666666666667,54550南投縣埔里鎮武界路28之10號,51.61290322580645
15,Shelly,南投北中寮鶴里翁露營區,541南投縣中寮鄉龍南路151-20號,299,Shelly,露舍營家露營區,60.0,845高雄市內門區,19.999999999999996
16,Shelly,南投北山露營農場,544南投縣國姓鄉長石巷42-5號,1497,Eta,天山農場,66.66666666666667,新竹縣五峰鄉桃山村20鄰民石353之5號,27.27272727272727
17,Shelly,賞星月慕露營區(露營樂6號店-狩獵帳),541南投縣中寮鄉復興巷,1232,Shelly,露營樂2號店(狩獵帳),81.81818181818181,80545高雄市旗津區旗津三路51號,26.66666666666667
18,Shelly,空若水營地,555南投縣魚池鄉文武巷1-33號,1061,Shelly,綠水營地,85.71428571428572,972花蓮縣秀林鄉,22.22222222222222
19,Shelly,露野森林SNUWING,546南投縣仁愛鄉,1352,Eta,露野森林,100.0,南投縣仁愛鄉虎門巷,80.0
20,Shelly,埔里聽瀑營地,545南投縣埔里鎮武界路33-8號,1345,Eta,埔里聽瀑森林營地,80.0,南投縣埔里鎮武界路33-8號,100.0
21,Shelly,愛心露營地/日月潭親子多肉DIY,555南投縣魚池鄉通文巷4之11號,1374,Eta,田心小營地,60.0,南投縣仁愛鄉,66.66666666666667
22,Shelly,武界雲夢茗園,546南投縣仁愛鄉茶園巷1之1號,10,Shelly,武界雲窩森林露營區,66.66666666666667,546南投縣仁愛鄉茶園巷1附2號,89.65517241379311
23,Shelly,樂沐山林_親子友善露營區 （鼓勵親子陪伴，管理嚴謹）,555南投縣魚池鄉五馬巷4號,148,Shelly,樂在露營,50.0,426台中市新社區協中街211巷27號,22.22222222222222
24,Shelly,山福情森露營區,555南投縣魚池鄉華龍巷43-3號,146,Shelly,森杉露營區,88.88888888888889,424台中市和平區東崎路一段桃山巷32號,28.57142857142857
25,Shelly,曉樂園露營區,540南投縣南投市吉利路126號,695,Shelly,樂園露營區,100.0,929屏東縣琉球鄉復興路32-15號,27.586206896551722
26,Shelly,伴天聊露營區,546南投縣仁愛鄉山林巷18附1號,1314,Eta,伴天聊露營地,90.9090909090909,南投縣仁愛鄉山林巷,100.0
27,Shelly,愛聚時光森林露營區,545南投縣埔里鎮種瓜路37-1號,299,Shelly,露舍營家露營區,60.0,845高雄市內門區,33.333333333333336
28,Shelly,春陽觀休閒農場,546南投縣仁愛鄉虎門巷135號,1136,Shelly,水云山植物景觀休閒農場,83.33333333333334,365苗栗縣泰安鄉65號高熊卡,34.48275862068966
29,Shelly,龍泉營地,54550南投縣埔里鎮武界路28之10號,862,Shelly,威尼斯溫泉露營地－新竹露營區推薦 懶人露營車 帳篷 住宿 會館 價格 評價 必住 高CP值 網友好評 溫泉湯屋 精緻套房 烤肉 火鍋 露營設備出租 親子家庭 豪華 渡假休閒旅遊 熱門 人氣優惠 網美網紅打卡 拍照首選 戶外場地租借,75.0,312新竹縣橫山鄉33號,26.66666666666667
30,Shelly,日月潭香菇寮生態營地,55543南投縣魚池鄉華龍巷41-2號,29,Shelly,龍泉營地,66.66666666666667,54550南投縣埔里鎮武界路28之10號,44.44444444444444
31,Shelly,大衛營露營農場,542南投縣草屯鎮富德街66巷75號,893,Shelly,飛鼠不渴山上學校露營農場,72.72727272727273,336桃園市復興區,14.28571428571429
32,Shelly,迷露1850,546南投縣仁愛鄉仁和路179之5號24°03'34.6N 121°10'31. 546,1325,Eta,小豬迷露,66.66666666666667,南投縣國姓鄉南港村港頭巷,38.095238095238095
33,Shelly,高峰農場露營區,544南投縣國姓鄉長石巷42-9號,1324,Eta,高峰農場,100.0,南投縣國姓鄉南港村長石巷42-9號,90.32258064516128
34,Shelly,森林寓-露營區《日月潭露營區推薦》營地推薦｜懶人露營｜免裝備｜寵物友善營區｜家庭｜親子｜露營包場,555南投縣魚池鄉東興巷19號,805,Shelly,森林遇,80.0,313新竹縣尖石鄉號,30.76923076923077
35,Shelly,山裡面的嵐卡,556南投縣信義鄉地利村姑姑山,1156,Shelly,逸山露營,40.0,35877苗栗縣苑裡鎮22-7號,17.391304347826086
36,Shelly,採茶媽媽景觀茶園雨棚區 - 南投露營區推薦 仁愛鄉露營區推薦 高山營地露營首選 包區 搭帳露營 親子家庭避暑好評 雨棚露營評價 網友推薦高CP值露天搭帳 高海拔 秘境 雲海 雲瀑 流星星海 原始林健行步道,546南投縣仁愛鄉,67,Shelly,採茶媽媽景觀露營區 - 南投露營區推薦 仁愛鄉露營區推薦 高山營地露營首選 包區 搭帳露營 親子家庭避暑好評 雨棚露營評價 網友推薦高CP值露天搭帳 高海拔 秘境 雲海 雲瀑 流星星海 原始林健行步道,96.0,546南投縣仁愛鄉高峰巷70附5號,100.0
37,Shelly,南投國姓羅氏後花園露營場,544南投縣國姓鄉南港路110-13號,661,Shelly,桃花園,66.66666666666667,屏東縣瑪家鄉崑山巷16號,26.66666666666667
38,Shelly,茶吾此露露營區,545南投縣埔里鎮種瓜路33-13號,603,Shelly,露樹露營區,88.88888888888889,262001宜蘭縣礁溪鄉白石腳路101號,26.66666666666667
39,Shelly,魚池鄉入森林露森林營地,555南投縣魚池鄉水埔產業道路131號,265,Shelly,林園營地,85.71428571428572,232新北市坪林區號,30.76923076923077
40,Shelly,回歸自然二八露營場,557南投縣竹山鎮鹿山路606-7號,31,Shelly,大衛營露營農場,60.0,542南投縣草屯鎮富德街66巷75號,51.42857142857142
41,Shelly,武界松露露營區&小木屋,54669南投縣仁愛鄉武安路1附6號,873,Shelly,露露米露營區,66.66666666666667,311新竹縣五峰鄉,22.22222222222222
42,Shelly,森露快樂休閒營地,555南投縣魚池鄉平和巷10號,1367,Eta,森露快樂,100.0,南投縣魚池鄉平和巷10號,100.0
43,Shelly,鳳凰山日出湖秘密基地露營區,558南投縣鹿谷鄉鳳園路88之50號,1322,Eta,鳳凰山日出湖秘密基地,100.0,南投縣鹿谷鄉鳳凰村鳳園路88-50號,84.84848484848484
44,Shelly,川中島落羽松露營秘境,546南投縣仁愛鄉清風路27-1號,1128,Shelly,秘境露營區,57.14285714285714,353苗栗縣南庄鄉,33.333333333333336
45,Shelly,峇嵐杉丘 奢華露營,555南投縣魚池鄉文正巷2之6號,69,Shelly,野趣凍頂-奢華露營,61.53846153846154,558南投縣鹿谷鄉凍頂巷7-26號,56.25
46,Shelly,芭喇露營區休閒農莊,546南投縣仁愛鄉武界林道,407,Shelly,福鹿山休閒農莊,72.72727272727273,955台東縣鹿野鄉高台路42巷,27.27272727272727
47,Shelly,達雅奇跡星球特色主題懶人露營一泊二食團體包場包區,544南投縣國姓鄉大長路529-1號,992,Shelly,蒝區,66.66666666666667,32659桃園市楊梅區幼獅路一段439號東南側,24.0
48,Shelly,山見懶人露營,555南投縣魚池鄉通文巷54號對面號,467,Shelly,拾野 • 拾光 – 阿里山高美露營區｜Shiye • Shiguang – Alishan GaoMei Camping Area｜車泊｜自搭帳｜阿里山懶人露營｜小區包帳｜,83.33333333333334,605嘉義縣阿里山鄉,31.57894736842105
49,Shelly,鹿谷麒麟潭 湖光露營區,558南投縣鹿谷鄉堀邊巷1之27號,299,Shelly,露舍營家露營區,60.0,845高雄市內門區,19.999999999999996
50,Shelly,凍頂山露營農場,558南投縣鹿谷鄉彰雅村凍頂巷33之2,1497,Eta,天山農場,66.66666666666667,新竹縣五峰鄉桃山村20鄰民石353之5號,32.432432432432435
51,Shelly,享樂玩家露營區,555南投縣魚池鄉五馬巷2-3號,992,Shelly,蒝區,66.66666666666667,32659桃園市楊梅區幼獅路一段439號東南側,18.181818181818176
52,Shelly,三乘山露營區,542南投縣草屯鎮三層巷50號,433,Shelly,羅山露營區,88.88888888888889,983花蓮縣富里鄉,13.33333333333333
53,Shelly,合興休閒營區,555南投縣魚池鄉華龍巷73-1號,1328,Eta,合興休閒露營區,83.33333333333334,南投縣魚池鄉五城村華龍巷73-1號,90.32258064516128
54,Shelly,滾石部落露營場地,544南投縣國姓鄉544,1122,Shelly,拍片場露營地,60.0,363苗栗縣公館鄉開礦2626 號,19.047619047619047
55,Shelly,南投武界觀景茶園露營區,546南投縣仁愛鄉茶園巷17附2號54669,299,Shelly,露舍營家露營區,60.0,845高雄市內門區,19.999999999999996
56,Shelly,靜竹星空景觀露營區,557南投縣竹山鎮鹿山路604號,299,Shelly,露舍營家露營區,60.0,845高雄市內門區,19.999999999999996
57,Shelly,雲的嘉露營區,54448南投縣國姓鄉南港二號橋,1379,Eta,雲的嘉露營區,100.0,南投縣國姓鄉南港二號,100.0
58,Shelly,漠邇營地 moor Campsite & Caravan Park,545南投縣埔里鎮中山路四段136-6號,417,Shelly,Dodoro Camp,72.72727272727273,961台東縣成功鎮東河鄉都蘭村,16.666666666666664
59,Shelly,⛺️林坡微步 露營區,555南投縣魚池鄉通文巷,299,Shelly,露舍營家露營區,60.0,845高雄市內門區,19.999999999999996
60,Shelly,舒谷SuKu 農場,546南投縣仁愛鄉,1361,Eta,舒谷露營區,57.14285714285714,南投縣仁愛鄉,100.0
61,Shelly,仙聞休閒露營區,555南投縣魚池鄉華龍巷73號,1151,Shelly,云仙谷休閒露營區,85.71428571428572,36541苗栗縣泰安鄉15號,29.629629629629626
62,Shelly,To Me 桃米生態露營區,545南投縣埔里鎮種瓜路66-1號,299,Shelly,露舍營家露營區,60.0,845高雄市內門區,33.333333333333336
63,Shelly,青綠園露營區,555南投縣魚池鄉五城巷11-22號,1347,Eta,青綠園,100.0,南投縣魚池鄉五城村五城巷11-22號,90.9090909090909
64,Shelly,山谷露瑪露營區,556南投縣信義鄉,341,Shelly,高雄六龜十八羅漢山露營區,72.72727272727273,844高雄市六龜區,0.0
65,Shelly,拿哥的秘密基地浪漫露營區,556南投縣信義鄉和平巷85~3號,299,Shelly,露舍營家露營區,60.0,845高雄市內門區,28.57142857142857
66,Shelly,847露營區,558南投縣鹿谷鄉仁愛路256號,992,Shelly,蒝區,66.66666666666667,32659桃園市楊梅區幼獅路一段439號東南側,21.052631578947366
67,Shelly,採茶媽媽景觀露營區 - 南投露營區推薦 仁愛鄉露營區推薦 高山營地露營首選 包區 搭帳露營 親子家庭避暑好評 雨棚露營評價 網友推薦高CP值露天搭帳 高海拔 秘境 雲海 雲瀑 流星星海 原始林健行步道,546南投縣仁愛鄉高峰巷70附5號,36,Shelly,採茶媽媽景觀茶園雨棚區 - 南投露營區推薦 仁愛鄉露營區推薦 高山營地露營首選 包區 搭帳露營 親子家庭避暑好評 雨棚露營評價 網友推薦高CP值露天搭帳 高海拔 秘境 雲海 雲瀑 流星星海 原始林健行步道,96.0,546南投縣仁愛鄉,100.0
68,Shelly,築露中原露營區,546南投縣仁愛鄉原名路43附2號546別用門牌導航會迷路，直接搜尋築露中原導航即可,204,Shelly,原野露營區,88.88888888888889,424台中市和平區東關路三段2號,25.0
69,Shelly,野趣凍頂-奢華露營,558南投縣鹿谷鄉凍頂巷7-26號,1541,Eta,松野,66.66666666666667,桃園市復興區10-16號,37.5
70,Shelly,飛瀑露營區feipucamping,546南投縣仁愛鄉中正路1之1號處左轉(人止關左前岔路轉入約4公里，15分路程73K,1028,Shelly,Aki camping,77.77777777777779,972花蓮縣秀林鄉佳民98號,21.42857142857143
71,Shelly,言葉之庭露營區,54155南投縣中寮鄉永樂路134之2號,992,Shelly,蒝區,66.66666666666667,32659桃園市楊梅區幼獅路一段439號東南側,22.22222222222222
72,Shelly,馬赫坡9號秘境,546南投縣仁愛鄉溫泉馬赫坡路9號精英村廬山,1128,Shelly,秘境露營區,57.14285714285714,353苗栗縣南庄鄉,33.333333333333336
73,Shelly,部落之丘 Camping,555南投縣魚池鄉文正巷1之45號,859,Shelly,歐莎露營區Osa Camping,80.0,313新竹縣尖石鄉2鄰,19.999999999999996
74,Shelly,三生園生態露營區,558南投縣鹿谷鄉民生巷8-1號,1182,Shelly,逸境生態露營區,83.33333333333334,64343雲林縣林內鄉自強路1巷23之8號,33.333333333333336
75,Shelly,帖泊喀露營區,555南投縣魚池鄉中正路102號,992,Shelly,蒝區,66.66666666666667,32659桃園市楊梅區幼獅路一段439號東南側,15.384615384615385
76,Shelly,舞蝶到了露營區,541南投縣中寮鄉村永平路100-36號,992,Shelly,蒝區,66.66666666666667,32659桃園市楊梅區幼獅路一段439號東南側,22.22222222222222
77,Shelly,唯樂露營區,555南投縣魚池鄉協力巷11-6號,344,Shelly,月媽媽快樂露營區,88.88888888888889,845高雄市內門區木柵43號木柵教會隔壁,12.903225806451612
78,Shelly,里列格營地,546南投縣仁愛鄉萬豐村10鄰清華巷148附1號,29,Shelly,龍泉營地,66.66666666666667,54550南投縣埔里鎮武界路28之10號,41.17647058823529
79,Shelly,哈爾斯塔特露營區,546南投縣仁愛鄉,992,Shelly,蒝區,66.66666666666667,32659桃園市楊梅區幼獅路一段439號東南側,25.0
80,Shelly,山中流域露營區,553南投縣水里鄉水里五路,527,Shelly,山中曉露,66.66666666666667,604嘉義縣竹崎鄉光華村1鄰3號,18.181818181818176
81,Shelly,九份二山連興露營區,544南投縣國姓鄉鳳鳴巷39-6號,1331,Eta,九份二山連興露營區,100.0,南投縣國姓鄉鳳鳴巷18之2號,71.42857142857143
82,Shelly,山水園露營農莊,544南投縣國姓鄉大長路117-1號,261,Shelly,水田園農莊,60.0,207新北市萬里區,15.384615384615385
83,Shelly,暮沐露營小庄。Moonmood,555南投縣魚池鄉華龍巷31號,332,Shelly,嚮露,50.0,844高雄市六龜區土壠149之10號,22.22222222222222
84,Shelly,入樹．村｜寵物友善｜親子露營｜獨立衛浴,555南投縣魚池鄉大雁巷31-8號,994,Shelly,友善露營區,40.0,336桃園市復興區中心路160-7號,26.086956521739136
85,Shelly,仙徠山莊露營區,544南投縣國姓鄉長豐村東二巷71號,382,Shelly,知本山莊露營區,83.33333333333334,950台東縣台東市建和四街97-1號,34.285714285714285
86,Shelly,咿喲ㄟ故鄉露營區,545南投縣埔里鎮種瓜路126- 2號,1161,Shelly,鄉町露營區,88.88888888888889,35242苗栗縣三灣鄉大銅鑼圈88號,25.0
87,Shelly,沐晨露營區,544002南投縣國姓鄉長豐村東一巷51-8號,313,Shelly,達里沐露營區,88.88888888888889,849高雄市那瑪夏區,16.666666666666664
88,Shelly,遇見東平莊園,545南投縣埔里鎮覆金路21之1號,1380,Eta,遇見東平莊園,100.0,南投縣埔里鎮覆金路21-1號,92.85714285714286
89,Shelly,泊樂熊村 Polar Bear Village,544南投縣國姓鄉北原路58號,1672,Eta,快樂熊露營區,44.44444444444444,高雄市六龜區裕濃路1之7號,23.529411764705888
90,Shelly,迦南之地露營區,546南投縣仁愛鄉投71鄉道34號,1329,Eta,迦南之地,100.0,南投縣仁愛鄉投71鄉道34號,100.0
91,Shelly,馬沙露營區,544南投縣國姓鄉大長路616-1號,333,Shelly,白石馬露營區,88.88888888888889,606011嘉義縣中埔鄉灣潭子段13-24地號金記宅,27.77777777777778
92,Shelly,W.H窩露營區,55812南投縣鹿谷鄉中正路三段686巷21號55812,1377,Eta,W.H窩,100.0,南投縣鹿谷鄉中正路三段686巷,100.0
93,Shelly,日月潭夢想露營區,555南投縣魚池鄉有水巷28─3號,915,Shelly,夢想家園露營區,83.33333333333334,336桃園市復興區華陵里9鄰85號,21.052631578947366
94,Shelly,森林蜂味露營區,545南投縣埔里鎮桃米路73-1號,805,Shelly,森林遇,80.0,313新竹縣尖石鄉號,42.85714285714286
95,Shelly,黃金藍海秘境,544南投縣國姓鄉大長路613號,1128,Shelly,秘境露營區,57.14285714285714,353苗栗縣南庄鄉,33.333333333333336
96,Shelly,迦南美地生態教育園區,557南投縣竹山鎮中山路7之88號,529,Shelly,三木生態教育園區,85.71428571428572,604嘉義縣梅山鄉,23.529411764705888
97,Shelly,埔里桃米香露營區,545南投縣埔里鎮種瓜路33-2號,116,Shelly,雙香露營區,88.88888888888889,424台中市和平區東崎路二段19-25號,30.76923076923077
98,Shelly,石頭窩景緻露營區,552南投縣集集鎮梨頭巷10-6號,995,Shelly,雅緻露營區,88.88888888888889,33644桃園市復興區三光段122地號果園,18.181818181818176
99,Shelly,玫花露露營區,545南投縣埔里鎮東峰路18號,1340,Eta,玫花露露營區,100.0,南投縣埔里鎮東峰路18號,100.0
100,Shelly,綠野森林農場室內營位屋 露營區,545南投縣埔里鎮西安路一段550巷12-1號,1338,Eta,綠野森林農場露營區,80.0,南投縣埔里鎮西安路一段550巷,100.0
101,Shelly,夢谷伊優達雅露營區,546南投縣仁愛鄉信義巷,1339,Eta,夢谷伊優達雅露營區,100.0,南投縣仁愛鄉松原巷,77.77777777777779
102,Shelly,峰芢苑露營區,555南投縣魚池鄉永川巷25之6號,1323,Eta,峰芢苑露營區,100.0,南投縣魚池鄉永川巷25之6號,100.0
103,Shelly,清流溪畔露營區,546南投縣仁愛鄉明月巷95-1附2號,664,Shelly,河畔露營區,88.88888888888889,945屏東縣牡丹鄉大梅路1之20號,41.666666666666664
104,Shelly,石盤阬露營區,558南投縣鹿谷鄉秀林巷13-7號,863,Shelly,印象尖石露營區,80.0,313新竹縣尖石鄉煤源29–3號,28.57142857142857
105,Shelly,藍瑪司露營地,546南投縣仁愛鄉親愛村大安路107附2號,373,Shelly,逐浪露營地,75.0,961台東縣成功鎮隧道路23之10號,31.999999999999996
106,Shelly,上野左岸生態露營區,544南投縣國姓鄉南港村長石巷12-6號,299,Shelly,露舍營家露營區,60.0,845高雄市內門區,19.999999999999996
107,Shelly,星願村露營區,546南投縣仁愛鄉明月巷95之1附1號,892,Shelly,梅村露營區,88.88888888888889,313新竹縣尖石鄉185號,35.29411764705882
108,Shelly,森呼吸露營區,541南投縣中寮鄉永樂路201號,24,Shelly,山福情森露營區,80.0,555南投縣魚池鄉華龍巷43-3號,40.0
109,Shelly,日月松林營地 Sun Moon Camp,55544南投縣魚池鄉有水巷21-41號,265,Shelly,林園營地,75.0,232新北市坪林區號,25.0
110,Shelly,小路露營區,426台中市新社區崑山里食水嵙6-2號,1150,Shelly,小岔路露營區,88.88888888888889,354苗栗縣獅潭鄉和興39-1號,21.052631578947366
111,Shelly,九甲林露營區,422台中市石岡區萬仙街岡仙巷7-1號請先搜尋五福臨門神木,160,Shelly,山居歲月森林區,50.0,426台中市新社區,66.66666666666667
112,Shelly,德芙蘭農場,424台中市和平區東關路一段359號,218,Shelly,大棟農場,66.66666666666667,No. 1之7號 雪山路和平區台中市424,28.57142857142857
113,Shelly,台中后里-泰安驛站露營區,421台中市后里區圳頭產業道路,299,Shelly,露舍營家露營區,60.0,845高雄市內門區,33.333333333333336
114,Shelly,新社恩地生態露營區,台中市新社區426,299,Shelly,露舍營家露營區,60.0,845高雄市內門區,30.76923076923077
115,Shelly,雅谷。露營區,424台中市和平區東關路一段松鶴三巷81號,451,Shelly,櫻之谷露營區,80.0,848高雄市桃源區南橫公路三段東莊巷30之6號,30.76923076923077
116,Shelly,雙香露營區,424台中市和平區東崎路二段19-25號,97,Shelly,埔里桃米香露營區,88.88888888888889,545南投縣埔里鎮種瓜路33-2號,30.76923076923077
117,Shelly,出雲山騰雲營地,424台中市和平區雪山路出雲巷,29,Shelly,龍泉營地,66.66666666666667,54550南投縣埔里鎮武界路28之10號,13.793103448275868
118,Shelly,一棵樹露營區,413台中市霧峰區民生路426巷77號,603,Shelly,露樹露營區,88.88888888888889,262001宜蘭縣礁溪鄉白石腳路101號,19.047619047619047
119,Shelly,中正露營區精神碉堡總集合場,406台中市北屯區連坑巷,176,Shelly,中正露營區愛國分營區,66.66666666666667,406台中市北屯區連坑巷中正露營區精神碉堡總集合場,100.0
120,Shelly,星空Yay(夜)語 露營區,426台中市新社區永豐45-1號,299,Shelly,露舍營家露營區,60.0,845高雄市內門區,33.333333333333336
121,Shelly,裡冷熊爸營地,424台中市和平區東關路一段裡冷巷25號,29,Shelly,龍泉營地,66.66666666666667,54550南投縣埔里鎮武界路28之10號,22.22222222222222
122,Shelly,吉娃斯景觀咖啡露營區,桃山 社區 和平區台中市,299,Shelly,露舍營家露營區,60.0,845高雄市內門區,19.999999999999996
123,Shelly,野Fun趣 親子果園,413台中市霧峰區民生路426巷8弄39號,312,Shelly,綠野果園,66.66666666666667,731台南市後壁區,44.44444444444444
124,Shelly,ㄡ熊熊露營園地,424台中市和平區東關路一段松鶴三巷103號,1396,Eta,ㄡ熊熊露營園地,100.0,台中市和平區東關路一段松鶴三巷103號,100.0
125,Shelly,大雪山喜樂之地露營區,423台中市東勢區東坑路978-6號,299,Shelly,露舍營家露營區,60.0,845高雄市內門區,33.333333333333336
126,Shelly,大雪星空露營區 | Starry Night Campground ｜露營 ｜包棟民宿｜,423021台中市東勢區東坑路795巷18號,603,Shelly,露樹露營區,60.0,262001宜蘭縣礁溪鄉白石腳路101號,26.315789473684216
127,Shelly,向海那漾 Nayang Beach,439台中市大安區北汕路86巷1號,825,Shelly,Payan露營區,50.0,313新竹縣尖石鄉,18.181818181818176
128,Shelly,吾居無束露營區,426台中市新社區崑山里19之6號,992,Shelly,蒝區,66.66666666666667,32659桃園市楊梅區幼獅路一段439號東南側,28.57142857142857
129,Shelly,摩天嶺楊園露營區,424台中市和平區東崎路一段天嶺巷30-3號,695,Shelly,樂園露營區,88.88888888888889,929屏東縣琉球鄉復興路32-15號,32.25806451612904
130,Shelly,曉晴星空三營台中新社營區,426台中市新社區上坪4-3號,361,Shelly,曉晴星空露營地,76.92307692307692,962台東縣長濱鄉成靜公路,23.529411764705888
131,Shelly,富柿山 星空景觀農場,426台中市新社區永櫃路18號,595,Shelly,山谷星空,75.0,266宜蘭縣三星鄉泰雅一路301巷71號,26.086956521739136
132,Shelly,福壽山農場露營區,424台中市和平區福壽路29號,479,Shelly,太山農場露營區,92.3076923076923,603嘉義縣梅山鄉二鄰11號,13.33333333333333
133,Shelly,聚元營地,42642台中市新社區崑南街29巷5號,8,Shelly,緣溪行森林營地,66.66666666666667,545南投縣埔里鎮乾溪景觀橋545號,24.0
134,Shelly,覓靜莊園,424台中市和平區東關路一段裡冷巷99號,88,Shelly,遇見東平莊園,66.66666666666667,545南投縣埔里鎮覆金路21之1號,21.052631578947366
135,Shelly,那個屋露營區,413台中市霧峰區中坑產業道路92號,992,Shelly,蒝區,66.66666666666667,32659桃園市楊梅區幼獅路一段439號東南側,31.999999999999996
136,Shelly,久良栖露營區,424台中市和平區東關路一段360號,472,Shelly,天長地久露營區,80.0,602嘉義縣番路鄉,33.333333333333336
137,Shelly,柏冷翠休閒農場,424台中市和平區東關路二段11之8號,744,Shelly,星錡休閒農場,80.0,512彰化縣永靖鄉東畔路238之46號,27.77777777777778
138,Shelly,Tatami 忘憂草原 聖愛營地,426台中市新社區,29,Shelly,龍泉營地,66.66666666666667,54550南投縣埔里鎮武界路28之10號,18.181818181818176
139,Shelly,蟬說：山中靜靜 Chanshuo Immersion glamping,411台中市太平區山田路218號,700,Shelly,黑黑小農 glamping,81.81818181818181,906屏東縣高樹鄉明義路9號,21.052631578947366
140,Shelly,樂悠悠露營區,台中市和平區42415鄰73號東關路一段里冷巷,898,Shelly,樂悠露營,75.0,33643桃園市復興區奎輝里2鄰下奎輝3-1號,31.57894736842105
141,Shelly,谷關八起露營區,424台中市和平區東關路一段堰堤巷6-1 號,992,Shelly,蒝區,66.66666666666667,32659桃園市楊梅區幼獅路一段439號東南側,33.333333333333336
142,Shelly,天山秘境森林露營區,426台中市新社區中和街一段山腳巷20-9號,299,Shelly,露舍營家露營區,60.0,845高雄市內門區,33.333333333333336
143,Shelly,小松露露營區(露營/車宿/車露) （寵物友善）,426台中市新社區,689,Shelly,車露,100.0,941屏東縣枋山鄉,19.999999999999996
144,Shelly,松風谷種苗休閒園區,424台中市和平區東關路一段台電巷122-20號,1106,Shelly,風露營,40.0,365苗栗縣泰安鄉馬那邦64號,12.5
145,Shelly,綠大地露營區,42646台中市新社區上坪4-6號,1392,Eta,綠大地露營區,100.0,台中市新社區上坪4-6號,100.0
146,Shelly,森杉露營區,424台中市和平區東崎路一段桃山巷32號,24,Shelly,山福情森露營區,88.88888888888889,555南投縣魚池鄉華龍巷43-3號,28.57142857142857
147,Shelly,松嶺露營區,424台中市和平區Unnamed Road,1330,Eta,金青松露營區,88.88888888888889,南投縣國姓鄉北港村北圳巷26-3號,10.526315789473683
148,Shelly,樂在露營,426台中市新社區協中街211巷27號,0,Shelly,樂活森林農場,40.0,545南投縣埔里鎮桃米路55-1號,18.181818181818176
149,Shelly,彩虹星光農園露營區,422台中市石岡區豐勢路山下巷11之8號,299,Shelly,露舍營家露營區,60.0,845高雄市內門區,33.333333333333336
150,Shelly,裡冷溪探索園區,424台中市和平區裡冷巷69號,1393,Eta,裡冷溪探索園區,100.0,台中市和平區東關路一段裡冷巷69號,66.66666666666667
151,Shelly,天冷吹雲民宿及露營,42661台中市新社區福興里美林72-2號,600,Shelly,山谷樂生態園區民宿露營,61.53846153846154,269宜蘭縣冬山鄉中山路802號,30.000000000000004
152,Shelly,松旺露營區,424台中市和平區Unnamed Road,1330,Eta,金青松露營區,88.88888888888889,南投縣國姓鄉北港村北圳巷26-3號,10.526315789473683
153,Shelly,后豐鐵馬道露營區,420台中市豐原區朴子街323巷13號,91,Shelly,馬沙露營區,80.0,544南投縣國姓鄉大長路616-1號,19.047619047619047
154,Shelly,馬告的傳奇民宿 露營區,424台中市和平區東關路一段裡冷巷5-8號,299,Shelly,露舍營家露營區,60.0,845高雄市內門區,33.333333333333336
155,Shelly,照哥的家,424台中市和平區東關路一段裡冷巷86號,1390,Eta,照哥的家,100.0,台中市和平區博愛里裡冷巷86號,66.66666666666667
156,Shelly,森林小鹿-露營區,423台中市東勢區東坑路967號號,186,Shelly,森林小鹿-民宿、露營區,76.92307692307692,42345台中市東勢區東坑路953號,81.25
157,Shelly,樂境6.2K營地,42345台中市東勢區東坑路964之1號,29,Shelly,龍泉營地,66.66666666666667,54550南投縣埔里鎮武界路28之10號,33.333333333333336
158,Shelly,三山來此咖啡莊園,406台中市北屯區東山路二段183-33號,1403,Eta,三山來此,100.0,台中市北屯區東山路二段183-33號,100.0
159,Shelly,哈露米露營區,424台中市和平區東關路一段430號,1389,Eta,哈露米露營區,100.0,台中市和平區博愛里東關路一段430號,90.9090909090909
160,Shelly,山居歲月森林區,426台中市新社區,478,Shelly,小森林露營區,66.66666666666667,605嘉義縣阿里山鄉樂野村2鄰70-6號,25.0
161,Shelly,牛坪之春露營區,42442台中市和平區牛坪之春露營區,992,Shelly,蒝區,66.66666666666667,32659桃園市楊梅區幼獅路一段439號東南側,20.68965517241379
162,Shelly,山上小日子Camping,424台中市和平區東關路一段裡冷巷1-8號,73,Shelly,部落之丘 Camping,73.6842105263158,555南投縣魚池鄉文正巷1之45號,27.27272727272727
163,Shelly,松鶴延年露營區,424台中市和平區東關路一段松鶴三巷95-11號,1400,Eta,松鶴延年,100.0,台中市和平區東關路一段松鶴三巷95-11號,100.0
164,Shelly,嵐山驛站 露營區,42647台中市新社區中興街217之6號,184,Shelly,嵐山譯站露營趣,71.42857142857143,426台中市新社區中興街225號,83.87096774193549
165,Shelly,無憂森林carefree_forest,424台中市和平區東關路一段松鶴三巷92-8號,570,Shelly,無憂花露營區,50.0,262宜蘭縣礁溪鄉白石腳路157巷88號,25.0
166,Shelly,平岩山望向芸端露營區（合法露營區台中市露營場005號，免搭帳小屋，家庭接待雅房，芸端餐廳，高山排餐，薄片披薩）訂餐採預約制喔,424台中市和平區中興路三段53號,603,Shelly,露樹露營區,60.0,262001宜蘭縣礁溪鄉白石腳路101號,18.181818181818176
167,Shelly,彩虹奇菁露營區（含民宿）,423台中市東勢區慶福里慶福街26-2號,1405,Eta,彩虹奇菁,100.0,台中市東勢區慶福里慶福街26號之2號,91.42857142857143
168,Shelly,東勢林場大安露營中心,台中市東勢區,300,Shelly,珊瑚潭童軍露營中心,61.53846153846154,720台南市官田區八田路三段櫻花巷59號,50.0
169,Shelly,億享天開歡樂農場,423台中市東勢區勢林街63之6號,0,Shelly,樂活森林農場,66.66666666666667,545南投縣埔里鎮桃米路55-1號,12.121212121212121
170,Shelly,谷關365露營區,424台中市和平區東關路一段20之5號,1388,Eta,谷關365露營區,100.0,台中市和平區東關路一段20之5號,100.0
171,Shelly,山上松亭露營區,424台中市和平區東關路一段360之5號,1404,Eta,山上松亭,100.0,台中市和平區東關路一段360之5號,100.0
172,Shelly,洪爺爺菜園丫,438台中市外埔區水頭二路18號,326,Shelly,蔡媽媽菜園,50.0,715台南市楠西區,33.333333333333336
173,Shelly,歐賓露營區,424台中市和平區東關路一段台電巷124-4號,768,Shelly,永賓露營區,88.88888888888889,232新北市坪林區磨壁潭10-1號,27.27272727272727
174,Shelly,山暉甜園露營區,42451台中市和平區中坑路北坑巷15號,695,Shelly,樂園露營區,88.88888888888889,929屏東縣琉球鄉復興路32-15號,31.999999999999996
175,Shelly,六合繹包棟露營區(住宿),423005台中市東勢區東坑路石麻巷46號之1,603,Shelly,露樹露營區,60.0,262001宜蘭縣礁溪鄉白石腳路101號,25.0
176,Shelly,中正露營區愛國分營區,406台中市北屯區連坑巷中正露營區精神碉堡總集合場,194,Shelly,中正露營區和諧分營區,80.0,台中市北屯區,100.0
177,Shelly,丘の町營地,台中市東勢區Unnamed Road 423,29,Shelly,龍泉營地,66.66666666666667,54550南投縣埔里鎮武界路28之10號,17.391304347826086
178,Shelly,八仙山春露茶園,424台中市和平區東關路一段裡冷巷70號,1294,Shelly,陳家茶園露營區,44.44444444444444,849高雄市那瑪夏區青山巷40號,32.25806451612904
179,Shelly,爸娜娜露營區,423台中市東勢區東崎路三段122-5號,662,Shelly,亞利桑娜露營區,80.0,945屏東縣牡丹鄉大梅路68之9號,21.42857142857143
180,Shelly,芭蓊露營區,424台中市和平區東崎路一段桃山巷73-3號,992,Shelly,蒝區,66.66666666666667,32659桃園市楊梅區幼獅路一段439號東南側,38.095238095238095
181,Shelly,台中后里環保公園車泊專區,421台中市后里區421,992,Shelly,蒝區,66.66666666666667,32659桃園市楊梅區幼獅路一段439號東南側,26.086956521739136
182,Shelly,摩天輪營地(無提供電話詢位預訂 請至臉書粉絲專頁),438台中市外埔區月眉北路221號,1485,Eta,斯摩亞營地,60.0,新竹縣關西鎮10鄰106號,26.66666666666667
183,Shelly,菘畫居露營會館,424台中市和平區東關路一段裡冷巷15-7號,809,Shelly,函館露營區,44.44444444444444,313新竹縣尖石鄉義興村9鄰107-1號,24.0
184,Shelly,嵐山譯站露營趣,426台中市新社區中興街225號,164,Shelly,嵐山驛站 露營區,71.42857142857143,42647台中市新社區中興街217之6號,83.87096774193549
185,Shelly,微笑Glamping《懶人露營》豪華露營｜雙人｜團體露營｜冷氣露營｜免搭帳｜免設備｜免裝備露營,423台中市東勢區東崎路三段175巷28號,316,Shelly,露悠悠Glamping,76.19047619047619,844高雄市六龜區尾庄55之2號,31.25
186,Shelly,森林小鹿-民宿、露營區,42345台中市東勢區東坑路953號,156,Shelly,森林小鹿-露營區,76.92307692307692,423台中市東勢區東坑路967號號,81.25
187,Shelly,竹林風私人露營秘境《露營地推薦》太平區露營小木屋｜熱門小木屋｜自搭帳｜親子露營地｜露營體驗｜烤肉｜隱藏版營地,411台中市太平區,1106,Shelly,風露營,66.66666666666667,365苗栗縣泰安鄉馬那邦64號,18.181818181818176
188,Shelly,旺來山莊秘境,426132台中市新社區永豐63-1號,1128,Shelly,秘境露營區,57.14285714285714,353苗栗縣南庄鄉,15.384615384615385
189,Shelly,星星點燈露營區,424台中市和平區Unnamed Road,992,Shelly,蒝區,66.66666666666667,32659桃園市楊梅區幼獅路一段439號東南側,18.75
190,Shelly,里浪露營區,424台中市和平區東關路一段裡冷巷15號之 10,665,Shelly,巴里露營區,88.88888888888889,943012屏東縣獅子鄉村竹坑巷2之9號,25.0
191,Shelly,台中烏日 呼啦莊園,414台中市烏日區高鐵東路651號,134,Shelly,覓靜莊園,66.66666666666667,424台中市和平區東關路一段裡冷巷99號,55.172413793103445
192,Shelly,中正露營區下平台,台中市北屯區406,201,Shelly,中正露營區大平台,87.5,406台中市北屯區,80.0
193,Shelly,賽良久營地,424台中市和平區,29,Shelly,龍泉營地,66.66666666666667,54550南投縣埔里鎮武界路28之10號,18.181818181818176
194,Shelly,中正露營區和諧分營區,台中市北屯區,176,Shelly,中正露營區愛國分營區,80.0,406台中市北屯區連坑巷中正露營區精神碉堡總集合場,100.0
195,Shelly,松鶴唐麻丹露營區,42404台中市和平區東關路一段松鶴三巷,1399,Eta,松鶴唐麻丹,100.0,台中市和平區博愛里東關路一段松鶴三巷,90.9090909090909
196,Shelly,一邊山一邊海,407台中市西屯區西屯路三段84之6號,1475,Eta,山的那一邊,66.66666666666667,新竹縣五峰鄉桃山村18鄰311-37號,19.047619047619047
197,Shelly,濱海樂園,439台中市大安區大安港海堤,494,Shelly,山樂園,80.0,605嘉義縣阿里山鄉一鄰2號附11號,0.0
198,Shelly,ㄚ啥布露-免搭帳露營,424台中市和平區東關路一段松鶴二巷4之3號,563,Shelly,鷗漫景觀農場 | 宜蘭親子露營 | 寵物友善 | 百萬夜景 | 可烤肉 | 團露首選 | 草地星空露營區 | 車露自露 | 宜蘭旅遊 | 免搭帳露營推薦,58.82352941176471,262宜蘭縣礁溪鄉匏杓崙路132-15號,19.354838709677423
199,Shelly,頭櫃山露營區,426台中市新社區永櫃22-1號,433,Shelly,羅山露營區,88.88888888888889,983花蓮縣富里鄉,0.0
200,Shelly,神農谷健康休閒中心,424台中市和平區東關路一段松鶴三巷100之8號,329,Shelly,八寶寮休閒中心,72.72727272727273,606嘉義縣中埔鄉52號,25.0
201,Shelly,中正露營區大平台,406台中市北屯區,192,Shelly,中正露營區下平台,87.5,台中市北屯區406,80.0
202,Shelly,圓緣山居—露營區,423台中市東勢區東崎路三段688巷100弄19號,462,Shelly,夕落山居露營區,76.92307692307692,602嘉義縣番路鄉,22.22222222222222
203,Shelly,石岡森林,422台中市石岡區石岡街頭坪巷9-2號,805,Shelly,森林遇,80.0,313新竹縣尖石鄉號,19.999999999999996
204,Shelly,原野露營區,424台中市和平區東關路三段2號,68,Shelly,築露中原露營區,88.88888888888889,546南投縣仁愛鄉原名路43附2號546別用門牌導航會迷路，直接搜尋築露中原導航即可,25.0
205,Shelly,石岡水舍,422台中市石岡區石城街47-1號,203,Shelly,石岡森林,66.66666666666667,422台中市石岡區石岡街頭坪巷9-2號,75.86206896551724
206,Shelly,鐵砧山星光露營區,437台中市大甲區成功路221號,1,Shelly,陽光露營區,88.88888888888889,546南投縣仁愛鄉榮光巷50號5,12.903225806451612
207,Shelly,覓跡-台中和平露營區,424131台中市和平區雅比斯街1-9號,299,Shelly,露舍營家露營區,60.0,845高雄市內門區,22.22222222222222
208,Shelly,大雪山 茂山樂園,424台中市和平區雪山路富山巷8號,494,Shelly,山樂園,100.0,605嘉義縣阿里山鄉一鄰2號附11號,17.391304347826086
209,Shelly,何必館景觀小屋,424台中市和平區東關路一段裡冷巷1-7號,321,Shelly,橘屋,66.66666666666667,712台南市新化區150號,36.36363636363637
210,Shelly,一星伴夢幻營區（官方）,502彰化縣芬園鄉彰南路二段,219,Shelly,一星伴,100.0,408台中市南屯區大進街11號,19.047619047619047
211,Shelly,完美谷營地,424台中市和平區,947,Shelly,木河谷營地,75.0,336桃園市復興區,30.76923076923077
212,Shelly,大雄的家露營休閒區,426台中市新社區永豐45-2號,1530,Eta,露薩休閒露營區,66.66666666666667,桃園市復興區三光里爺亨35-1號,37.03703703703704
213,Shelly,黃金森林生態露營區,544南投縣國姓鄉長福村長雙巷9號,299,Shelly,露舍營家露營區,60.0,845高雄市內門區,19.999999999999996
214,Shelly,在Lu營,424台中市和平區東關路一段松鶴三巷100號,148,Shelly,樂在露營,57.14285714285714,426台中市新社區協中街211巷27號,42.85714285714286
215,Shelly,石壁露營區,424台中市和平區,1397,Eta,石壁露營區,100.0,台中市和平區東關路一段430號,80.0
216,Shelly,三叉營地,424台中市和平區,1050,Shelly,奇萊山北峰三叉營地,100.0,972花蓮縣秀林鄉,18.181818181818176
217,Shelly,閣香亭,42391台中市東勢區東關路四段128巷33號,843,Shelly,閣馬雅農場附設露營區,50.0,121313 TW 新竹縣 尖石鄉 24.7217172002244.2528473,31.25
218,Shelly,大棟農場,No. 1之7號 雪山路和平區台中市424,0,Shelly,樂活森林農場,66.66666666666667,545南投縣埔里鎮桃米路55-1號,16.000000000000004
219,Shelly,一星伴,408台中市南屯區大進街11號,210,Shelly,一星伴夢幻營區（官方）,100.0,502彰化縣芬園鄉彰南路二段,19.047619047619047
220,Shelly,星月假期-台中露營-住宿-烤肉-飯店-泡湯,421台中市后里區月眉北路482號之1號,1014,Shelly,後山星月,66.66666666666667,974花蓮縣壽豐鄉月眉村月眉二段37-1號,27.586206896551722
221,Shelly,Night-Elf 夜精靈景觀手作下午茶-可露營-玫瑰花-盆栽（請先來電，避免撲空）,411台中市太平區山田路長青巷19號,99,Shelly,玫花露露營區,33.333333333333336,545南投縣埔里鎮東峰路18號,27.27272727272727
222,Shelly,勝開心腳踏車電動車出租/露營/車泊,420台中市豐原區豐勢 路 二 段 535 巷 100 弄5號,772,Shelly,享呆露營車出租,50.0,231新北市新店區安康路二段287號,34.285714285714285
223,Shelly,MOMO佳園民宿,42646台中市新社區協中街189-2號,691,Shelly,華園露營民宿,66.66666666666667,945屏東縣牡丹鄉大梅路1之7號,19.999999999999996
224,Shelly,貴子坑露營場,112台北市北投區秀山路85巷80號,230,Shelly,貴子坑露營場淋浴間,100.0,112台北市北投區秀山路85巷80號,100.0
225,Shelly,碧山露營場,114台北市內湖區碧山路26-6號,226,Shelly,碧山露營場森林營區,100.0,114台北市內湖區114,85.71428571428572
226,Shelly,碧山露營場森林營區,114台北市內湖區114,225,Shelly,碧山露營場,100.0,114台北市內湖區碧山路26-6號,85.71428571428572
227,Shelly,蟬說: 暖硫 Chanshuo Warm Flow Glamping,111台北市士林區菁山路101巷71弄16號,316,Shelly,露悠悠Glamping,84.21052631578947,844高雄市六龜區尾庄55之2號,16.000000000000004
228,Shelly,客泊樂 Kamper Land,9樓 No. 29號民生東路一段中山區台北市104,430,Shelly,心泊一隅 Simple and Cozy,60.0,962台東縣長濱鄉,23.529411764705888
229,Shelly,華中露營場,108台北市萬華區萬大路底號華中河濱公園(左區,271,Shelly,華中露營場汽車露營區,100.0,108台北市萬華區台北市萬華區,80.0
230,Shelly,貴子坑露營場淋浴間,112台北市北投區秀山路85巷80號,224,Shelly,貴子坑露營場,100.0,112台北市北投區秀山路85巷80號,100.0
231,Shelly,陽明山菁山遊憩區露營區,111台北市士林區菁山路101巷71弄16號,299,Shelly,露舍營家露營區,60.0,845高雄市內門區,22.22222222222222
232,Shelly,金山驛境 Gold Mountain Ranch Town,208新北市金山區仔5-2號,396,Shelly,金山星空露營區,44.44444444444444,964台東縣金峰鄉佳崙產業道路,9.523809523809524
233,Shelly,貴子坑露營場辦公室,112台北市北投區秀山路161號,224,Shelly,貴子坑露營場,100.0,112台北市北投區秀山路85巷80號,85.71428571428572
234,Shelly,中華民國童軍苗圃營地,112台北市北投區竹子湖路1-10號,29,Shelly,龍泉營地,66.66666666666667,54550南投縣埔里鎮武界路28之10號,33.333333333333336
235,Shelly,碉堡露營區,253新北市石門區Unnamed Road,853,Shelly,移動城堡露營區,88.88888888888889,311新竹縣五峰鄉310-3號,21.052631578947366
236,Shelly,甜蜜點休閒莊園,251新北市淡水區奎柔山路189號,335,Shelly,大山拾光休閒莊園,72.72727272727273,844高雄市六龜區和平路130-35號,32.25806451612904
237,Shelly,三芝老農夫農場,252新北市三芝區芝蘭路62之5號,218,Shelly,大棟農場,66.66666666666667,No. 1之7號 雪山路和平區台中市424,19.047619047619047
238,Shelly,泰雅巴萊部落村,233新北市烏來區西羅岸路132號,1038,Shelly,松村,66.66666666666667,981花蓮縣玉里鎮號,28.57142857142857
239,Shelly,半島秘境-白沙灣濱海民宿,253新北市石門區下員坑15 號,691,Shelly,華園露營民宿,50.0,945屏東縣牡丹鄉大梅路1之7號,21.052631578947366
240,Shelly,文山森活露營區,231新北市新店區湖子內路100號,1592,Eta,樂活露營區,88.88888888888889,苗栗縣公館鄉,0.0
241,Shelly,格致童軍營地,111台北市士林區仰德大道四段75號,747,Shelly,新北市石碇童軍營地,80.0,223新北市石碇區,33.333333333333336
242,Shelly,桶壁角露營區,233新北市烏來區92號金堰,215,Shelly,石壁露營區,80.0,424台中市和平區,33.333333333333336
243,Shelly,露營車出租(預約送到府)雙北/桃園/新竹,103台北市大同區民生西路432號8樓,332,Shelly,嚮露,66.66666666666667,844高雄市六龜區土壠149之10號,25.0
244,Shelly,十三層營地,Unnamed Rd 雙溪區新北市227,216,Shelly,三叉營地,75.0,424台中市和平區,18.181818181818176
245,Shelly,山間小露,227新北市雙溪區三叉坑4號,332,Shelly,嚮露,66.66666666666667,844高雄市六龜區土壠149之10號,29.629629629629626
246,Shelly,迴山里 GLAMPING,23343新北市烏來區金堰115巷10之1號,771,Shelly,丹內丹內野奢莊園 DANNEI GLAMPING,85.71428571428572,228新北市貢寮區仁和路21號,41.379310344827594
247,Shelly,山水畔休閒生態園區,237新北市三峽區建安路112-1號,695,Shelly,樂園露營區,57.14285714285714,929屏東縣琉球鄉復興路32-15號,41.666666666666664
248,Shelly,給樹營地,233新北市烏來區西羅岸路132之5號,8,Shelly,緣溪行森林營地,66.66666666666667,545南投縣埔里鎮乾溪景觀橋545號,19.999999999999996
249,Shelly,大舌湖營地,232新北市坪林區大舌湖30號。,1034,Shelly,七彩湖營地,75.0,979花蓮縣萬榮鄉,0.0
250,Shelly,龍門露營渡假基地－新北(露營區/北部露營區/親子露營區/度假露營區/休閒露營區/露營區推薦 ),228新北市貢寮區興隆街100號,53,Shelly,合興休閒營區,66.66666666666667,555南投縣魚池鄉華龍巷73-1號,22.22222222222222
251,Shelly,綠野山林 (成家營地),232新北市坪林區石槽50號,312,Shelly,綠野果園,66.66666666666667,731台南市後壁區,33.333333333333336
252,Shelly,三峽樂樂谷車泊車宿木屋露營烤肉園區,237新北市三峽區153-1號,695,Shelly,樂園露營區,57.14285714285714,929屏東縣琉球鄉復興路32-15號,40.0
253,Shelly,LAPOPO 拉波波村,205基隆市暖暖區東勢街221號,1038,Shelly,松村,66.66666666666667,981花蓮縣玉里鎮號,33.333333333333336
254,Shelly,皇后鎮森林三峽,237新北市三峽區竹崙路95巷1號,259,Shelly,皇后鎮森林金山,83.33333333333334,207新北市萬里區大鵬街111號,48.0
255,Shelly,蕃米力親子營地(原月牙灣),232新北市坪林區,29,Shelly,龍泉營地,50.0,54550南投縣埔里鎮武界路28之10號,13.33333333333333
256,Shelly,葵扇湖休閒農場,208新北市金山區兩湖里 2鄰,744,Shelly,星錡休閒農場,80.0,512彰化縣永靖鄉東畔路238之46號,18.181818181818176
257,Shelly,19庄-海景露營庄園,252新北市三芝區北勢子19號,332,Shelly,嚮露,50.0,844高雄市六龜區土壠149之10號,35.71428571428571
258,Shelly,黑金大閘蟹的家,227新北市雙溪區過溪3-1號,155,Shelly,照哥的家,66.66666666666667,424台中市和平區東關路一段裡冷巷86號,25.0
259,Shelly,皇后鎮森林金山,207新北市萬里區大鵬街111號,254,Shelly,皇后鎮森林三峽,83.33333333333334,237新北市三峽區竹崙路95巷1號,48.0
260,Shelly,新石門營地,新北市坪林區2號,29,Shelly,龍泉營地,66.66666666666667,54550南投縣埔里鎮武界路28之10號,28.57142857142857
261,Shelly,水田園農莊,207新北市萬里區,82,Shelly,山水園露營農莊,60.0,544南投縣國姓鄉大長路117-1號,15.384615384615385
262,Shelly,鐵馬新樂園,232新北市坪林區金瓜寮19之1號,494,Shelly,山樂園,80.0,605嘉義縣阿里山鄉一鄰2號附11號,34.78260869565217
263,Shelly,綠峰渡假山莊 - 新北 金山 渡假山莊推薦 住宿首選 家庭親子度假好評 游泳池 網紅 網美 網友高CP值 熱門 人氣 價格 評價 首選 必住 平價 情侶 多人住宿 團體 打卡 訂房優惠 山景 旅遊 休閒 輕旅行 PTT Dcard,208新北市金山區三重橋22號,1359,Eta,森活家露營渡假山莊,53.333333333333336,南投縣草屯鎮雙冬里雙龍巷5之20號,33.333333333333336
264,Shelly,坪林大溪地露營區,232新北市坪林區鶯子瀨路2之5號,145,Shelly,綠大地露營區,83.33333333333334,42646台中市新社區上坪4-6號,25.0
265,Shelly,林園營地,232新北市坪林區號,8,Shelly,緣溪行森林營地,85.71428571428572,545南投縣埔里鎮乾溪景觀橋545號,18.181818181818176
266,Shelly,卡果牧場,337桃園市大園區埔心83-2號,436,Shelly,台東初鹿親子羊牧場,66.66666666666667,95444台東縣卑南鄉改良場路76號,21.052631578947366
267,Shelly,水樂活親子農場,320桃園市中壢區福達路二段628號,1073,Shelly,星樂親子露營,54.54545454545454,36542苗栗縣泰安鄉68號,44.44444444444444
268,Shelly,福山緣,233新北市烏來區卡拉模基2號,759,Shelly,福山達卡露營區,80.0,233新北市烏來區大羅蘭19之1號,75.0
269,Shelly,すず,111台北市士林區德行東路81巷15弄 No. 35,0,Shelly,樂活森林農場,0.0,545南投縣埔里鎮桃米路55-1號,19.354838709677423
270,Shelly,金山青年活動中心露營場,208新北市金山區青年路1號,31,Shelly,大衛營露營農場,60.0,542南投縣草屯鎮富德街66巷75號,13.33333333333333
271,Shelly,華中露營場汽車露營區,108台北市萬華區台北市萬華區,689,Shelly,車露,100.0,941屏東縣枋山鄉,19.999999999999996
272,Shelly,長青谷大自然園區,231新北市新店區新潭路二段25號,695,Shelly,樂園露營區,57.14285714285714,929屏東縣琉球鄉復興路32-15號,36.36363636363637
273,Shelly,十分自然露營區,226新北市平溪區靜安路三段391之7號,1426,Eta,十分自然露營區,100.0,新北市平溪區靜安路三段391號,93.33333333333333
274,Shelly,露營樂1號店 台南左鎮旗艦館 親子露營區,713台南市左鎮區光和65之5號,647,Shelly,林沐林 親子露營區,80.0,945屏東縣牡丹鄉村東源路137號,30.000000000000004
275,Shelly,漫度漁光,708台南市安平區安億路77號,1098,Shelly,漁光中露營區 Fisher Campground,66.66666666666667,369苗栗縣卓蘭鎮27-2號,25.0
276,Shelly,梅嶺神秘氣場露營區,715台南市楠西區香蕉山51之6號,299,Shelly,露舍營家露營區,60.0,845高雄市內門區,33.333333333333336
277,Shelly,曉晴星空台南玉沙農場營區,台南市玉井區沙田1之6號,361,Shelly,曉晴星空露營地,72.72727272727273,962台東縣長濱鄉成靜公路,14.28571428571429
278,Shelly,尖山埤營地,736台南市柳營區60號,292,Shelly,尖山埤露營區,80.0,736台南市柳營區南107鄉道,85.71428571428572
279,Shelly,"關子嶺- 一家園農場露營區 Camping House, Guanziling, Tainan",732台南市白河區98-1號 98-1號,1391,Eta,家霖農場,75.0,台中市和平區東關路一段台電巷122-2號,32.432432432432435
280,Shelly,LOHAS澄沐樂活,713台南市左鎮區澄山51-1號,1592,Eta,樂活露營區,57.14285714285714,苗栗縣公館鄉,0.0
281,Shelly,空島露營區,606中埔鄉三層村崎頭仔7號,396,Shelly,金山星空露營區,88.88888888888889,964台東縣金峰鄉佳崙產業道路,17.391304347826086
282,Shelly,群木淺嚐露營區《推薦露營區》自搭帳露營｜團體露營｜平價｜熱門｜人氣露營區｜車宿露營｜森林系草皮露營區,742台南市大內區123號,299,Shelly,露舍營家露營區,60.0,845高雄市內門區,44.44444444444444
283,Shelly,白毛獵人露營農場,709台南市安南區安明路四段843號,218,Shelly,大棟農場,66.66666666666667,No. 1之7號 雪山路和平區台中市424,25.0
284,Shelly,綠境1號露營農場,715台南市楠西區,218,Shelly,大棟農場,66.66666666666667,No. 1之7號 雪山路和平區台中市424,26.66666666666667
285,Shelly,荷蘭村露營區/獨木舟,736台南市柳營區神農里7鄰新厝100號,603,Shelly,露樹露營區,60.0,262001宜蘭縣礁溪鄉白石腳路101號,26.086956521739136
286,Shelly,走馬瀨農場露營區,742台南市大內區Unnamed Road,33,Shelly,高峰農場露營區,83.33333333333334,544南投縣國姓鄉長石巷42-9號,19.999999999999996
287,Shelly,卧虎營區,72045台南市官田區南119鄉道南120鄉道南119鄉道南120鄉道,10,Shelly,武界雲窩森林露營區,66.66666666666667,546南投縣仁愛鄉茶園巷1附2號,31.25
288,Shelly,虎頭埤露營區,712台南市新化區中興路42巷36號,292,Shelly,尖山埤露營區,80.0,736台南市柳營區南107鄉道,41.666666666666664
289,Shelly,微光露營區,台南市楠西區48之7號,295,Shelly,將軍 微光露營區,100.0,725台南市將軍區好佳庭農場,40.0
290,Shelly,Glamping Riverside曲水左鎮,713台南市左鎮區,316,Shelly,露悠悠Glamping,84.21052631578947,844高雄市六龜區尾庄55之2號,22.22222222222222
291,Shelly,大內二溪輕鬆秘境露營區,742002台南市大內區201之17號,299,Shelly,露舍營家露營區,60.0,845高雄市內門區,33.333333333333336
292,Shelly,尖山埤露營區,736台南市柳營區南107鄉道,278,Shelly,尖山埤營地,80.0,736台南市柳營區60號,85.71428571428572
293,Shelly,雲頂松林露營區,732台南市白河區內3之7號,573,Shelly,松蘿園林露營區,83.33333333333334,267宜蘭縣大同鄉泰雅路二段92巷199之1號,27.27272727272727
294,Shelly,珊瑚潭草地露營區,720台南市官田區,458,Shelly,草地狀元露營區,83.33333333333334,602嘉義縣番路鄉：159甲26.5K处號,18.181818181818176
295,Shelly,將軍 微光露營區,725台南市將軍區好佳庭農場,289,Shelly,微光露營區,100.0,台南市楠西區48之7號,40.0
296,Shelly,北側露營區,720台南市官田區720,992,Shelly,蒝區,66.66666666666667,32659桃園市楊梅區幼獅路一段439號東南側,26.086956521739136
297,Shelly,銀河生態農場[車泊露營],732台南市白河區93鄉道1.5號公里處,1544,Eta,桃蘆坑生態農場,61.53846153846154,桃園市蘆竹區山林路三段855-1號,25.0
298,Shelly,印月農莊,716台南市南化區,46,Shelly,芭喇露營區休閒農莊,66.66666666666667,546南投縣仁愛鄉武界林道,30.76923076923077
299,Shelly,露舍營家露營區,845高雄市內門區,1276,Shelly,露舍營家入口,80.0,845高雄市內門區華園3912號,100.0
300,Shelly,珊瑚潭童軍露營中心,720台南市官田區八田路三段櫻花巷59號,294,Shelly,珊瑚潭草地露營區,66.66666666666667,720台南市官田區,100.0
301,Shelly,二寮聚樂部,713台南市左鎮區龍崎產業道路,148,Shelly,樂在露營,33.333333333333336,426台中市新社區協中街211巷27號,25.0
302,Shelly,一水綠舟莊園,711台南市歸仁區智慧綠能大道二段500巷20號,134,Shelly,覓靜莊園,66.66666666666667,424台中市和平區東關路一段裡冷巷99號,25.64102564102564
303,Shelly,關子嶺開心休閒農場,732台南市白河區關嶺里南寮8 鄰 19一16號,744,Shelly,星錡休閒農場,80.0,512彰化縣永靖鄉東畔路238之46號,27.27272727272727
304,Shelly,梅嶺青青河畔茶樹露營區,715台南市楠西區灣丘里梅嶺,299,Shelly,露舍營家露營區,60.0,845高雄市內門區,33.333333333333336
305,Shelly,Horse on 馬上露營 - 台南 關廟 專業露營推薦 露營地點好評 自搭帳 懶人露營首選 懶人貨櫃屋 秘境露營區 包園體驗 寵物友善 網友推薦高CP值 家庭 親子 團體 免裝備露營 騎馬體驗 戶外活動 星空電影院 烤肉 BBQ,718台南市關廟區靶場一街126號,603,Shelly,露樹露營區,60.0,262001宜蘭縣礁溪鄉白石腳路101號,28.57142857142857
306,Shelly,芒果香露營區,714台南市玉井區714,116,Shelly,雙香露營區,88.88888888888889,424台中市和平區東崎路二段19-25號,38.095238095238095
307,Shelly,安平漁人馬桶,708台南市安平區,545,Shelly,石腳桶,50.0,嘉義縣番路鄉,0.0
308,Shelly,加利利以琳露營區,714台南市玉井區85號,442,Shelly,加利利海石梯坪露營區,54.54545454545454,977花蓮縣豐濱鄉,19.999999999999996
309,Shelly,尖山埤鴻盛露營區,736台南市柳營區60號,292,Shelly,尖山埤露營區,66.66666666666667,736台南市柳營區南107鄉道,85.71428571428572
310,Shelly,White River Hill,732台南市白河區15-61號,290,Shelly,Glamping Riverside曲水左鎮,50.0,713台南市左鎮區,66.66666666666667
311,Shelly,楠西碧園(車床天地棧點),715003台南市楠西區,715,Shelly,車床天地德文棧,71.42857142857143,901屏東縣三地門鄉901,17.391304347826086
312,Shelly,綠野果園,731台南市後壁區,100,Shelly,綠野森林農場室內營位屋 露營區,66.66666666666667,545南投縣埔里鎮西安路一段550巷12-1號,18.181818181818176
313,Shelly,達里沐露營區,849高雄市那瑪夏區,87,Shelly,沐晨露營區,88.88888888888889,544002南投縣國姓鄉長豐村東一巷51-8號,16.666666666666664
314,Shelly,麗祈樂活,716台南市南化區,1592,Eta,樂活露營區,66.66666666666667,苗栗縣公館鄉,0.0
315,Shelly,寶哥私人露營區,732台南市白河區,649,Shelly,獵人露營區,88.88888888888889,903屏東縣瑪家鄉瑪家道路,16.666666666666664
316,Shelly,露悠悠Glamping,844高雄市六龜區尾庄55之2號,227,Shelly,蟬說: 暖硫 Chanshuo Warm Flow Glamping,84.21052631578947,111台北市士林區菁山路101巷71弄16號,16.000000000000004
317,Shelly,高雄_桂田休閒莊園露營區,846高雄市杉林區桐竹路61-12號,299,Shelly,露舍營家露營區,60.0,845高雄市內門區,66.66666666666667
318,Shelly,王董農莊,715台南市楠西區,46,Shelly,芭喇露營區休閒農莊,66.66666666666667,546南投縣仁愛鄉武界林道,30.76923076923077
319,Shelly,冠達驛站,722台南市佳里區麻佳路三段138巷150弄21號,7,Shelly,涵香小屋露營驛站,66.66666666666667,555南投縣魚池鄉五馬巷2之10號,34.78260869565217
320,Shelly,左觀,732台南市白河區,733,Shelly,觀星山莊露營民宿,66.66666666666667,901002屏東縣三地門鄉北巴巷99號,13.33333333333333
321,Shelly,橘屋,712台南市新化區150號,41,Shelly,武界松露露營區&小木屋,66.66666666666667,54669南投縣仁愛鄉武安路1附6號,23.529411764705888
322,Shelly,呼叫223農場,845高雄市內門區,218,Shelly,大棟農場,66.66666666666667,No. 1之7號 雪山路和平區台中市424,19.999999999999996
323,Shelly,祥和長老教會 龍秋紀念營地,733台南市東山區油礦12鄰36-4號,29,Shelly,龍泉營地,66.66666666666667,54550南投縣埔里鎮武界路28之10號,18.181818181818176
324,Shelly,(南橫)開心休閒露營區,848高雄市桃源區南橫公路三段3-2號,299,Shelly,露舍營家露營區,60.0,845高雄市內門區,66.66666666666667
325,Shelly,茂升山林,845高雄市內門區號,1224,Shelly,山林好蒔光露營區,66.66666666666667,546南投縣仁愛鄉高峰巷70附1號,22.22222222222222
326,Shelly,蔡媽媽菜園,715台南市楠西區,381,Shelly,王媽媽家常菜/露營區,60.0,954台東縣卑南鄉溫泉村鎮樂路48號,35.29411764705882
327,Shelly,坤哥苓仔寮三合院,725台南市將軍區69號,837,Shelly,星院露營區,33.333333333333336,新竹縣北埔鄉314 鄉下 10 鄰,0.0
328,Shelly,大埔露營區營地,607嘉義縣大埔鄉,340,Shelly,後大埔露營區,90.9090909090909,607嘉義縣大埔鄉大埔路,100.0
329,Shelly,八寶寮休閒中心,606嘉義縣中埔鄉52號,200,Shelly,神農谷健康休閒中心,72.72727272727273,424台中市和平區東關路一段松鶴三巷100之8號,25.0
330,Shelly,雲水山露營區,607嘉義縣大埔鄉,1628,Eta,洗水山露營區,90.9090909090909,苗栗縣泰安鄉清安村,30.76923076923077
331,Shelly,山上別院 Yamakami Living,743台南市山上區號,1156,Shelly,逸山露營,40.0,35877苗栗縣苑裡鎮22-7號,33.333333333333336
332,Shelly,嚮露,844高雄市六龜區土壠149之10號,19,Shelly,露野森林SNUWING,66.66666666666667,546南投縣仁愛鄉,18.181818181818176
333,Shelly,白石馬露營區,606011嘉義縣中埔鄉灣潭子段13-24地號金記宅,91,Shelly,馬沙露營區,88.88888888888889,544南投縣國姓鄉大長路616-1號,27.77777777777778
334,Shelly,將軍彩繪公園,725台南市將軍區南18鄉道81號,295,Shelly,將軍 微光露營區,50.0,725台南市將軍區好佳庭農場,78.26086956521739
335,Shelly,大山拾光休閒莊園,844高雄市六龜區和平路130-35號,1307,Shelly,大寮山,80.0,846高雄市杉林區,66.66666666666667
336,Shelly,藍色33號窩露營區,605嘉義縣阿里山鄉33號,299,Shelly,露舍營家露營區,60.0,845高雄市內門區,16.666666666666664
337,Shelly,荖濃有機農場露營區,844高雄市六龜區裕濃路81巷18號,299,Shelly,露舍營家露營區,60.0,845高雄市內門區,66.66666666666667
338,Shelly,野營點無水，有樹遮陽,712台南市新化區,1305,Shelly,野營點無水，林相美可遮陽,75.0,845高雄市內門區,30.76923076923077
339,Shelly,阿爾山露營區,848高雄市桃源區,433,Shelly,羅山露營區,88.88888888888889,983花蓮縣富里鄉,19.999999999999996
340,Shelly,後大埔露營區,607嘉義縣大埔鄉大埔路,328,Shelly,大埔露營區營地,90.9090909090909,607嘉義縣大埔鄉,100.0
341,Shelly,高雄六龜十八羅漢山露營區,844高雄市六龜區,299,Shelly,露舍營家露營區,60.0,845高雄市內門區,66.66666666666667
342,Shelly,溫德莊園,844高雄市六龜區,88,Shelly,遇見東平莊園,66.66666666666667,545南投縣埔里鎮覆金路21之1號,18.181818181818176
343,Shelly,善知院-禪的生活園地,732台南市白河區37號,265,Shelly,林園營地,66.66666666666667,232新北市坪林區號,42.10526315789473
344,Shelly,月媽媽快樂露營區,845高雄市內門區木柵43號木柵教會隔壁,1177,Shelly,快樂露營區,100.0,365苗栗縣泰安鄉高熊卡4鄰60號,25.806451612903224
345,Shelly,陸石五木露營區,846高雄市杉林區通仙巷236號,1604,Eta,慕木露營區,88.88888888888889,苗栗縣南庄鄉,0.0
346,Shelly,大學林露營區,848高雄市桃源區荖濃溪林道,1668,Eta,大學林,100.0,高雄市桃源區,100.0
347,Shelly,泗高露棧,844高雄市六龜區和平路130-38號,375,Shelly,台東心路旅程露營棧,57.14285714285714,959台東縣東河鄉都蘭村舊廍15-3號,33.333333333333336
348,Shelly,梅園野營秘境,848高雄市桃源區梅山巷,1128,Shelly,秘境露營區,57.14285714285714,353苗栗縣南庄鄉,0.0
349,Shelly,海銀花園,71942台南市龍崎區26-1號,351,Shelly,167咖啡 海銀花園,100.0,71942台南市龍崎區23-2號,87.5
350,Shelly,六龜陽光綠地水世界露營區,844高雄市六龜區和平路305-2號,299,Shelly,露舍營家露營區,60.0,845高雄市內門區,66.66666666666667
351,Shelly,167咖啡 海銀花園,71942台南市龍崎區23-2號,349,Shelly,海銀花園,100.0,71942台南市龍崎區26-1號,87.5
352,Shelly,有夠遠露營區,605嘉義縣阿里山鄉,992,Shelly,蒝區,66.66666666666667,32659桃園市楊梅區幼獅路一段439號東南側,28.57142857142857
353,Shelly,將軍山歐舍營地,845高雄市內門區34號,29,Shelly,龍泉營地,66.66666666666667,54550南投縣埔里鎮武界路28之10號,28.57142857142857
354,Shelly,老爺的家露營區,845高雄市內門區埤後1-1號,504,Shelly,羅老爸的家露營區,85.71428571428572,605嘉義縣阿里山鄉,15.384615384615385
355,Shelly,蘇菲凱文露營莊園 - 露營區,844高雄市六龜區和平路303-5號,399,Shelly,阿諾莊園 - 餐廳、露營區,76.19047619047619,953台東縣延平鄉昇平路,19.999999999999996
356,Shelly,台東 星夜光海露營區｜車泊｜咖啡（請先電話預約）,954台東縣卑南鄉民生22之2號,357,Shelly,台東秘境露營,50.0,954台東縣卑南鄉,100.0
357,Shelly,台東秘境露營,954台東縣卑南鄉,1128,Shelly,秘境露營區,88.88888888888889,353苗栗縣南庄鄉,47.05882352941176
358,Shelly,紫色太平洋露營區,台東縣東河鄉95941168號,992,Shelly,蒝區,66.66666666666667,32659桃園市楊梅區幼獅路一段439號東南側,19.999999999999996
359,Shelly,鹿野高台大草原露營區,95541台東縣鹿野鄉永安村高台路42巷133號,299,Shelly,露舍營家露營區,60.0,845高雄市內門區,18.181818181818176
360,Shelly,小野柳露營區,950台東縣台東市松江路一段440號小野柳露營區,400,Shelly,交通部觀光署東部海岸國家風景區管理處小野柳露營區,100.0,950台東縣台東市松江路一段269號,87.5
361,Shelly,曉晴星空露營地,962台東縣長濱鄉成靜公路,130,Shelly,曉晴星空三營台中新社營區,76.92307692307692,426台中市新社區上坪4-3號,23.529411764705888
362,Shelly,山上的海邊露營區,950台東縣台東市建和四街181之1號,613,Shelly,睡海邊,66.66666666666667,270宜蘭縣蘇澳鎮東澳路101巷19號,38.888888888888886
363,Shelly,昆布海灣露營區,961台東縣成功鎮麒麟路114-5號,929,Shelly,馬灣露營區,88.88888888888889,336桃園市復興區霞雲里,14.28571428571429
364,Shelly,虂櫿嶇Danadanaw,954台東縣卑南鄉68號,825,Shelly,Payan露營區,42.85714285714286,313新竹縣尖石鄉,25.0
365,Shelly,富岡海悅露營區,950台東縣台東市吉林路二段600號,676,Shelly,海山露營區,80.0,946屏東縣恆春鎮島路200-2號,38.70967741935484
366,Shelly,快樂天堂露營區,950台東縣台東市,1177,Shelly,快樂露營區,75.0,365苗栗縣泰安鄉高熊卡4鄰60號,26.66666666666667
367,Shelly,麒麟部落露營區,961台東縣成功鎮麒麟路52-6號,686,Shelly,伊部落露營區,90.9090909090909,90191屏東縣三地門鄉民族巷100-4號,31.999999999999996
368,Shelly,菲卡樂Vikar tjuveljelem園區,963005台東縣太麻里鄉,695,Shelly,樂園露營區,57.14285714285714,929屏東縣琉球鄉復興路32-15號,36.36363636363637
369,Shelly,三姊快樂露營區,95544台東縣鹿野鄉鹿鳴路100巷5之1號,1177,Shelly,快樂露營區,100.0,365苗栗縣泰安鄉高熊卡4鄰60號,25.0
370,Shelly,台東天闊休閒露營區,96142台東縣成功鎮麒麟路5之1號,299,Shelly,露舍營家露營區,60.0,845高雄市內門區,15.384615384615385
371,Shelly,浪花蟹露營區,962台東縣長濱鄉三間村真柄4鄰,570,Shelly,無憂花露營區,80.0,262宜蘭縣礁溪鄉白石腳路157巷88號,31.999999999999996
372,Shelly,無憂海景秘境,963台東縣太麻里鄉台東縣太麻里,1128,Shelly,秘境露營區,57.14285714285714,353苗栗縣南庄鄉,33.333333333333336
373,Shelly,逐浪露營地,961台東縣成功鎮隧道路23之10號,1552,Eta,眺浪營地,75.0,花蓮縣豐濱鄉港口村石梯坪33號,21.42857142857143
374,Shelly,都蘭五線-山海賞星緣 （露營區Camping area）,959台東縣東河鄉59-2號,73,Shelly,部落之丘 Camping,66.66666666666667,555南投縣魚池鄉文正巷1之45號,30.76923076923077
375,Shelly,台東心路旅程露營棧,959台東縣東河鄉都蘭村舊廍15-3號,357,Shelly,台東秘境露營,50.0,954台東縣卑南鄉,66.66666666666667
376,Shelly,美山晴露營,961台東縣成功鎮忠孝里美山路230號,421,Shelly,美山的露營區,80.0,961台東縣成功鎮忠孝里美山路238號,94.73684210526316
377,Shelly,82遶灣 Pa’alawan露營區,962台東縣長濱鄉真柄四鄰,299,Shelly,露舍營家露營區,60.0,845高雄市內門區,0.0
378,Shelly,真柄禾多小酒館,962台東縣長濱鄉962,809,Shelly,函館露營區,33.333333333333336,313新竹縣尖石鄉義興村9鄰107-1號,25.0
379,Shelly,星願農場,954台東縣卑南鄉,0,Shelly,樂活森林農場,66.66666666666667,545南投縣埔里鎮桃米路55-1號,46.15384615384615
380,Shelly,Safolo露營區,959台東縣東河鄉港1鄰74號,299,Shelly,露舍營家露營區,60.0,845高雄市內門區,18.181818181818176
381,Shelly,王媽媽家常菜/露營區,954台東縣卑南鄉溫泉村鎮樂路48號,299,Shelly,露舍營家露營區,60.0,845高雄市內門區,18.181818181818176
382,Shelly,知本山莊露營區,950台東縣台東市建和四街97-1號,85,Shelly,仙徠山莊露營區,83.33333333333334,544南投縣國姓鄉長豐村東二巷71號,34.285714285714285
383,Shelly,初鹿椰子林露營區,954台東縣卑南鄉忠孝路龍過脈,111,Shelly,九甲林露營區,80.0,422台中市石岡區萬仙街岡仙巷7-1號請先搜尋五福臨門神木,21.052631578947366
384,Shelly,慕樟露營區camphor camp-台11線82公里,962台東縣長濱鄉台11線,603,Shelly,露樹露營區,60.0,262001宜蘭縣礁溪鄉白石腳路101號,31.999999999999996
385,Shelly,都蘭•錄托邦,959台東縣東河鄉,374,Shelly,都蘭五線-山海賞星緣 （露營區Camping area）,50.0,959台東縣東河鄉59-2號,100.0
386,Shelly,ㄧ零八零1080露營區,953台東縣延平鄉,299,Shelly,露舍營家露營區,60.0,845高雄市內門區,18.181818181818176
387,Shelly,都蘭部落後花園露營區,959台東縣東河鄉,299,Shelly,露舍營家露營區,60.0,845高雄市內門區,18.181818181818176
388,Shelly,初鹿之夜度假露營區,954台東縣卑南鄉原生植物園[台灣好行,299,Shelly,露舍營家露營區,60.0,845高雄市內門區,18.181818181818176
389,Shelly,小雄72號露營區,958台東縣池上鄉大埔村7鄰大埔72號,950,Shelly,一號地露營區,80.0,336桃園市復興區,0.0
390,Shelly,狗有村營地,959001台東縣東河鄉花東海岸公路三線產業道路,29,Shelly,龍泉營地,66.66666666666667,54550南投縣埔里鎮武界路28之10號,24.0
391,Shelly,原始角落,964台東縣金峰鄉423號,1611,Eta,日光角落,66.66666666666667,苗栗縣泰安鄉錦水村半天寮3鄰45之5號,23.076923076923073
392,Shelly,比西里岸營地/渡假小木屋,961台東縣成功鎮白蓮路170-1號,321,Shelly,橘屋,66.66666666666667,712台南市新化區150號,33.333333333333336
393,Shelly,射馬干農場,950台東縣台東市建和四街91之2號,218,Shelly,大棟農場,66.66666666666667,No. 1之7號 雪山路和平區台中市424,25.0
394,Shelly,台東嘉豐營區,954台東縣卑南鄉,1064,Shelly,東豐露營區 （因颱風影響將無限期暫停營業）,72.72727272727273,981花蓮縣玉里鎮11之1號,26.66666666666667
395,Shelly,台東許雲露營區,961台東縣成功鎮成廣路29號,823,Shelly,觀雲露營區,88.88888888888889,311新竹縣五峰鄉,26.66666666666667
396,Shelly,金山星空露營區,964台東縣金峰鄉佳崙產業道路,1418,Eta,山谷星空露營區,92.3076923076923,宜蘭縣三星鄉泰雅一路301巷71號,24.0
397,Shelly,武茶露營區,957台東縣海端鄉中福路一鄰18之3號,1306,Shelly,藤枝製茶露營區,88.88888888888889,848高雄市桃源區寶山巷98 之 10 號,28.57142857142857
398,Shelly,最接近海的露營區,962台東縣長濱鄉,1564,Eta,的貴露營區,88.88888888888889,苗栗縣泰安鄉象鼻村3鄰永安17號,26.66666666666667
399,Shelly,阿諾莊園 - 餐廳、露營區,953台東縣延平鄉昇平路,355,Shelly,蘇菲凱文露營莊園 - 露營區,76.19047619047619,844高雄市六龜區和平路303-5號,19.999999999999996
400,Shelly,交通部觀光署東部海岸國家風景區管理處小野柳露營區,950台東縣台東市松江路一段269號,1106,Shelly,風露營,66.66666666666667,365苗栗縣泰安鄉馬那邦64號,22.22222222222222
401,Shelly,Anna開心農場,959台東縣東河鄉金樽產業道路,505,Shelly,竹崎開心農場,80.0,604嘉義縣竹崎鄉23-6,18.181818181818176
402,Shelly,東遊季露營區,954台東縣卑南鄉溫泉路376巷18號,416,Shelly,東遊季溫泉渡假村,66.66666666666667,954台東縣卑南鄉溫泉路376巷18號,100.0
403,Shelly,高爾夫球場營地,957台東縣海端鄉,404,Shelly,足球場營地,88.88888888888889,957台東縣海端鄉,100.0
404,Shelly,足球場營地,957台東縣海端鄉,403,Shelly,高爾夫球場營地,88.88888888888889,957台東縣海端鄉,100.0
405,Shelly,盛香源露營區,963台東縣太麻里鄉,97,Shelly,埔里桃米香露營區,80.0,545南投縣埔里鎮種瓜路33-2號,22.22222222222222
406,Shelly,思親園,961台東縣成功鎮富榮路119 號,802,Shelly,相思園露營區,66.66666666666667,313新竹縣尖石鄉96號 錦屏村2鄰比麟96號,30.000000000000004
407,Shelly,福鹿山休閒農莊,955台東縣鹿野鄉高台路42巷,946,Shelly,山大王休閒農莊,83.33333333333334,336桃園市復興區成福路,12.5
408,Shelly,三仙台馬拉尚露營區,961台東縣成功鎮跋邊路123號,299,Shelly,露舍營家露營區,60.0,845高雄市內門區,0.0
409,Shelly,嘉明湖山屋營地,957台東縣海端鄉南二段登山步道,750,Shelly,青山營地,75.0,新北市坪林區48之1號,0.0
410,Shelly,台東縣童軍會嘉豐營地,954台東縣卑南鄉,29,Shelly,龍泉營地,66.66666666666667,54550南投縣埔里鎮武界路28之10號,40.0
411,Shelly,排球場營地,957台東縣海端鄉,403,Shelly,高爾夫球場營地,88.88888888888889,957台東縣海端鄉,100.0
412,Shelly,獵寮營地 hunter house campground,957台東縣海端鄉,1098,Shelly,漁光中露營區 Fisher Campground,64.86486486486487,369苗栗縣卓蘭鎮27-2號,26.66666666666667
413,Shelly,樂山溫泉露營區,954台東縣卑南鄉龍泉路113巷29號,1529,Eta,樂見山,80.0,桃園市復興區,0.0
414,Shelly,瑞和時光驛站-鹿野住宿/露營/農遊體驗/在地特產/伴手禮-寵物友善（無店面預約制）,955台東縣鹿野鄉瑞景路三段50號,994,Shelly,友善露營區,40.0,336桃園市復興區中心路160-7號,25.0
415,Shelly,"巡海宮(淋浴,車泊,搭帳)",961台東縣成功鎮美山路231之2號,689,Shelly,車露,50.0,941屏東縣枋山鄉,53.333333333333336
416,Shelly,東遊季溫泉渡假村,954台東縣卑南鄉溫泉路376巷18號,402,Shelly,東遊季露營區,66.66666666666667,954台東縣卑南鄉溫泉路376巷18號,100.0
417,Shelly,Dodoro Camp,961台東縣成功鎮東河鄉都蘭村,109,Shelly,日月松林營地 Sun Moon Camp,73.6842105263158,55544南投縣魚池鄉有水巷21-41號,15.384615384615385
418,Shelly,知本野營活動場,954台東縣卑南鄉,473,Shelly,格瑞菈森林~瑞里賞螢 露營區生態導覽 包場露營 親子露營活動,60.0,603嘉義縣梅山鄉縣 道 78.5 公里 166 瑞水產業道路,22.22222222222222
419,Shelly,石山園,953台東縣延平鄉,494,Shelly,山樂園,80.0,605嘉義縣阿里山鄉一鄰2號附11號,33.333333333333336
420,Shelly,愛國蒲探索基地,965台東縣大武鄉東67鄉道102號,578,Shelly,926露營基地,44.44444444444444,26246宜蘭縣礁溪鄉匏杓崙路150之50號,33.333333333333336
421,Shelly,美山的露營區,961台東縣成功鎮忠孝里美山路238號,376,Shelly,美山晴露營,80.0,961台東縣成功鎮忠孝里美山路230號,94.73684210526316
422,Shelly,戰神俊的窩,950台東縣台東市青海路一段18巷83弄5號,864,Shelly,窩.露營,40.0,311新竹縣五峰鄉羅山1鄰4-9號,19.047619047619047
423,Shelly,原宿露營區,963台東縣太麻里鄉963,68,Shelly,築露中原露營區,88.88888888888889,546南投縣仁愛鄉原名路43附2號546別用門牌導航會迷路，直接搜尋築露中原導航即可,30.76923076923077
424,Shelly,金剛觀海幸福窩露營區建設中,962002台東縣長濱鄉三崙仔產業道路,603,Shelly,露樹露營區,60.0,262001宜蘭縣礁溪鄉白石腳路101號,40.0
425,Shelly,露樂原 Camparadise,962台東縣長濱鄉成靜公路,332,Shelly,嚮露,66.66666666666667,844高雄市六龜區土壠149之10號,11.111111111111116
426,Shelly,木娃兒驛馬站,957台東縣海端鄉南橫公路193.5公里號台20線,319,Shelly,冠達驛站,57.14285714285714,722台南市佳里區麻佳路三段138巷150弄21號,34.78260869565217
427,Shelly,老王成功祕境,961台東縣成功鎮都歷路264之23號,4,Shelly,新境露營區,33.333333333333336,544南投縣國姓鄉長北路70之1號,27.27272727272727
428,Shelly,山角頂露營野炊,964台東縣金峰鄉,1156,Shelly,逸山露營,50.0,35877苗栗縣苑裡鎮22-7號,11.764705882352944
429,Shelly,鄭大姊車宿點,964台東縣金峰鄉47-5號,689,Shelly,車露,50.0,941屏東縣枋山鄉,55.55555555555556
430,Shelly,心泊一隅 Simple and Cozy,962台東縣長濱鄉,228,Shelly,客泊樂 Kamper Land,60.0,9樓 No. 29號民生東路一段中山區台北市104,23.529411764705888
431,Shelly,北里漫活,963台東縣太麻里鄉,296,Shelly,北側露營區,40.0,720台南市官田區720,14.28571428571429
432,Shelly,玉里森林露營區,981花蓮縣玉里鎮51號大禹里,478,Shelly,小森林露營區,90.9090909090909,605嘉義縣阿里山鄉樂野村2鄰70-6號,19.999999999999996
433,Shelly,羅山露營區,983花蓮縣富里鄉,52,Shelly,三乘山露營區,88.88888888888889,542南投縣草屯鎮三層巷50號,13.33333333333333
434,Shelly,Hawkes Bay-霍克海灣,954台東縣卑南鄉富山村11鄰168號,708,Shelly,旭海灣,80.0,945屏東縣牡丹鄉東海路15-6號,41.17647058823529
435,Shelly,河畔秘境,844高雄市六龜區東溪山莊12之20號,664,Shelly,河畔露營區,66.66666666666667,945屏東縣牡丹鄉大梅路1之20號,44.44444444444444
436,Shelly,台東初鹿親子羊牧場,95444台東縣卑南鄉改良場路76號,266,Shelly,卡果牧場,66.66666666666667,337桃園市大園區埔心83-2號,21.052631578947366
437,Shelly,黑老大-台東都蘭露營區,959台東縣東河鄉觀海公園旁,299,Shelly,露舍營家露營區,60.0,845高雄市內門區,18.181818181818176
438,Shelly,南橫梅山口農場露營,848高雄市桃源區梅山巷,1497,Eta,天山農場,75.0,新竹縣五峰鄉桃山村20鄰民石353之5號,19.999999999999996
439,Shelly,穎達X 沐麓生態休閒農場,923屏東縣萬巒鄉新安路52號,744,Shelly,星錡休閒農場,80.0,512彰化縣永靖鄉東畔路238之46號,35.71428571428571
440,Shelly,山中水手露營區,84841高雄市桃源區南橫公路三段388號,527,Shelly,山中曉露,66.66666666666667,604嘉義縣竹崎鄉光華村1鄰3號,19.999999999999996
441,Shelly,海拉努休閒露營,848高雄市桃源區,775,Shelly,飛督努休閒 露營區,71.42857142857143,桃園市復興區20-1號,26.66666666666667
442,Shelly,加利利海石梯坪露營區,977花蓮縣豐濱鄉,299,Shelly,露舍營家露營區,60.0,845高雄市內門區,0.0
443,Shelly,初鹿牧場,954台東縣卑南鄉牧場1號,266,Shelly,卡果牧場,66.66666666666667,337桃園市大園區埔心83-2號,14.28571428571429
444,Shelly,戀戀南橫2071露營區,844高雄市六龜區南橫公路,299,Shelly,露舍營家露營區,60.0,845高雄市內門區,66.66666666666667
445,Shelly,台東【旮祭來】露營區,96144台東縣成功鎮和平路13-1號,299,Shelly,露舍營家露營區,60.0,845高雄市內門區,15.384615384615385
446,Shelly,玥納露營區,851高雄市茂林區多納林道,992,Shelly,蒝區,66.66666666666667,32659桃園市楊梅區幼獅路一段439號東南側,25.0
447,Shelly,大武山莊,902屏東縣霧台鄉東川巷63號,335,Shelly,大山拾光休閒莊園,66.66666666666667,844高雄市六龜區和平路130-35號,30.000000000000004
448,Shelly,Laung 石頭露營區,848高雄市桃源區勤和舊部落產業道路,299,Shelly,露舍營家露營區,60.0,845高雄市內門區,66.66666666666667
449,Shelly,遠山望月溫泉風呂 露營區,844高雄市六龜區花賞溫泉公園,1106,Shelly,風露營,66.66666666666667,365苗栗縣泰安鄉馬那邦64號,11.764705882352944
450,Shelly,諾亞方舟露營區,923屏東縣萬巒鄉東興路58之3號,1299,Shelly,挪亞方舟露營區,92.3076923076923,844高雄市六龜區和平路130之5號,27.27272727272727
451,Shelly,櫻之谷露營區,848高雄市桃源區南橫公路三段東莊巷30之6號,1009,Shelly,鷹谷露營區,88.88888888888889,977花蓮縣豐濱鄉Unnamed Road,0.0
452,Shelly,好柿抵嘉農場,602嘉義縣番路鄉埔尾52之3號,218,Shelly,大棟農場,66.66666666666667,No. 1之7號 雪山路和平區台中市424,16.666666666666664
453,Shelly,岩仔腳休閒露營區（狩獵帳）,602嘉義縣番路鄉,53,Shelly,合興休閒營區,66.66666666666667,555南投縣魚池鄉華龍巷73-1號,22.22222222222222
454,Shelly,花田小露露營區,602嘉義縣番路鄉觸口村埔尾 2號,603,Shelly,露樹露營區,88.88888888888889,262001宜蘭縣礁溪鄉白石腳路101號,27.586206896551722
455,Shelly,淺山尋露,602嘉義縣番路鄉阿里山公路47.5號公里處,332,Shelly,嚮露,66.66666666666667,844高雄市六龜區土壠149之10號,15.384615384615385
456,Shelly,晨光露營區(狩獵帳),60594嘉義縣阿里山鄉2鄰86號,532,Shelly,阿里山螢火蟲露營區(狩獵帳),88.88888888888889,604嘉義縣竹崎鄉笨仔遊憩區,54.54545454545454
457,Shelly,來灣哈露營區,605嘉義縣阿里山鄉四鄰125-1號,537,Shelly,來灣哈露營區(B區),100.0,129嘉義縣605,50.0
458,Shelly,草地狀元露營區,602嘉義縣番路鄉：159甲26.5K处號,294,Shelly,珊瑚潭草地露營區,83.33333333333334,720台南市官田區,18.181818181818176
459,Shelly,阿里山草堂露營渡假村(露營樂9號店),60245嘉義縣番路鄉茶科 159甲線道26k,1310,Eta,阿里曼山莊,75.0,南投縣信義鄉,33.333333333333336
460,Shelly,阿里山·倉伯露營區,No. 129-11 號 四鄰 阿里山鄉嘉義縣605,299,Shelly,露舍營家露營區,60.0,845高雄市內門區,19.999999999999996
461,Shelly,太和觀光果園露營區,603嘉義縣梅山鄉樟樹湖17號,299,Shelly,露舍營家露營區,60.0,845高雄市內門區,0.0
462,Shelly,夕落山居露營區,602嘉義縣番路鄉,202,Shelly,圓緣山居—露營區,76.92307692307692,423台中市東勢區東崎路三段688巷100弄19號,22.22222222222222
463,Shelly,杉緣星空露營區,605嘉義縣阿里山鄉8鄰205號,1481,Eta,星空下露營區,90.9090909090909,新竹縣五峰鄉,33.333333333333336
464,Shelly,吉恩典山丘露營區,608嘉義縣水上鄉三界埔段532-4地號,1408,Eta,吉恩典山丘,100.0,嘉義縣水上鄉三界埔段532-4地號,100.0
465,Shelly,星月傳說露營區,602嘉義縣番路鄉,840,Shelly,觀星賞月露營區,76.92307692307692,313001新竹縣尖石鄉,35.29411764705882
466,Shelly,達邦村受不寮露營區,605嘉義縣阿里山鄉,299,Shelly,露舍營家露營區,60.0,845高雄市內門區,16.666666666666664
467,Shelly,拾野 • 拾光 – 阿里山高美露營區｜Shiye • Shiguang – Alishan GaoMei Camping Area｜車泊｜自搭帳｜阿里山懶人露營｜小區包帳｜,605嘉義縣阿里山鄉,48,Shelly,山見懶人露營,83.33333333333334,555南投縣魚池鄉通文巷54號對面號,31.57894736842105
468,Shelly,瑞里雲淡風輕露營區,603嘉義縣梅山鄉15號附1,1106,Shelly,風露營,66.66666666666667,365苗栗縣泰安鄉馬那邦64號,28.57142857142857
469,Shelly,星知心露營區,嘉義縣番路鄉602,957,Shelly,遠見之星露營區,80.0,336桃園市復興區中心路86 巷28 號,33.333333333333336
470,Shelly,星晴朗露營區,602嘉義縣番路鄉,834,Shelly,營墅風晴露營區,80.0,306新竹縣關西鎮錦山里9鄰96號,26.66666666666667
471,Shelly,油車寮露營區《懶人露營》熱門露營區｜平價露營場地｜星空屋｜熱門｜免搭帳｜團體露營｜高山人氣營區,603010嘉義縣梅山鄉,287,Shelly,卧虎營區,66.66666666666667,72045台南市官田區南119鄉道南120鄉道南119鄉道南120鄉道,35.29411764705882
472,Shelly,天長地久露營區,602嘉義縣番路鄉,816,Shelly,景色天地露營區,83.33333333333334,313新竹縣尖石鄉內灣老街在導航上山路線才是正確道路,22.22222222222222
473,Shelly,格瑞菈森林~瑞里賞螢 露營區生態導覽 包場露營 親子露營活動,603嘉義縣梅山鄉縣 道 78.5 公里 166 瑞水產業道路,603,Shelly,露樹露營區,60.0,262001宜蘭縣礁溪鄉白石腳路101號,27.586206896551722
474,Shelly,景山露營區,604嘉義縣竹崎鄉光華村2鄰23號,52,Shelly,三乘山露營區,88.88888888888889,542南投縣草屯鎮三層巷50號,22.22222222222222
475,Shelly,龍頂山露營區,602嘉義縣番路鄉8鄰3號,433,Shelly,羅山露營區,88.88888888888889,983花蓮縣富里鄉,30.76923076923077
476,Shelly,詩情花園度假村,606嘉義縣中埔鄉1號,1204,Shelly,仙地露營度假村,60.0,646雲林縣古坑鄉桃源1之29號,40.0
477,Shelly,良亭花岩露營區,603嘉義縣梅山鄉,992,Shelly,蒝區,66.66666666666667,32659桃園市楊梅區幼獅路一段439號東南側,22.22222222222222
478,Shelly,小森林露營區,605嘉義縣阿里山鄉樂野村2鄰70-6號,160,Shelly,山居歲月森林區,66.66666666666667,426台中市新社區,25.0
479,Shelly,太山農場露營區,603嘉義縣梅山鄉二鄰11號,132,Shelly,福壽山農場露營區,92.3076923076923,424台中市和平區福壽路29號,13.33333333333333
480,Shelly,嘉義市東區-蘭潭露營區,600嘉義市東區幼獅路29號,299,Shelly,露舍營家露營區,60.0,845高雄市內門區,23.529411764705888
481,Shelly,阿里山仙坪露營區,604嘉義縣竹崎鄉光華村頂笨宅1鄰2-2號,1310,Eta,阿里曼山莊,75.0,南投縣信義鄉,33.333333333333336
482,Shelly,日麗風合露營區,603嘉義縣梅山鄉瑞峰村生毛樹25號附3號,1106,Shelly,風露營,66.66666666666667,365苗栗縣泰安鄉馬那邦64號,25.0
483,Shelly,振峯茶園碧湖山營區,603嘉義縣梅山鄉嘉151鄉道1號8k處,225,Shelly,碧山露營場,60.0,114台北市內湖區碧山路26-6號,24.0
484,Shelly,石臥牛露營區,嘉義縣中埔鄉10-8號,886,Shelly,老牛露營區,88.88888888888889,新竹縣五峰鄉18 鄰 312-3 號,42.10526315789473
485,Shelly,阿里山石窯園露營區,604嘉義縣竹崎鄉511號,299,Shelly,露舍營家露營區,60.0,845高雄市內門區,22.22222222222222
486,Shelly,老鼠溪咖啡莊園營區Ａ區,605嘉義縣阿里山鄉,535,Shelly,老鼠溪咖啡莊園營區C區,90.9090909090909,605嘉義縣阿里山鄉,100.0
487,Shelly,小瓶秘境休閒農場,60391嘉義縣梅山鄉,744,Shelly,星錡休閒農場,80.0,512彰化縣永靖鄉東畔路238之46號,30.000000000000004
488,Shelly,草山螢營休閒農場,602嘉義縣番路鄉602,744,Shelly,星錡休閒農場,80.0,512彰化縣永靖鄉東畔路238之46號,33.333333333333336
489,Shelly,梅山雙溪夕陽星星露營區,603嘉義縣梅山鄉7鄰22號,1272,Shelly,梅山露營區,75.0,848高雄市桃源區南部橫貫公路,0.0
490,Shelly,拉拉克斯莊園/露營/森林好物,605嘉義縣阿里山鄉段40號,805,Shelly,森林遇,66.66666666666667,313新竹縣尖石鄉號,31.57894736842105
491,Shelly,梅山古梅秘境休閒園區,603嘉義縣梅山鄉,562,Shelly,淺山休閒露營園區,66.66666666666667,267宜蘭縣大同鄉古魯巷1-17號,33.333333333333336
492,Shelly,半天岩10號露營區,602嘉義縣番路鄉岩仔10號,299,Shelly,露舍營家露營區,60.0,845高雄市內門區,0.0
493,Shelly,禾田農莊,605嘉義縣阿里山鄉2鄰82號,261,Shelly,水田園農莊,75.0,207新北市萬里區,23.529411764705888
494,Shelly,山樂園,605嘉義縣阿里山鄉一鄰2號附11號,208,Shelly,大雪山 茂山樂園,100.0,424台中市和平區雪山路富山巷8號,17.391304347826086
495,Shelly,瓜地亞那Gwaliana露營區&餐廳&咖啡,605嘉義縣阿里山鄉,603,Shelly,露樹露營區,60.0,262001宜蘭縣礁溪鄉白石腳路101號,31.57894736842105
496,Shelly,谷石丘∆露營,603嘉義縣梅山鄉,651,Shelly,思樂谷,50.0,921屏東縣泰武鄉佳興部落至舊武潭部落聯絡道路與號泰佳道路交叉口前方50公尺,22.22222222222222
497,Shelly,水綠光露營知嘉-嘉義露營區推薦 嘉義大草皮營位 超大活動空間 裝備小屋 阿里山腳下 露營推薦 人氣熱門好評 近溪流,602嘉義縣番路鄉6號,603,Shelly,露樹露營區,60.0,262001宜蘭縣礁溪鄉白石腳路101號,36.36363636363637
498,Shelly,瑞里旭淳露營地,603嘉義縣梅山鄉幼葉林107號,468,Shelly,瑞里雲淡風輕露營區,44.44444444444444,603嘉義縣梅山鄉15號附1,78.26086956521739
499,Shelly,29.5k咖啡莊園&慢漫山林露營區,603嘉義縣梅山鄉瑞峰村二坪仔15-1號,299,Shelly,露舍營家露營區,60.0,845高雄市內門區,15.384615384615385
500,Shelly,林間秘境露營區,605嘉義縣阿里山鄉,1128,Shelly,秘境露營區,100.0,353苗栗縣南庄鄉,35.29411764705882
501,Shelly,三寶山露營區-番路露營區推薦|必去露營區|人氣露營區|好評露營區|親子露營區|網美露營區|打卡露營區,602嘉義縣番路鄉,1411,Eta,三寶山露營區,100.0,嘉義縣番路鄉大湖村紅筆仔壽2之8號,80.0
502,Shelly,阿里山頂笨仔綠野仙蹤露營區,604嘉義縣竹崎鄉2311號,299,Shelly,露舍營家露營區,60.0,845高雄市內門區,16.666666666666664
503,Shelly,天一露營區,604嘉義縣竹崎鄉光華村11鄰茄苳仔29號,1169,Shelly,藏雲露營一區,66.66666666666667,365苗栗縣泰安鄉,33.333333333333336
504,Shelly,羅老爸的家露營區,605嘉義縣阿里山鄉,354,Shelly,老爺的家露營區,85.71428571428572,845高雄市內門區埤後1-1號,15.384615384615385
505,Shelly,竹崎開心農場,604嘉義縣竹崎鄉23-6,401,Shelly,Anna開心農場,80.0,959台東縣東河鄉金樽產業道路,18.181818181818176
506,Shelly,自然曙光莊園,602嘉義縣番路鄉,134,Shelly,覓靜莊園,66.66666666666667,424台中市和平區東關路一段裡冷巷99號,18.181818181818176
507,Shelly,山波Δ露營,605嘉義縣阿里山鄉124號,1156,Shelly,逸山露營,66.66666666666667,35877苗栗縣苑裡鎮22-7號,26.086956521739136
508,Shelly,太平32彎露營區(車床天地特約),嘉義縣梅山鄉8之8號,538,Shelly,太平162停車露營（車床天地特約）,68.75,603嘉義縣梅山鄉龍眼路59號,63.1578947368421
509,Shelly,崧園茶葉露營區,603嘉義縣梅山鄉,397,Shelly,武茶露營區,80.0,957台東縣海端鄉中福路一鄰18之3號,22.22222222222222
510,Shelly,玉讚露營區,602嘉義縣番路鄉,1555,Eta,按個讚露營區,88.88888888888889,苗栗縣泰安鄉,40.0
511,Shelly,阿里山冠銘露營區,604嘉義縣竹崎鄉Unnamed Road,1310,Eta,阿里曼山莊,75.0,南投縣信義鄉,33.333333333333336
512,Shelly,特富野伊利雅娜露營區,605030嘉義縣阿里山鄉第9鄰245附5號,299,Shelly,露舍營家露營區,60.0,845高雄市內門區,28.57142857142857
513,Shelly,美淞露營地,608嘉義縣水上鄉,1410,Eta,美淞露營地,100.0,嘉義縣水上鄉,100.0
514,Shelly,雲景咖啡露營區《阿里山/竹崎》推薦營區｜親子露營｜自搭帳｜高海拔｜露營首選｜人氣露營區｜景觀露營區,604嘉義縣竹崎鄉中和村永和5-9號,299,Shelly,露舍營家露營區,60.0,845高雄市內門區,16.666666666666664
515,Shelly,塔山下露營區《奮起湖/阿里山》露營首選｜親子露營｜自搭帳｜露營車｜寵物友善｜賞櫻/賞螢｜DIY體驗露營區｜星空露營,603嘉義縣梅山鄉科子林林道,603,Shelly,露樹露營區,60.0,262001宜蘭縣礁溪鄉白石腳路101號,30.76923076923077
516,Shelly,荒郊野外露營區（達邦村）,448嘉義縣阿里山鄉605,603,Shelly,露樹露營區,60.0,262001宜蘭縣礁溪鄉白石腳路101號,24.0
517,Shelly,汪爸露營區,605嘉義縣阿里山鄉樂野村四鄰129-6號,1413,Eta,汪爸露營區,100.0,嘉義縣阿里山鄉樂野村,100.0
518,Shelly,民雄-納米運動休閒園區,621嘉義縣民雄鄉大學路一段與號正大路交叉口,562,Shelly,淺山休閒露營園區,66.66666666666667,267宜蘭縣大同鄉古魯巷1-17號,24.242424242424242
519,Shelly,九叔公露營區,604嘉義縣竹崎鄉23號,992,Shelly,蒝區,66.66666666666667,32659桃園市楊梅區幼獅路一段439號東南側,31.57894736842105
520,Shelly,塘湖古道露營農場停車場一,嘉義縣竹崎鄉,525,Shelly,塘湖古道休閒農場,75.0,604嘉義縣竹崎鄉仁壽村福建坪5號,100.0
521,Shelly,南鞍營地2286m,605嘉義縣阿里山鄉,1053,Shelly,南雙池營地,66.66666666666667,982花蓮縣卓溪鄉,28.57142857142857
522,Shelly,特富野露營區 Tfuya Campground,605嘉義縣阿里山鄉拉拉克斯部落聯絡道,512,Shelly,特富野伊利雅娜露營區,75.0,605030嘉義縣阿里山鄉第9鄰245附5號,62.5
523,Shelly,阿里山迷糊露營區,605嘉義縣阿里山鄉69號,1407,Eta,阿里山 迷糊露營區,87.5,嘉義縣阿里山鄉樂野村2鄰樂野68號,70.0
524,Shelly,三界埔農莊,608嘉義縣水上鄉,298,Shelly,印月農莊,66.66666666666667,716台南市南化區,19.999999999999996
525,Shelly,塘湖古道休閒農場,604嘉義縣竹崎鄉仁壽村福建坪5號,1147,Shelly,老官道休閒農場,83.33333333333334,364苗栗縣364 TW 苗栗縣 大湖鄉 新開村新開5鄰12-1號,29.411764705882348
526,Shelly,龍銀山花園＆露營,602嘉義縣番路鄉龍頭17號之19號,349,Shelly,海銀花園,75.0,71942台南市龍崎區26-1號,36.36363636363637
527,Shelly,山中曉露,604嘉義縣竹崎鄉光華村1鄰3號,80,Shelly,山中流域露營區,66.66666666666667,553南投縣水里鄉水里五路,18.181818181818176
528,Shelly,琢英露營場,603嘉義縣梅山鄉橫山6號,0,Shelly,樂活森林農場,33.333333333333336,545南投縣埔里鎮桃米路55-1號,16.000000000000004
529,Shelly,三木生態教育園區,604嘉義縣梅山鄉,96,Shelly,迦南美地生態教育園區,85.71428571428572,557南投縣竹山鎮中山路7之88號,23.529411764705888
530,Shelly,安靖見聊,60343嘉義縣梅山鄉,26,Shelly,伴天聊露營區,28.57142857142857,546南投縣仁愛鄉山林巷18附1號,30.000000000000004
531,Shelly,阿里山有機小農露營區,605嘉義縣阿里山鄉樂野村,299,Shelly,露舍營家露營區,60.0,845高雄市內門區,16.666666666666664
532,Shelly,阿里山螢火蟲露營區(狩獵帳),604嘉義縣竹崎鄉笨仔遊憩區,456,Shelly,晨光露營區(狩獵帳),88.88888888888889,60594嘉義縣阿里山鄉2鄰86號,54.54545454545454
533,Shelly,老鼠溪露營區B區,605嘉義縣阿里山鄉老鼠溪農場,486,Shelly,老鼠溪咖啡莊園營區Ａ區,54.54545454545454,605嘉義縣阿里山鄉,100.0
534,Shelly,鷺野之家,603嘉義縣梅山鄉,704,Shelly,吉野家農莊露營區,57.14285714285714,921屏東縣泰武鄉來義鄉佳興部落至舊武潭部落聯絡道路,22.22222222222222
535,Shelly,老鼠溪咖啡莊園營區C區,605嘉義縣阿里山鄉,486,Shelly,老鼠溪咖啡莊園營區Ａ區,90.9090909090909,605嘉義縣阿里山鄉,100.0
536,Shelly,悅日松林,603008嘉義縣梅山鄉嘉154鄉道,109,Shelly,日月松林營地 Sun Moon Camp,75.0,55544南投縣魚池鄉有水巷21-41號,25.806451612903224
537,Shelly,來灣哈露營區(B區),129嘉義縣605,457,Shelly,來灣哈露營區,100.0,605嘉義縣阿里山鄉四鄰125-1號,50.0
538,Shelly,太平162停車露營（車床天地特約）,603嘉義縣梅山鄉龍眼路59號,689,Shelly,車露,100.0,941屏東縣枋山鄉,33.333333333333336
539,Shelly,亞亞竹露營區,605嘉義縣阿里山鄉,1458,Eta,竹鷹露營區,88.88888888888889,新竹縣五峰鄉,36.36363636363637
540,Shelly,振峯茶園太平山露營區,603嘉義縣梅山鄉,299,Shelly,露舍營家露營區,60.0,845高雄市內門區,0.0
541,Shelly,草地兄弟露營區,602嘉義縣番路鄉大華公路,1412,Eta,草地兄弟,100.0,嘉義縣番路鄉大湖村2鄰17附1號,70.0
542,Shelly,阿里山特富野古道露營區《櫻花露營區》阿里山最近露營區｜自搭帳露營｜玩水｜唱歌｜衛浴｜親子露營｜平價懶人露營,605嘉義縣阿里山鄉巴沙娜至十字部落聯絡道,99,Shelly,玫花露露營區,66.66666666666667,545南投縣埔里鎮東峰路18號,26.086956521739136
543,Shelly,大白樹旅行村,604嘉義縣竹崎鄉22號,1038,Shelly,松村,66.66666666666667,981花蓮縣玉里鎮號,23.529411764705888
544,Shelly,桃花村有機休閒農場（預約制）,605嘉義縣阿里山鄉地6鄰,661,Shelly,桃花園,80.0,屏東縣瑪家鄉崑山巷16號,30.000000000000004
545,Shelly,石腳桶,嘉義縣番路鄉,98,Shelly,石頭窩景緻露營區,50.0,552南投縣集集鎮梨頭巷10-6號,16.666666666666664
546,Shelly,大片田尾小地方,602002嘉義縣番路鄉,1579,Eta,好地方露營區,50.0,苗栗縣泰安鄉梅園村4鄰天狗7之6號,22.22222222222222
547,Shelly,57秘密基地,603嘉義縣梅山鄉大坪57號,1322,Eta,鳳凰山日出湖秘密基地,80.0,南投縣鹿谷鄉鳳凰村鳳園路88-50號,25.0
548,Shelly,阿里山樂野牧匠露營區,嘉義縣阿里山鄉70號,299,Shelly,露舍營家露營區,60.0,845高雄市內門區,0.0
549,Shelly,嘉義縣頂笨仔文化協會,604嘉義縣竹崎鄉頂笨仔22之1號,1457,Eta,嘉揚露營區,33.333333333333336,新竹縣五峰鄉,33.333333333333336
550,Shelly,哈哈拿露營區,605嘉義縣阿里山鄉阿里山鄉里佳村10號,457,Shelly,來灣哈露營區,80.0,605嘉義縣阿里山鄉四鄰125-1號,71.42857142857143
551,Shelly,穿山甲露營區,605嘉義縣阿里山鄉里佳村里佳29號,1438,Eta,穿山甲咖啡露營休閒莊園,66.66666666666667,新竹縣北埔鄉南埔村番婆坑8-22號,33.333333333333336
552,Shelly,光華頂笨仔遊憩區,604嘉義縣竹崎鄉,790,Shelly,遊橘露營區,50.0,312新竹縣橫山鄉,33.333333333333336
553,Shelly,花舞山嵐 農莊,602嘉義縣番路鄉,298,Shelly,印月農莊,66.66666666666667,716台南市南化區,19.999999999999996
554,Shelly,源峰茶廠露營區,603嘉義縣梅山鄉四鄰5號,397,Shelly,武茶露營區,80.0,957台東縣海端鄉中福路一鄰18之3號,26.66666666666667
555,Shelly,國榮製茶所,603嘉義縣梅山鄉龍眼林段3號附8號,1227,Shelly,廁所,66.66666666666667,648雲林縣西螺鎮建興路358號,34.78260869565217
556,Shelly,微笑灣休閒農場,261宜蘭縣頭城鎮仙公路180巷50號,744,Shelly,星錡休閒農場,80.0,512彰化縣永靖鄉東畔路238之46號,27.77777777777778
557,Shelly,Syano夏諾營露營區,26741宜蘭縣大同鄉泰雅路二段33巷31號之7,299,Shelly,露舍營家露營區,72.72727272727273,845高雄市內門區,15.384615384615385
558,Shelly,星亮點Kayu露營區,26741宜蘭縣大同鄉泰雅路一段88巷99號,299,Shelly,露舍營家露營區,60.0,845高雄市內門區,15.384615384615385
559,Shelly,東風綠活 Oriental Green,26944宜蘭縣冬山鄉中山路769號,1106,Shelly,風露營,40.0,365苗栗縣泰安鄉馬那邦64號,30.76923076923077
560,Shelly,天梯露營區《露營區推薦》夜景露營區｜親子露營｜露營車｜免搭帳｜包區露營｜衛浴露營｜戲水露營,26741宜蘭縣大同鄉泰雅路一段88巷66號,603,Shelly,露樹露營區,60.0,262001宜蘭縣礁溪鄉白石腳路101號,47.05882352941176
561,Shelly,露境東岳探險渡假營地,宜蘭縣南澳鄉蘇花路五段一巷 5-1號 宜蘭縣蘇澳鎮,29,Shelly,龍泉營地,66.66666666666667,54550南投縣埔里鎮武界路28之10號,21.052631578947366
562,Shelly,淺山休閒露營園區,267宜蘭縣大同鄉古魯巷1-17號,144,Shelly,松風谷種苗休閒園區,66.66666666666667,424台中市和平區東關路一段台電巷122-20號,31.999999999999996
563,Shelly,鷗漫景觀農場 | 宜蘭親子露營 | 寵物友善 | 百萬夜景 | 可烤肉 | 團露首選 | 草地星空露營區 | 車露自露 | 宜蘭旅遊 | 免搭帳露營推薦,262宜蘭縣礁溪鄉匏杓崙路132-15號,689,Shelly,車露,100.0,941屏東縣枋山鄉,22.22222222222222
564,Shelly,幸福城景觀露營區,267宜蘭縣大同鄉住址：大同鄉泰雅路二段29巷58-6號！,823,Shelly,觀雲露營區,88.88888888888889,311新竹縣五峰鄉,22.22222222222222
565,Shelly,天際線茶園營地,26741宜蘭縣大同鄉泰雅路一段88巷88號,265,Shelly,林園營地,85.71428571428572,232新北市坪林區號,18.181818181818176
566,Shelly,沐野露營區,267宜蘭縣大同鄉泰雅路二段92巷99-1號,204,Shelly,原野露營區,88.88888888888889,424台中市和平區東關路三段2號,29.629629629629626
567,Shelly,宜蘭大同 祕密基地露營區,267宜蘭縣大同鄉泰雅路二段88巷211-9號,299,Shelly,露舍營家露營區,60.0,845高雄市內門區,11.764705882352944
568,Shelly,景好露營區,26741宜蘭縣大同鄉泰雅路一段12巷111號,617,Shelly,武荖坑風景區,57.14285714285714,270宜蘭縣蘇澳鎮武荖坑路75號,41.666666666666664
569,Shelly,雲端紅土咖啡露營區,267宜蘭縣大同鄉57號,299,Shelly,露舍營家露營區,60.0,845高雄市內門區,16.666666666666664
570,Shelly,無憂花露營區,262宜蘭縣礁溪鄉白石腳路157巷88號,1422,Eta,無憂花露營區,100.0,宜蘭縣礁溪鄉白石腳路157巷88號,100.0
571,Shelly,橘子園露營區,262宜蘭縣礁溪鄉白石腳路135號之1號,1417,Eta,橘子園露營區,100.0,宜蘭縣礁溪鄉白石腳路135-1號,87.5
572,Shelly,濃情蜜意瓜瓜園,267宜蘭縣大同鄉寒溪巷71-6號,1267,Shelly,福濃,66.66666666666667,844高雄市六龜區裕濃路81巷12之30號,25.0
573,Shelly,松蘿園林露營區,267宜蘭縣大同鄉泰雅路二段92巷199之1號,293,Shelly,雲頂松林露營區,83.33333333333334,732台南市白河區內3之7號,27.27272727272727
574,Shelly,星霧宿,267宜蘭縣大同鄉泰雅一路牛鬥81之7號,1337,Eta,露宿,66.66666666666667,南投縣埔里鎮,16.666666666666664
575,Shelly,皇家熊 The Royal Bear Camp 宜蘭冬山露營區,26943宜蘭縣冬山鄉小埤五路331號,299,Shelly,露舍營家露營區,60.0,845高雄市內門區,15.384615384615385
576,Shelly,見望村親子休閒農場（露營區）,267039宜蘭縣大同鄉華興巷48之1號,299,Shelly,露舍營家露營區,54.54545454545454,845高雄市內門區,15.384615384615385
577,Shelly,大同圓頂360(狩獵帳)全區禁帶寵物,267宜蘭縣大同鄉Unnamed Rd,940,Shelly,谷力農場(狩獵帳),55.55555555555556,336桃園市復興區義盛村10鄰義興29號,9.090909090909093
578,Shelly,926露營基地,26246宜蘭縣礁溪鄉匏杓崙路150之50號,745,Shelly,烏來967高地露營區,57.14285714285714,233新北市烏來區信福路120巷18號,29.629629629629626
579,Shelly,天ㄟ藝文露營區,269宜蘭縣冬山鄉大埤二路75巷26號,583,Shelly,天ㄟ露營車,60.0,269宜蘭縣冬山鄉大埤二路75巷1號,94.11764705882352
580,Shelly,露山林套房露營區,267宜蘭縣大同鄉古魯巷1之8号,332,Shelly,嚮露,66.66666666666667,844高雄市六龜區土壠149之10號,17.391304347826086
581,Shelly,哇吉散露營區,267宜蘭縣大同鄉泰雅一路牛鬥81之1號,992,Shelly,蒝區,66.66666666666667,32659桃園市楊梅區幼獅路一段439號東南側,19.999999999999996
582,Shelly,原最露營區,267宜蘭縣大同鄉泰雅路二段118之25號,68,Shelly,築露中原露營區,88.88888888888889,546南投縣仁愛鄉原名路43附2號546別用門牌導航會迷路，直接搜尋築露中原導航即可,31.57894736842105
583,Shelly,天ㄟ露營車,269宜蘭縣冬山鄉大埤二路75巷1號,579,Shelly,天ㄟ藝文露營區,60.0,269宜蘭縣冬山鄉大埤二路75巷26號,94.11764705882352
584,Shelly,田野森農場Morilife,269宜蘭縣冬山鄉大進二路246號,1327,Eta,幸埔森農場,60.0,南投縣埔里鎮,16.666666666666664
585,Shelly,八福原地,27291宜蘭縣南澳鄉81巷,373,Shelly,逐浪露營地,40.0,961台東縣成功鎮隧道路23之10號,30.000000000000004
586,Shelly,一山半水露營區,267宜蘭縣大同鄉寒溪巷68之9號,330,Shelly,雲水山露營區,80.0,607嘉義縣大埔鄉,55.55555555555556
587,Shelly,溪河木露營區,267宜蘭縣大同鄉松羅南巷115-7號,1604,Eta,慕木露營區,88.88888888888889,苗栗縣南庄鄉,33.333333333333336
588,Shelly,又想露營趣,269宜蘭縣冬山鄉照安一路360之1號,1423,Eta,又想露營趣,100.0,宜蘭縣冬山鄉照安一路360-1號,93.75
589,Shelly,飛亞蘭露營區,267宜蘭縣大同鄉泰雅路五段46號,1415,Eta,飛亞蘭露營區,100.0,宜蘭縣大同鄉茂安村泰雅路五段,78.57142857142857
590,Shelly,Lemon Tree No. 16,262宜蘭縣礁溪鄉龍潭路172巷16號,1363,Eta,161森林,57.14285714285714,南投縣仁愛鄉原名路66附5號,35.71428571428571
591,Shelly,夢土上Glamping,262宜蘭縣礁溪鄉二結路8之2號,227,Shelly,蟬說: 暖硫 Chanshuo Warm Flow Glamping,84.21052631578947,111台北市士林區菁山路101巷71弄16號,22.22222222222222
592,Shelly,幸福瑪崙露營區,267宜蘭縣大同鄉樂水路20巷150-1號,992,Shelly,蒝區,66.66666666666667,32659桃園市楊梅區幼獅路一段439號東南側,24.0
593,Shelly,五葉松林休閒露營區,267宜蘭縣大同鄉泰雅路二段33巷31之1號,933,Shelly,石秀灣五葉松露營區,80.0,336桃園市復興區羅馬路五段330號,34.48275862068966
594,Shelly,東澳露營趣,270宜蘭縣蘇澳鎮東澳灣北灘,168,Shelly,東勢林場大安露營中心,44.44444444444444,台中市東勢區,18.181818181818176
595,Shelly,山谷星空,266宜蘭縣三星鄉泰雅一路301巷71號,1418,Eta,山谷星空露營區,100.0,宜蘭縣三星鄉泰雅一路301巷71號,100.0
596,Shelly,斯揚莫那休閒莊園,267宜蘭縣大同鄉,236,Shelly,甜蜜點休閒莊園,72.72727272727273,251新北市淡水區奎柔山路189號,19.999999999999996
597,Shelly,南澳農場（目前暫停露營）,270宜蘭縣蘇澳鎮海岸路92號,576,Shelly,見望村親子休閒農場（露營區）,63.1578947368421,267039宜蘭縣大同鄉華興巷48之1號,50.0
598,Shelly,三星鄉立游泳池（安農露營區）,266宜蘭縣三星鄉義德路58之8號,299,Shelly,露舍營家露營區,54.54545454545454,845高雄市內門區,18.181818181818176
599,Shelly,宜蘭南澳 老柯野外探索營地 金洋「原老柯農莊」,272宜蘭縣南澳鄉博愛路18-1號,298,Shelly,印月農莊,57.14285714285714,716台南市南化區,25.0
600,Shelly,山谷樂生態園區民宿露營,269宜蘭縣冬山鄉中山路802號,691,Shelly,華園露營民宿,50.0,945屏東縣牡丹鄉大梅路1之7號,33.333333333333336
601,Shelly,杉林奇蹟露營區,262宜蘭縣礁溪鄉二結路94號,992,Shelly,蒝區,66.66666666666667,32659桃園市楊梅區幼獅路一段439號東南側,30.000000000000004
602,Shelly,摩西露營區,267宜蘭縣大同鄉,956,Shelly,摩亞露營區,80.0,336桃園市復興區高義村雪霧鬧7鄰10-8號,16.666666666666664
603,Shelly,露樹露營區,262001宜蘭縣礁溪鄉白石腳路101號,5,Shelly,暮雲春樹露營區,88.88888888888889,545南投縣埔里鎮種瓜路33-3號,20.68965517241379
604,Shelly,宇世格爵露營區,267宜蘭縣大同鄉碼崙路16號,992,Shelly,蒝區,66.66666666666667,32659桃園市楊梅區幼獅路一段439號東南側,22.22222222222222
605,Shelly,牛鬥一角宜蘭露營區民宿,26643宜蘭縣三星鄉泰雅一路 525巷牛頭203號,603,Shelly,露樹露營區,60.0,262001宜蘭縣礁溪鄉白石腳路101號,40.0
606,Shelly,太平山森活趣渡假農場,267宜蘭縣大同鄉泰雅路六段2巷6-3號台七甲線13.7km處,218,Shelly,大棟農場,66.66666666666667,No. 1之7號 雪山路和平區台中市424,16.666666666666664
607,Shelly,Uwah露營區,267宜蘭縣大同鄉華興巷42-18號,1421,Eta,Uwah露營區,100.0,宜蘭縣大同鄉寒溪村華興巷42-18號,90.9090909090909
608,Shelly,沐嵐園,267宜蘭縣大同鄉玉蘭21-6號,1602,Eta,沐嵐語露營區,80.0,苗栗縣泰安鄉大興村,25.0
609,Shelly,喬之約露營區,272宜蘭縣南澳鄉碧侯部落聯絡道路,992,Shelly,蒝區,66.66666666666667,32659桃園市楊梅區幼獅路一段439號東南側,12.903225806451612
610,Shelly,小董山間野炊泰雅文化旅遊,26766宜蘭縣大同鄉華興巷No. 1-10號,728,Shelly,小山丘,66.66666666666667,921屏東縣泰武鄉老潭巷,26.086956521739136
611,Shelly,新飛亞蘭,26741宜蘭縣大同鄉,589,Shelly,飛亞蘭露營區,85.71428571428572,267宜蘭縣大同鄉泰雅路五段46號,90.0
612,Shelly,阿柑露營場,266宜蘭縣三星鄉,0,Shelly,樂活森林農場,33.333333333333336,545南投縣埔里鎮桃米路55-1號,13.33333333333333
613,Shelly,睡海邊,270宜蘭縣蘇澳鎮東澳路101巷19號,362,Shelly,山上的海邊露營區,66.66666666666667,950台東縣台東市建和四街181之1號,38.888888888888886
614,Shelly,冰糖山包場露營地,27291宜蘭縣南澳鄉冰糖山路1號東澳火車站~開車10分鐘即可到達,225,Shelly,碧山露營場,60.0,114台北市內湖區碧山路26-6號,23.529411764705888
615,Shelly,金岳秘境露營區,272宜蘭縣南澳鄉,1128,Shelly,秘境露營區,100.0,353苗栗縣南庄鄉,46.15384615384615
616,Shelly,莎莉慕休閒露營區,272宜蘭縣南澳鄉橫山路13之11號,61,Shelly,仙聞休閒露營區,83.33333333333334,555南投縣魚池鄉華龍巷73號,29.629629629629626
617,Shelly,武荖坑風景區,270宜蘭縣蘇澳鎮武荖坑路75號,1106,Shelly,風露營,33.333333333333336,365苗栗縣泰安鄉馬那邦64號,23.529411764705888
618,Shelly,彩虹杯杯館｜宜蘭旅遊｜露營區｜無菜單料理｜午餐｜宜蘭景點推薦｜宜蘭美食｜宜蘭旅行｜婚禮場地｜場地租借,267039宜蘭縣大同鄉華興巷1-7號,603,Shelly,露樹露營區,60.0,262001宜蘭縣礁溪鄉白石腳路101號,45.16129032258065
619,Shelly,得天露營車,262宜蘭縣礁溪鄉五峰路69號,583,Shelly,天ㄟ露營車,88.88888888888889,269宜蘭縣冬山鄉大埤二路75巷1號,50.0
620,Shelly,那山那谷,272宜蘭縣南澳鄉金洋路2號,64,Shelly,山谷露瑪露營區,66.66666666666667,556南投縣信義鄉,23.529411764705888
621,Shelly,愛露營-葛霸露營區,267宜蘭縣大同鄉林家50之6號,299,Shelly,露舍營家露營區,60.0,845高雄市內門區,14.28571428571429
622,Shelly,SHALOM夏龍文旅｜預約制外燴料理｜水上活動報名｜野外探險,270宜蘭縣蘇澳鎮東澳灣北灘,1523,Eta,HOLA露營區,40.0,桃園市復興區羅浮里七鄰高坡16號,0.0
623,Shelly,達樣山林露營區,267宜蘭縣大同鄉泰雅一路牛鬥巷2鄰號67之11號,1368,Eta,山林曉境露營區,83.33333333333334,南投縣國姓鄉南港2號,21.052631578947366
624,Shelly,布拉布拉BULABULA,27291宜蘭縣南澳鄉東岳路81巷,1523,Eta,HOLA露營區,44.44444444444444,桃園市復興區羅浮里七鄰高坡16號,11.111111111111116
625,Shelly,Leshan樂山環茶,269宜蘭縣冬山鄉太和路615號,1529,Eta,樂見山,66.66666666666667,桃園市復興區,0.0
626,Shelly,鄉野沐田休閒農場,264宜蘭縣員山鄉八甲路15之16號,744,Shelly,星錡休閒農場,80.0,512彰化縣永靖鄉東畔路238之46號,40.0
627,Shelly,摩諾營地,272宜蘭縣南澳鄉宜57鄉道金洋路 摩 諾 營地,1485,Eta,斯摩亞營地,75.0,新竹縣關西鎮10鄰106號,10.526315789473683
628,Shelly,樂樂緣地露營區,272宜蘭縣南澳鄉,145,Shelly,綠大地露營區,80.0,42646台中市新社區上坪4-6號,18.181818181818176
629,Shelly,慕塔夏 Camp Butasya,272宜蘭縣南澳鄉武塔村新溪路2鄰46號金洋二號橋路,825,Shelly,Payan露營區,50.0,313新竹縣尖石鄉,22.22222222222222
630,Shelly,瀧雲山莊~伊娜達漾露營區,272宜蘭縣南澳鄉橫山路13之7號,299,Shelly,露舍營家露營區,60.0,845高雄市內門區,0.0
631,Shelly,Myasa-迷雅薩休閒農莊,272宜蘭縣南澳鄉688,407,Shelly,福鹿山休閒農莊,72.72727272727273,955台東縣鹿野鄉高台路42巷,19.047619047619047
632,Shelly,日安農場,264宜蘭縣員山鄉坡城路100之1號,0,Shelly,樂活森林農場,66.66666666666667,545南投縣埔里鎮桃米路55-1號,30.303030303030297
633,Shelly,亞爸的山,267012宜蘭縣大同鄉泰雅路七段363之1號,1156,Shelly,逸山露營,40.0,35877苗栗縣苑裡鎮22-7號,21.052631578947366
634,Shelly,山海匯靜思露營區,261宜蘭縣頭城鎮福德坑路5-1號,802,Shelly,相思園露營區,80.0,313新竹縣尖石鄉96號 錦屏村2鄰比麟96號,25.0
635,Shelly,尤酷玩家 CampArea,27291宜蘭縣南澳鄉東岳部落聯絡道路連絡道路,467,Shelly,拾野 • 拾光 – 阿里山高美露營區｜Shiye • Shiguang – Alishan GaoMei Camping Area｜車泊｜自搭帳｜阿里山懶人露營｜小區包帳｜,69.23076923076923,605嘉義縣阿里山鄉,19.999999999999996
636,Shelly,築夢園迷你露營區,267宜蘭縣大同鄉林森巷20-1號,992,Shelly,蒝區,66.66666666666667,32659桃園市楊梅區幼獅路一段439號東南側,19.999999999999996
637,Shelly,幽洛谷慕露營區,272宜蘭縣南澳鄉東岳部落聯絡道路,1604,Eta,慕木露營區,88.88888888888889,苗栗縣南庄鄉,50.0
638,Shelly,天涯九號露營區,27246宜蘭縣南澳鄉橫山路13-16號,950,Shelly,一號地露營區,80.0,336桃園市復興區,28.57142857142857
639,Shelly,夢象家戶外基地,923屏東縣萬巒鄉光明路42-10號,578,Shelly,926露營基地,44.44444444444444,26246宜蘭縣礁溪鄉匏杓崙路150之50號,36.36363636363637
640,Shelly,戴雅露營區,901屏東縣三地門鄉Unnamed Road,995,Shelly,雅緻露營區,88.88888888888889,33644桃園市復興區三光段122地號果園,13.793103448275868
641,Shelly,普查卡朗露營區（督熱門）,921屏東縣泰武鄉通往舊泰武村的路上,603,Shelly,露樹露營區,60.0,262001宜蘭縣礁溪鄉白石腳路101號,29.411764705882348
642,Shelly,旭海日出東方 露營區,945屏東縣牡丹鄉東海路47-11號,708,Shelly,旭海灣,80.0,945屏東縣牡丹鄉東海路15-6號,82.75862068965517
643,Shelly,獅子鄉奇荖亢露營地,943屏東縣獅子鄉四巷60之1號 943號,29,Shelly,龍泉營地,66.66666666666667,54550南投縣埔里鎮武界路28之10號,27.77777777777778
644,Shelly,賽嘉樂園/三木計画,901屏東縣三地門鄉賽嘉巷120號,663,Shelly,賽嘉樂園營地,80.0,901屏東縣三地門鄉賽嘉巷120號號,100.0
645,Shelly,日光境,92141屏東縣泰武鄉泰武部落至佳興部落聯絡道路,1611,Eta,日光角落,80.0,苗栗縣泰安鄉錦水村半天寮3鄰45之5號,19.999999999999996
646,Shelly,鵰瓦納休閒露營區,921屏東縣泰武鄉921佳興部落至舊武潭部落聯絡道路與號泰佳道路交叉口後方200公尺,61,Shelly,仙聞休閒露營區,83.33333333333334,555南投縣魚池鄉華龍巷73號,16.666666666666664
647,Shelly,林沐林 親子露營區,945屏東縣牡丹鄉村東源路137號,274,Shelly,露營樂1號店 台南左鎮旗艦館 親子露營區,80.0,713台南市左鎮區光和65之5號,30.000000000000004
648,Shelly,快樂白沙露營區,946屏東縣恆春鎮白砂路31-2號,706,Shelly,白沙露營區,100.0,946屏東縣恆春鎮樹林路3之6號,75.86206896551724
649,Shelly,獵人露營區,903屏東縣瑪家鄉瑪家道路,315,Shelly,寶哥私人露營區,88.88888888888889,732台南市白河區,16.666666666666664
650,Shelly,沿山森林秘境,923屏東縣萬巒鄉沿山路二段353號,653,Shelly,沿山森林秘境〔🌲桃花心木森林步道🌲〕,100.0,923屏東縣萬巒鄉縣道185號35.3公里,66.66666666666667
651,Shelly,思樂谷,921屏東縣泰武鄉佳興部落至舊武潭部落聯絡道路與號泰佳道路交叉口前方50公尺,252,Shelly,三峽樂樂谷車泊車宿木屋露營烤肉園區,66.66666666666667,237新北市三峽區153-1號,22.22222222222222
652,Shelly,里港河堤秘境,905屏東縣里港鄉過江路67-35號,1128,Shelly,秘境露營區,57.14285714285714,353苗栗縣南庄鄉,33.333333333333336
653,Shelly,沿山森林秘境〔🌲桃花心木森林步道🌲〕,923屏東縣萬巒鄉縣道185號35.3公里,650,Shelly,沿山森林秘境,100.0,923屏東縣萬巒鄉沿山路二段353號,66.66666666666667
654,Shelly,地福露安休閒露營區,921屏東縣泰武鄉良武巷132號,299,Shelly,露舍營家露營區,60.0,845高雄市內門區,0.0
655,Shelly,古仁人露營區,902屏東縣霧台鄉小山巷2-18號,649,Shelly,獵人露營區,88.88888888888889,903屏東縣瑪家鄉瑪家道路,54.54545454545454
656,Shelly,霧與啡露營區,903屏東縣瑪家鄉,680,Shelly,地穀倉咖啡露營區,80.0,921屏東縣泰武鄉老潭巷110號,55.55555555555556
657,Shelly,kikiu綠地露營區,945屏東縣牡丹鄉石門村1-14號,299,Shelly,露舍營家露營區,60.0,845高雄市內門區,33.333333333333336
658,Shelly,神山卡布魯露營區,902屏東縣霧台鄉神山巷1-16號,992,Shelly,蒝區,66.66666666666667,32659桃園市楊梅區幼獅路一段439號東南側,19.999999999999996
659,Shelly,沐星田,946009屏東縣恆春鎮頭溝路129之85號,626,Shelly,鄉野沐田休閒農場,66.66666666666667,264宜蘭縣員山鄉八甲路15之16號,31.25
660,Shelly,原然小農露營農場,923屏東縣萬巒鄉光復路53號,218,Shelly,大棟農場,66.66666666666667,No. 1之7號 雪山路和平區台中市424,11.764705882352944
661,Shelly,桃花園,屏東縣瑪家鄉崑山巷16號,349,Shelly,海銀花園,80.0,71942台南市龍崎區26-1號,28.57142857142857
662,Shelly,亞利桑娜露營區,945屏東縣牡丹鄉大梅路68之9號,179,Shelly,爸娜娜露營區,80.0,423台中市東勢區東崎路三段122-5號,21.42857142857143
663,Shelly,賽嘉樂園營地,901屏東縣三地門鄉賽嘉巷120號號,265,Shelly,林園營地,85.71428571428572,232新北市坪林區號,28.57142857142857
664,Shelly,河畔露營區,945屏東縣牡丹鄉大梅路1之20號,1607,Eta,南庄河畔露營區,100.0,苗栗縣南庄鄉南江村14鄰小東河8-1號,30.76923076923077
665,Shelly,巴里露營區,943012屏東縣獅子鄉村竹坑巷2之9號,190,Shelly,里浪露營區,88.88888888888889,424台中市和平區東關路一段裡冷巷15號之 10,25.0
666,Shelly,qaluvu卡魯夫農場,945屏東縣牡丹鄉,218,Shelly,大棟農場,66.66666666666667,No. 1之7號 雪山路和平區台中市424,19.999999999999996
667,Shelly,輕鬆露營地,906屏東縣高樹鄉勝利路1之20號,291,Shelly,大內二溪輕鬆秘境露營區,60.0,742002台南市大內區201之17號,34.78260869565217
668,Shelly,巴拿星空露營區,945屏東縣牡丹鄉片埔路,1481,Eta,星空下露營區,90.9090909090909,新竹縣五峰鄉,33.333333333333336
669,Shelly,墾丁香蕉灣原始林露營區,94644屏東縣恆春鎮鵝鑾里船帆路238-2號,299,Shelly,露舍營家露營區,60.0,845高雄市內門區,18.181818181818176
670,Shelly,旭海舞浪園民宿露營區,945屏東縣牡丹鄉旭海路95之6號945,708,Shelly,旭海灣,80.0,945屏東縣牡丹鄉東海路15-6號,82.35294117647058
671,Shelly,大漢山森林療癒農場,94249屏東縣春日鄉春日路67號勿使用地址導航,0,Shelly,樂活森林農場,66.66666666666667,545南投縣埔里鎮桃米路55-1號,23.529411764705888
672,Shelly,慕谷灣露營休憩區,903屏東縣霧台鄉谷川部落4號,992,Shelly,蒝區,66.66666666666667,32659桃園市楊梅區幼獅路一段439號東南側,19.999999999999996
673,Shelly,噠噠鞍咖啡農莊,921屏東縣泰武鄉良武巷168號,298,Shelly,印月農莊,66.66666666666667,716台南市南化區,30.76923076923077
674,Shelly,屏東三地門_德文獵人學校民宿露營區,901屏東縣三地門鄉德文村,299,Shelly,露舍營家露營區,60.0,845高雄市內門區,14.28571428571429
675,Shelly,紗舍客棧咖啡莊園露營區,921屏東縣泰武鄉,299,Shelly,露舍營家露營區,60.0,845高雄市內門區,0.0
676,Shelly,海山露營區,946屏東縣恆春鎮島路200-2號,52,Shelly,三乘山露營區,88.88888888888889,542南投縣草屯鎮三層巷50號,29.629629629629626
677,Shelly,旭海九大露營區,945014屏東縣牡丹鄉旭海路1-16號,708,Shelly,旭海灣,80.0,945屏東縣牡丹鄉東海路15-6號,81.25
678,Shelly,黑豬的家私人會館(平日需預約）,906屏東縣高樹鄉公平路1-75號,258,Shelly,黑金大閘蟹的家,54.54545454545454,227新北市雙溪區過溪3-1號,22.22222222222222
679,Shelly,士文自然休閒農場,942屏東縣春日鄉士文路52-2號,744,Shelly,星錡休閒農場,80.0,512彰化縣永靖鄉東畔路238之46號,35.29411764705882
680,Shelly,地穀倉咖啡露營區,921屏東縣泰武鄉老潭巷110號,1207,Shelly,咖啡鄉 露營區,83.33333333333334,646雲林縣古坑鄉尖山坑路69號,22.22222222222222
681,Shelly,旭海MaNa瑪娜園區,945屏東縣牡丹鄉旭海路1-8號,695,Shelly,樂園露營區,57.14285714285714,929屏東縣琉球鄉復興路32-15號,50.0
682,Shelly,旭海順益露營區,945屏東縣牡丹鄉東海路47之12號,708,Shelly,旭海灣,80.0,945屏東縣牡丹鄉東海路15-6號,82.75862068965517
683,Shelly,綠野遊蹤民宿露營區,906屏東縣高樹鄉義興路16之1號,299,Shelly,露舍營家露營區,60.0,845高雄市內門區,12.5
684,Shelly,叢林原色,945屏東縣牡丹鄉石門路17號,904,Shelly,叢林開始懶人露營區Glamping-桃園店,66.66666666666667,325桃園市龍潭區德湖街369號,23.529411764705888
685,Shelly,水悠悠農場,921屏東縣泰武鄉2鄰21號,218,Shelly,大棟農場,66.66666666666667,No. 1之7號 雪山路和平區台中市424,18.181818181818176
686,Shelly,伊部落露營區,90191屏東縣三地門鄉民族巷100-4號,367,Shelly,麒麟部落露營區,90.9090909090909,961台東縣成功鎮麒麟路52-6號,31.999999999999996
687,Shelly,蒙馬羅露營農莊,947屏東縣滿州鄉村永南路20-7號,298,Shelly,印月農莊,66.66666666666667,716台南市南化區,18.181818181818176
688,Shelly,豆趣農場,923屏東縣萬巒鄉185縣道34.5公里,1067,Shelly,谷風野趣農場,85.71428571428572,982花蓮縣卓溪鄉古風村石平51之6號,34.48275862068966
689,Shelly,車露,941屏東縣枋山鄉,143,Shelly,小松露露營區(露營/車宿/車露) （寵物友善）,100.0,426台中市新社區,19.999999999999996
690,Shelly,尚田休閒驛站 附設露營,906屏東縣高樹鄉大山一路60號,299,Shelly,露舍營家露營區,44.44444444444444,845高雄市內門區,12.5
691,Shelly,華園露營民宿,945屏東縣牡丹鄉大梅路1之7號,223,Shelly,MOMO佳園民宿,66.66666666666667,42646台中市新社區協中街189-2號,19.999999999999996
692,Shelly,山野旭日灣露營區,94544屏東縣牡丹鄉源路1之20號,929,Shelly,馬灣露營區,88.88888888888889,336桃園市復興區霞雲里,0.0
693,Shelly,青山露營區,946屏東縣恆春鎮鵝鑾里砂島路234-3號,52,Shelly,三乘山露營區,88.88888888888889,542南投縣草屯鎮三層巷50號,25.0
694,Shelly,朱家老號烤肉露營區,907屏東縣鹽埔鄉,299,Shelly,露舍營家露營區,60.0,845高雄市內門區,0.0
695,Shelly,樂園露營區,929屏東縣琉球鄉復興路32-15號,25,Shelly,曉樂園露營區,100.0,540南投縣南投市吉利路126號,27.586206896551722
696,Shelly,霧台神山Ra噠呢露營區,902屏東縣霧台鄉神山巷1-22號,299,Shelly,露舍營家露營區,60.0,845高雄市內門區,0.0
697,Shelly,白砂海景露營區,946屏東縣恆春鎮白砂路31號,474,Shelly,景山露營區,88.88888888888889,604嘉義縣竹崎鄉光華村2鄰23號,26.66666666666667
698,Shelly,霧台神山賴媽媽驛棧,902屏東縣霧台鄉神山巷1-9號,696,Shelly,霧台神山Ra噠呢露營區,61.53846153846154,902屏東縣霧台鄉神山巷1-22號,93.33333333333333
699,Shelly,沙島露營區,946屏東縣恆春鎮鵝鑾里砂島路200號之1號,91,Shelly,馬沙露營區,88.88888888888889,544南投縣國姓鄉大長路616-1號,23.076923076923073
700,Shelly,黑黑小農 glamping,906屏東縣高樹鄉明義路9號,139,Shelly,蟬說：山中靜靜 Chanshuo Immersion glamping,81.81818181818181,411台中市太平區山田路218號,21.052631578947366
701,Shelly,松秀雅築露營場,90642屏東縣高樹鄉祥興街179號,1038,Shelly,松村,66.66666666666667,981花蓮縣玉里鎮號,33.333333333333336
702,Shelly,多阿隆農莊,921屏東縣泰武鄉,298,Shelly,印月農莊,66.66666666666667,716台南市南化區,18.181818181818176
703,Shelly,阿法里露營區,945屏東縣牡丹鄉大梅路68之27號,190,Shelly,里浪露營區,88.88888888888889,424台中市和平區東關路一段裡冷巷15號之 10,22.22222222222222
704,Shelly,吉野家農莊露營區,921屏東縣泰武鄉來義鄉佳興部落至舊武潭部落聯絡道路,830,Shelly,忘憂農莊露營區,83.33333333333334,312新竹縣橫山鄉,33.333333333333336
705,Shelly,Nasi深呼吸,945014屏東縣牡丹鄉,108,Shelly,森呼吸露營區,50.0,541南投縣中寮鄉永樂路201號,38.095238095238095
706,Shelly,白沙露營區,946屏東縣恆春鎮樹林路3之6號,648,Shelly,快樂白沙露營區,100.0,946屏東縣恆春鎮白砂路31-2號,75.86206896551724
707,Shelly,新都驕溪野營地,943屏東縣獅子鄉,850,Shelly,野足營地,85.71428571428572,311新竹縣五峰鄉天湖9鄰196-6號,33.333333333333336
708,Shelly,旭海灣,945屏東縣牡丹鄉東海路15-6號,434,Shelly,Hawkes Bay-霍克海灣,80.0,954台東縣卑南鄉富山村11鄰168號,41.17647058823529
709,Shelly,巴德卡茲休閒園區,945屏東縣牡丹鄉牡丹路242-12號,562,Shelly,淺山休閒露營園區,66.66666666666667,267宜蘭縣大同鄉古魯巷1-17號,36.36363636363637
710,Shelly,29觀海營區,946屏東縣恆春鎮萬里路29號,287,Shelly,卧虎營區,66.66666666666667,72045台南市官田區南119鄉道南120鄉道南119鄉道南120鄉道,19.999999999999996
711,Shelly,貓仔坑露營區,946屏東縣恆春鎮,1420,Eta,粗坑露營區,88.88888888888889,宜蘭縣員山鄉粗坑路151號,16.666666666666664
712,Shelly,涼山一號棧,903屏東縣瑪家鄉6730 號,950,Shelly,一號地露營區,57.14285714285714,336桃園市復興區,22.22222222222222
713,Shelly,樂逃園,947屏東縣滿州鄉福德路2-8號,197,Shelly,濱海樂園,80.0,439台中市大安區大安港海堤,13.33333333333333
714,Shelly,墾丁溪之谷樹屋農場,944屏東縣車城鄉竹社路9之3號,218,Shelly,大棟農場,66.66666666666667,No. 1之7號 雪山路和平區台中市424,21.052631578947366
715,Shelly,車床天地德文棧,901屏東縣三地門鄉901,766,Shelly,車床天地-三峽棧,72.72727272727273,237120新北市三峽區號,21.052631578947366
716,Shelly,後灣豆腐小學堂,946屏東縣車城鄉後灣路193號,340,Shelly,後大埔露營區,28.57142857142857,607嘉義縣大埔鄉大埔路,33.333333333333336
717,Shelly,麓人岬露營區/包場/KTV/寵物友善住宿/車宿/烤肉/渡假/團聚,946屏東縣恆春鎮茄苳路萬泉巷80-50號,603,Shelly,露樹露營區,60.0,262001宜蘭縣礁溪鄉白石腳路101號,25.64102564102564
718,Shelly,十朋金露營區,928屏東縣東港鎮船頭路71之26號,992,Shelly,蒝區,66.66666666666667,32659桃園市楊梅區幼獅路一段439號東南側,19.047619047619047
719,Shelly,Cedas太陽那邊,945屏東縣牡丹鄉,1311,Eta,邊界,66.66666666666667,南投縣水里鄉新南路,30.76923076923077
720,Shelly,德瓦農場-魯凱樹企業社,902屏東縣霧台鄉達那高嘟,112,Shelly,德芙蘭農場,66.66666666666667,424台中市和平區東關路一段359號,23.529411764705888
721,Shelly,小琉球生態休閒營區,929屏東縣琉球鄉復興路200號,53,Shelly,合興休閒營區,80.0,555南投縣魚池鄉華龍巷73-1號,21.42857142857143
722,Shelly,萬丹蜂香園,932屏東縣萬丹鄉香內路331巷190號,406,Shelly,思親園,50.0,961台東縣成功鎮富榮路119 號,42.42424242424242
723,Shelly,「壹參玖貳」森林營地,921屏東縣泰武鄉大武山三街七號,265,Shelly,林園營地,85.71428571428572,232新北市坪林區號,18.181818181818176
724,Shelly,泰武之眼-連葉莊（車床天地特約）,921屏東縣泰武鄉佳平巷190-20號,538,Shelly,太平162停車露營（車床天地特約）,66.66666666666667,603嘉義縣梅山鄉龍眼路59號,27.586206896551722
725,Shelly,墾丁清涼露營區,946屏東縣恆春鎮鵝鑾里砂島路234-1號,963,Shelly,清清露營區,80.0,336桃園市復興區207-4、,19.999999999999996
726,Shelly,小琉球特區營地,929屏東縣琉球鄉肚仔坪路15之2號,328,Shelly,大埔露營區營地,60.0,607嘉義縣大埔鄉,22.22222222222222
727,Shelly,念念不忘棧點,90642屏東縣高樹鄉世一路100之20號,1078,Shelly,逗點露營區,33.333333333333336,352苗栗縣三灣鄉內灣村龍峎頂5-17號,27.027027027027028
728,Shelly,小山丘,921屏東縣泰武鄉老潭巷,1408,Eta,吉恩典山丘,80.0,嘉義縣水上鄉三界埔段532-4地號,22.22222222222222
729,Shelly,君臨露營區,946屏東縣恆春鎮墾丁路330之9號,992,Shelly,蒝區,66.66666666666667,32659桃園市楊梅區幼獅路一段439號東南側,31.999999999999996
730,Shelly,糖居歲月,926屏東縣南州鄉永安路1號,160,Shelly,山居歲月森林區,75.0,426台中市新社區,33.333333333333336
731,Shelly,多隆納,921屏東縣泰武鄉佳平巷230號,702,Shelly,多阿隆農莊,66.66666666666667,921屏東縣泰武鄉,100.0
732,Shelly,灞吶山莊,5 鄰 510 號 泰武鄉屏東縣,447,Shelly,大武山莊,66.66666666666667,902屏東縣霧台鄉東川巷63號,33.333333333333336
733,Shelly,觀星山莊露營民宿,901002屏東縣三地門鄉北巴巷99號,320,Shelly,左觀,66.66666666666667,732台南市白河區,13.33333333333333
734,Shelly,山溪松徑咖啡莊園,901屏東縣三地門鄉北巴巷44號,134,Shelly,覓靜莊園,66.66666666666667,424台中市和平區東關路一段裡冷巷99號,22.22222222222222
735,Shelly,霧台獼猴補眠區,901屏東縣三地門鄉,992,Shelly,蒝區,66.66666666666667,32659桃園市楊梅區幼獅路一段439號東南側,26.66666666666667
736,Shelly,山野包棟民宿（屏東萬巒包棟/露營/車宿/烤肉）,923屏東縣萬巒鄉信敏路1-12號,1156,Shelly,逸山露營,50.0,35877苗栗縣苑裡鎮22-7號,25.806451612903224
737,Shelly,彰化露營哈比雪兒happy-camping露營區,521彰化縣北斗鎮復興路316巷,299,Shelly,露舍營家露營區,60.0,845高雄市內門區,19.999999999999996
738,Shelly,二林中科農場,526彰化縣二林鎮_ 中正巷9-30號,0,Shelly,樂活森林農場,66.66666666666667,545南投縣埔里鎮桃米路55-1號,25.806451612903224
739,Shelly,彰化五六弄,526彰化縣二林鎮詹厝路7號,737,Shelly,彰化露營哈比雪兒happy-camping露營區,57.14285714285714,521彰化縣北斗鎮復興路316巷,53.84615384615385
740,Shelly,公司一星伴,502彰化縣芬園鄉,219,Shelly,一星伴,100.0,408台中市南屯區大進街11號,18.181818181818176
741,Shelly,成功營區綠色環境學習營地,500彰化縣彰化市公園路一段409號,29,Shelly,龍泉營地,66.66666666666667,54550南投縣埔里鎮武界路28之10號,34.285714285714285
742,Shelly,清水那方 遊憩園地,511彰化縣社頭鄉山腳路一段268號,265,Shelly,林園營地,66.66666666666667,232新北市坪林區號,28.57142857142857
743,Shelly,哈比雪兒園區 | 寶寶抓周 | 性別派對 | 車聚 | 企業家庭日 | 戶外婚禮 |,521彰化縣北斗鎮復興路316巷,695,Shelly,樂園露營區,40.0,929屏東縣琉球鄉復興路32-15號,43.75
744,Shelly,星錡休閒農場,512彰化縣永靖鄉東畔路238之46號,28,Shelly,春陽觀休閒農場,80.0,546南投縣仁愛鄉虎門巷135號,31.57894736842105
745,Shelly,烏來967高地露營區,233新北市烏來區信福路120巷18號,299,Shelly,露舍營家露營區,60.0,845高雄市內門區,22.22222222222222
746,Shelly,沙瑪泰雅傳統露營區,233新北市烏來區西羅岸路,299,Shelly,露舍營家露營區,60.0,845高雄市內門區,23.529411764705888
747,Shelly,新北市石碇童軍營地,223新北市石碇區,241,Shelly,格致童軍營地,80.0,111台北市士林區仰德大道四段75號,33.333333333333336
748,Shelly,茶香地營地,232新北市坪林區坪雙路一段102號,29,Shelly,龍泉營地,66.66666666666667,54550南投縣埔里鎮武界路28之10號,33.333333333333336
749,Shelly,海麗愛哈皮 野孩子的營地,228新北市貢寮區巫里岸街18號往山下200公尺的溪邊,29,Shelly,龍泉營地,66.66666666666667,54550南投縣埔里鎮武界路28之10號,22.22222222222222
750,Shelly,青山營地,新北市坪林區48之1號,1143,Shelly,山居營地,85.71428571428572,365苗栗縣泰安鄉清安村洗水坑大坪部落,14.28571428571429
751,Shelly,幸福山林巴,25141新北市淡水區12號之1,268,Shelly,福山緣,66.66666666666667,233新北市烏來區卡拉模基2號,48.275862068965516
752,Shelly,恬緣烤肉露營區,237新北市三峽區建安路75-5號,252,Shelly,三峽樂樂谷車泊車宿木屋露營烤肉園區,54.54545454545454,237新北市三峽區153-1號,75.0
753,Shelly,桶後溪營地,233新北市烏來區,1046,Shelly,荖溪營地,85.71428571428572,972花蓮縣秀林鄉,19.999999999999996
754,Shelly,坪林長青露營區,232新北市坪林區,693,Shelly,青山露營區,88.88888888888889,946屏東縣恆春鎮鵝鑾里砂島路234-3號,26.66666666666667
755,Shelly,清泉水頭營地,新北市坪林區新北市坪林區漁光里粗石斛6之2號,1061,Shelly,綠水營地,75.0,972花蓮縣秀林鄉,18.181818181818176
756,Shelly,坪林露營/坪林一日遊烤肉/金溪露營區,232新北市坪林區金瓜寮路13-2號,299,Shelly,露舍營家露營區,60.0,845高雄市內門區,22.22222222222222
757,Shelly,張家莊,227新北市雙溪區,704,Shelly,吉野家農莊露營區,66.66666666666667,921屏東縣泰武鄉來義鄉佳興部落至舊武潭部落聯絡道路,18.181818181818176
758,Shelly,頭目山水,233新北市烏來區,82,Shelly,山水園露營農莊,66.66666666666667,544南投縣國姓鄉大長路117-1號,0.0
759,Shelly,福山達卡露營區,233新北市烏來區大羅蘭19之1號,1425,Eta,福山達卡露營區,100.0,新北市烏來區大羅蘭19之1號,100.0
760,Shelly,福山大羅蘭露營區,233新北市烏來區大羅蘭七號,1424,Eta,大羅蘭,100.0,新北市烏來區大羅蘭七號,100.0
761,Shelly,坪林露營‧仁里生態茶園,新北市坪林區粗窟村仁里13號,754,Shelly,坪林長青露營區,72.72727272727273,232新北市坪林區,80.0
762,Shelly,林口北堤大風車,244新北市林口區,1106,Shelly,風露營,40.0,365苗栗縣泰安鄉馬那邦64號,18.181818181818176
763,Shelly,茶香村之旅露營區,232新北市坪林區,1619,Eta,象之旅露營區,90.9090909090909,苗栗縣泰安鄉象鼻1鄰34號,16.666666666666664
764,Shelly,坪安潭營地,232新北市坪林區大粗坑6之1號,29,Shelly,龍泉營地,66.66666666666667,54550南投縣埔里鎮武界路28之10號,36.36363636363637
765,Shelly,準休閒農場-螢火蟲復育棲地(平日不開放散客),248新北市五股區新五路二段70號,744,Shelly,星錡休閒農場,72.72727272727273,512彰化縣永靖鄉東畔路238之46號,25.0
766,Shelly,車床天地-三峽棧,237120新北市三峽區號,715,Shelly,車床天地德文棧,72.72727272727273,901屏東縣三地門鄉901,21.052631578947366
767,Shelly,龍門露營區C區營地,228新北市貢寮區,328,Shelly,大埔露營區營地,71.42857142857143,607嘉義縣大埔鄉,0.0
768,Shelly,永賓露營區,232新北市坪林區磨壁潭10-1號,173,Shelly,歐賓露營區,88.88888888888889,424台中市和平區東關路一段台電巷124-4號,27.27272727272727
769,Shelly,山中居私人別墅露營區,231新北市新店區平廣路一段241號,299,Shelly,露舍營家露營區,60.0,845高雄市內門區,22.22222222222222
770,Shelly,自在草堂露營車改裝,224新北市瑞芳區,1585,Eta,好自在露營區,66.66666666666667,苗栗縣泰安鄉大興村四鄰57號,0.0
771,Shelly,丹內丹內野奢莊園 DANNEI GLAMPING,228新北市貢寮區仁和路21號,246,Shelly,迴山里 GLAMPING,85.71428571428572,23343新北市烏來區金堰115巷10之1號,41.379310344827594
772,Shelly,享呆露營車出租,231新北市新店區安康路二段287號,222,Shelly,勝開心腳踏車電動車出租/露營/車泊,50.0,420台中市豐原區豐勢 路 二 段 535 巷 100 弄5號,34.285714285714285
773,Shelly,有木里辦公處,237新北市三峽區有木里193號,1132,Shelly,有鬼露營區,33.333333333333336,苗栗縣南庄鄉鹿 場 部落 24 鄰 11 號,24.0
774,Shelly,樂見山露營區,336桃園市復興區成福路,1529,Eta,樂見山,100.0,桃園市復興區,100.0
775,Shelly,飛督努休閒 露營區,桃園市復興區20-1號,1520,Eta,飛督努露營區,66.66666666666667,桃園市復興區霞雲里5鄰成福路559號,70.58823529411764
776,Shelly,樹不老休閒莊園,336桃園市復興區,236,Shelly,甜蜜點休閒莊園,72.72727272727273,251新北市淡水區奎柔山路189號,22.22222222222222
777,Shelly,爺亨溪岸露營區,33644桃園市復興區7鄰15之21號,1549,Eta,爺亨溪岸,100.0,桃園市復興區,100.0
778,Shelly,臻美營地（狩獵帳/空中帳篷）,313新竹縣尖石鄉煤源段8鄰36-2號,211,Shelly,完美谷營地,66.66666666666667,424台中市和平區,18.181818181818176
779,Shelly,遇見嵨ㄨˇ繞（看到遇見嵨繞露營區大石頭由此處進入）,313新竹縣尖石鄉9號,603,Shelly,露樹露營區,60.0,262001宜蘭縣礁溪鄉白石腳路101號,30.76923076923077
780,Shelly,自然野趣露營區(一般營位/狩獵帳),313新竹縣尖石鄉新樂農路,603,Shelly,露樹露營區,60.0,262001宜蘭縣礁溪鄉白石腳路101號,30.76923076923077
781,Shelly,戀戀天湖露營區,311新竹縣五峰鄉花園村天湖219-15號,798,Shelly,天湖露營區,100.0,311新竹縣五峰鄉,100.0
782,Shelly,高台山露營區(狩獵帳),313新竹縣尖石鄉那羅26號臨,456,Shelly,晨光露營區(狩獵帳),88.88888888888889,60594嘉義縣阿里山鄉2鄰86號,40.0
783,Shelly,好麻吉私房景點露營區,311新竹縣五峰鄉196-20,299,Shelly,露舍營家露營區,60.0,845高雄市內門區,0.0
784,Shelly,童話森林露營地,313新竹縣尖石鄉Unnamed Road,8,Shelly,緣溪行森林營地,72.72727272727273,545南投縣埔里鎮乾溪景觀橋545號,8.333333333333337
785,Shelly,尖石夢田營區(狩獵帳),313新竹縣尖石鄉村5鄰270-5號,456,Shelly,晨光露營區(狩獵帳),82.35294117647058,60594嘉義縣阿里山鄉2鄰86號,28.57142857142857
786,Shelly,四季露營區,No. 305-2號 No 五峰鄉新竹縣311,402,Shelly,東遊季露營區,88.88888888888889,954台東縣卑南鄉溫泉路376巷18號,26.086956521739136
787,Shelly,蘇珊藏美露營區,311新竹縣五峰鄉17 鄰296-28 號,1244,Shelly,美圳露營區,88.88888888888889,843高雄市美濃區中正路二段58巷39號,17.391304347826086
788,Shelly,馬瀨營地,31141新竹縣鄉花園 村天湖 196-3號,8,Shelly,緣溪行森林營地,66.66666666666667,545南投縣埔里鎮乾溪景觀橋545號,15.384615384615385
789,Shelly,綠雲海露營區｜懶人露營｜免搭帳｜免裝備｜Glamping｜空中帳篷｜搭帳營位｜不含餐類型,312新竹縣橫山鄉,316,Shelly,露悠悠Glamping,72.72727272727273,844高雄市六龜區尾庄55之2號,18.181818181818176
790,Shelly,遊橘露營區,312新竹縣橫山鄉,231,Shelly,陽明山菁山遊憩區露營區,75.0,111台北市士林區菁山路101巷71弄16號,22.22222222222222
791,Shelly,露營樂3號店(狩獵帳)新竹尖石臻美館,313新竹縣尖石鄉36-2號,1232,Shelly,露營樂2號店(狩獵帳),90.9090909090909,80545高雄市旗津區旗津三路51號,25.0
792,Shelly,新竹·五峰露營區：愛上天湖露營區/狩獵帳、小木屋,311新竹縣五峰鄉花園村9鄰196-2號,321,Shelly,橘屋,66.66666666666667,712台南市新化區150號,31.57894736842105
793,Shelly,櫻花谷露營區,313新竹縣尖石鄉水田4鄰36-1號,1009,Shelly,鷹谷露營區,88.88888888888889,977花蓮縣豐濱鄉Unnamed Road,14.814814814814813
794,Shelly,漫步天湖露營區(狩獵帳),新竹縣五峰鄉219之31號,456,Shelly,晨光露營區(狩獵帳),88.88888888888889,60594嘉義縣阿里山鄉2鄰86號,34.78260869565217
795,Shelly,明園星空營地,30504新竹縣新埔鎮52之20號,18,Shelly,空若水營地,75.0,555南投縣魚池鄉文武巷1-33號,21.052631578947366
796,Shelly,梅后蔓露營區,31141新竹縣五峰鄉花園村8鄰花園185之11,1467,Eta,梅后蔓瀑布露營區,66.66666666666667,新竹縣五峰鄉,100.0
797,Shelly,翡翠園露營區,311新竹縣五峰鄉1鄰羅山24-16號,695,Shelly,樂園露營區,88.88888888888889,929屏東縣琉球鄉復興路32-15號,37.5
798,Shelly,天湖露營區,311新竹縣五峰鄉,781,Shelly,戀戀天湖露營區,100.0,311新竹縣五峰鄉花園村天湖219-15號,100.0
799,Shelly,緩緩李埔露營區 Huan Libu Camping｜自助露營、懶人露營,31308新竹縣尖石鄉1號1,1028,Shelly,Aki camping,72.72727272727273,972花蓮縣秀林鄉佳民98號,28.57142857142857
800,Shelly,晴空森林,31342新竹縣尖石鄉那羅村煤源產業道路1.5公里右轉晴空小徑1.5公里,805,Shelly,森林遇,80.0,313新竹縣尖石鄉號,80.0
801,Shelly,來！河繞露營區,313新竹縣尖石鄉47號玉峰,664,Shelly,河畔露營區,80.0,945屏東縣牡丹鄉大梅路1之20號,23.076923076923073
802,Shelly,相思園露營區,313新竹縣尖石鄉96號 錦屏村2鄰比麟96號,1488,Eta,相思園露營區,100.0,新竹縣尖石鄉錦屏村2鄰比麟96號,76.92307692307692
803,Shelly,依山傍水休閒露營區,313新竹縣尖石鄉九鄰79-3號,299,Shelly,露舍營家露營區,60.0,845高雄市內門區,0.0
804,Shelly,巴萬五峰露營區,311新竹縣五峰鄉,1437,Eta,巴萬五峰,100.0,新竹縣五峰鄉205-6號,80.0
805,Shelly,森林遇,313新竹縣尖石鄉號,34,Shelly,森林寓-露營區《日月潭露營區推薦》營地推薦｜懶人露營｜免裝備｜寵物友善營區｜家庭｜親子｜露營包場,80.0,555南投縣魚池鄉東興巷19號,30.76923076923077
806,Shelly,秘花園親子露營區,313新竹縣尖石鄉錦屏村12鄰那羅209號,900,Shelly,森森親子露營區,83.33333333333334,335桃園市大溪區福山一路118-1號,19.047619047619047
807,Shelly,熊麻吉親子露營區,313新竹縣尖石鄉那羅209之七,900,Shelly,森森親子露營區,83.33333333333334,335桃園市大溪區福山一路118-1號,22.22222222222222
808,Shelly,馬武督露營趣,新竹縣關西鎮306,1471,Eta,馬武督露營趣,100.0,新竹縣關西鎮,100.0
809,Shelly,函館露營區,313新竹縣尖石鄉義興村9鄰107-1號,992,Shelly,蒝區,66.66666666666667,32659桃園市楊梅區幼獅路一段439號東南側,23.076923076923073
810,Shelly,馬月台露營區,313新竹縣尖石鄉馬胎21-6號,333,Shelly,白石馬露營區,80.0,606011嘉義縣中埔鄉灣潭子段13-24地號金記宅,31.25
811,Shelly,喜嵐田園露營區,313新竹縣尖石鄉,695,Shelly,樂園露營區,88.88888888888889,929屏東縣琉球鄉復興路32-15號,26.66666666666667
812,Shelly,668露營區（森林區）,313新竹縣尖石鄉水田道路139號台灣 號,478,Shelly,小森林露營區,60.0,605嘉義縣阿里山鄉樂野村2鄰70-6號,16.666666666666664
813,Shelly,格步霧露營區(新竹縣五峰鄉),311新竹縣五峰鄉311-1,1447,Eta,格步霧露營區,100.0,新竹縣五峰鄉桃山村,66.66666666666667
814,Shelly,水田六四露營區-推薦優質人氣親子露營區小木屋(新竹尖石鄉)北部露營區推薦 窯烤PIZZA DIY 螢火蟲 溪邊,313新竹縣尖石鄉水田道路64-1號,603,Shelly,露樹露營區,60.0,262001宜蘭縣礁溪鄉白石腳路101號,36.36363636363637
815,Shelly,老鷹溪107號營地,313新竹縣尖石鄉7號,14,Shelly,1-2號營地,66.66666666666667,555南投縣魚池鄉文武巷1-2號,27.27272727272727
816,Shelly,景色天地露營區,313新竹縣尖石鄉內灣老街在導航上山路線才是正確道路,472,Shelly,天長地久露營區,83.33333333333334,602嘉義縣番路鄉,22.22222222222222
817,Shelly,新竹內灣、楓林露營區,312新竹縣橫山鄉35號,299,Shelly,露舍營家露營區,60.0,845高雄市內門區,18.181818181818176
818,Shelly,賓。狗窩露營區,311新竹縣五峰鄉,992,Shelly,蒝區,66.66666666666667,32659桃園市楊梅區幼獅路一段439號東南側,19.999999999999996
819,Shelly,逗留營地,310新竹縣竹東鎮16之13號,8,Shelly,緣溪行森林營地,66.66666666666667,545南投縣埔里鎮乾溪景觀橋545號,21.42857142857143
820,Shelly,蟬說: 霧繞 Chanshuo Woorao glamping,311新竹縣五峰鄉,882,Shelly,蟬說: 霧語 Chanshuo WooYuu,87.8048780487805,311新竹縣五峰鄉白蘭315-5號,100.0
821,Shelly,福興小農庄,312新竹縣橫山鄉104號,1267,Shelly,福濃,66.66666666666667,844高雄市六龜區裕濃路81巷12之30號,42.10526315789473
822,Shelly,樸真園六曲窩生態園區,306新竹縣關西鎮六區窩道路,695,Shelly,樂園露營區,57.14285714285714,929屏東縣琉球鄉復興路32-15號,15.384615384615385
823,Shelly,觀雲露營區,311新竹縣五峰鄉,395,Shelly,台東許雲露營區,88.88888888888889,961台東縣成功鎮成廣路29號,26.66666666666667
824,Shelly,山的那一邊露營區,311新竹縣五峰鄉18鄰311-37號,1475,Eta,山的那一邊,100.0,新竹縣五峰鄉桃山村18鄰311-37號,91.42857142857143
825,Shelly,Payan露營區,313新竹縣尖石鄉,1474,Eta,Payan露營區,100.0,新竹縣尖石鄉新樂村,80.0
826,Shelly,嫻嫻＆棠棠露營區,國道3號24°43'51. 121°13'14.0E,992,Shelly,蒝區,66.66666666666667,32659桃園市楊梅區幼獅路一段439號東南側,25.0
827,Shelly,八五森林露營地-水管屋露營住宿-新竹露營推薦-尖石露營推薦,313新竹縣尖石鄉號,265,Shelly,林園營地,75.0,232新北市坪林區號,33.333333333333336
828,Shelly,戈巴侖露營區,311新竹縣五峰鄉和平部落,665,Shelly,巴里露營區,80.0,943012屏東縣獅子鄉村竹坑巷2之9號,31.999999999999996
829,Shelly,樂奔露營區,313新竹縣尖石鄉水田150之5號,77,Shelly,唯樂露營區,88.88888888888889,555南投縣魚池鄉協力巷11-6號,27.586206896551722
830,Shelly,忘憂農莊露營區,312新竹縣橫山鄉,704,Shelly,吉野家農莊露營區,83.33333333333334,921屏東縣泰武鄉來義鄉佳興部落至舊武潭部落聯絡道路,33.333333333333336
831,Shelly,仙境微醺莊園,311新竹縣五峰鄉312-11號仙境微醺莊園,852,Shelly,仙境露營區,57.14285714285714,313新竹縣尖石鄉錦屏村6鄰吹上39之2,50.0
832,Shelly,關西大象露營地,30648新竹縣關西鎮仁安里拱子溝九鄰26號,145,Shelly,綠大地露營區,54.54545454545454,42646台中市新社區上坪4-6號,30.000000000000004
833,Shelly,小米露營區,311新竹縣五峰鄉,1483,Eta,小米露營區,100.0,新竹縣五峰鄉竹林村4鄰忠興91之5號,80.0
834,Shelly,營墅風晴露營區,306新竹縣關西鎮錦山里9鄰96號,1106,Shelly,風露營,66.66666666666667,365苗栗縣泰安鄉馬那邦64號,28.57142857142857
835,Shelly,泰里埔露營區,313新竹縣尖石鄉3鄰24號,190,Shelly,里浪露營區,80.0,424台中市和平區東關路一段裡冷巷15號之 10,23.529411764705888
836,Shelly,B612 (夕淞度日) 生態露營場,31141新竹縣五峰鄉竹林村1鄰羅山24-22號,31,Shelly,大衛營露營農場,60.0,542南投縣草屯鎮富德街66巷75號,26.086956521739136
837,Shelly,星院露營區,新竹縣北埔鄉314 鄉下 10 鄰,957,Shelly,遠見之星露營區,88.88888888888889,336桃園市復興區中心路86 巷28 號,17.391304347826086
838,Shelly,微居。解秘,306001新竹縣關西鎮號,1501,Eta,微居解秘,75.0,新竹縣關西鎮六曲窩188-8號,63.1578947368421
839,Shelly,石牛山露營區,306新竹縣關西鎮石牛山石福宮旁,1486,Eta,石牛山露營區,100.0,新竹縣關西鎮,100.0
840,Shelly,觀星賞月露營區,313001新竹縣尖石鄉,320,Shelly,左觀,66.66666666666667,732台南市白河區,19.999999999999996
841,Shelly,花湖美地露營區,311新竹縣五峰鄉花園村9鄰196號,1453,Eta,花湖美地,100.0,新竹縣五峰鄉花園村9鄰196號,100.0
842,Shelly,悠野's露營區,313新竹縣尖石鄉123號,898,Shelly,樂悠露營,57.14285714285714,33643桃園市復興區奎輝里2鄰下奎輝3-1號,35.29411764705882
843,Shelly,閣馬雅農場附設露營區,121313 TW 新竹縣 尖石鄉 24.7217172002244.2528473,1449,Eta,閣馬雅農場,100.0,新竹縣尖石鄉,83.33333333333334
844,Shelly,KT露營區,311新竹縣五峰鄉花園村8鄰167-1號,1175,Shelly,KK露營區,88.88888888888889,365苗栗縣泰安鄉9之16號,31.57894736842105
845,Shelly,野漾莊園,312003新竹縣橫山鄉馬福89號,771,Shelly,丹內丹內野奢莊園 DANNEI GLAMPING,75.0,228新北市貢寮區仁和路21號,22.22222222222222
846,Shelly,芬蘭露營區,311新竹縣五峰鄉,589,Shelly,飛亞蘭露營區,88.88888888888889,267宜蘭縣大同鄉泰雅路五段46號,22.22222222222222
847,Shelly,溪遊記露營區,313新竹縣鄉義興村六鄰馬胎3之2號,790,Shelly,遊橘露營區,80.0,312新竹縣橫山鄉,75.0
848,Shelly,怡德露營區,313新竹縣尖石鄉水田147,865,Shelly,怡然自德露營區,88.88888888888889,313新竹縣尖石鄉梅花村,85.71428571428572
849,Shelly,馬胎露比森林露營區,313001新竹縣尖石鄉義梅道路,299,Shelly,露舍營家露營區,60.0,845高雄市內門區,0.0
850,Shelly,野足營地,311新竹縣五峰鄉天湖9鄰196-6號,707,Shelly,新都驕溪野營地,85.71428571428572,943屏東縣獅子鄉,33.333333333333336
851,Shelly,五峰鄉梅山頂露營區,311五峰鄉羅山林道南線24-10 號,299,Shelly,露舍營家露營區,60.0,845高雄市內門區,13.33333333333333
852,Shelly,仙境露營區,313新竹縣尖石鄉錦屏村6鄰吹上39之2,4,Shelly,新境露營區,88.88888888888889,544南投縣國姓鄉長北路70之1號,18.75
853,Shelly,移動城堡露營區,311新竹縣五峰鄉310-3號,235,Shelly,碉堡露營區,88.88888888888889,253新北市石門區Unnamed Road,21.052631578947366
854,Shelly,新竹舞蜜露營區,313新竹縣五峰鄉竹林村,992,Shelly,蒝區,66.66666666666667,32659桃園市楊梅區幼獅路一段439號東南側,15.384615384615385
855,Shelly,起初休閒露營區,313新竹縣尖石鄉梅花村9鄰242-6號,61,Shelly,仙聞休閒露營區,83.33333333333334,555南投縣魚池鄉華龍巷73號,19.999999999999996
856,Shelly,新竹縣峨眉湖吾家農場,315新竹縣峨眉鄉環湖路8-8號,1391,Eta,家霖農場,85.71428571428572,台中市和平區東關路一段台電巷122-2號,27.27272727272727
857,Shelly,油羅溪森林花園,313新竹縣尖石鄉新樂村水田57號,661,Shelly,桃花園,80.0,屏東縣瑪家鄉崑山巷16號,25.0
858,Shelly,北得拉曼休閒營地,206新竹縣尖石鄉新樂村5鄰上水田150-2號,1431,Eta,北得拉曼露營區,72.72727272727273,新竹縣尖石鄉,100.0
859,Shelly,歐莎露營區Osa Camping,313新竹縣尖石鄉2鄰,73,Shelly,部落之丘 Camping,80.0,555南投縣魚池鄉文正巷1之45號,19.999999999999996
860,Shelly,尖石之美露營渡假村（露營區）,313新竹縣尖石鄉1之1號,299,Shelly,露舍營家露營區,54.54545454545454,845高雄市內門區,0.0
861,Shelly,斯摩亞露營地,335新竹縣關西鎮10鄰106號,1485,Eta,斯摩亞營地,80.0,新竹縣關西鎮10鄰106號,100.0
862,Shelly,威尼斯溫泉露營地－新竹露營區推薦 懶人露營車 帳篷 住宿 會館 價格 評價 必住 高CP值 網友好評 溫泉湯屋 精緻套房 烤肉 火鍋 露營設備出租 親子家庭 豪華 渡假休閒旅遊 熱門 人氣優惠 網美網紅打卡 拍照首選 戶外場地租借,312新竹縣橫山鄉33號,29,Shelly,龍泉營地,75.0,54550南投縣埔里鎮武界路28之10號,26.66666666666667
863,Shelly,印象尖石露營區,313新竹縣尖石鄉煤源29–3號,872,Shelly,小尖石露營區,90.9090909090909,313新竹縣尖石鄉,100.0
864,Shelly,窩.露營,311新竹縣五峰鄉羅山1鄰4-9號,422,Shelly,戰神俊的窩,40.0,950台東縣台東市青海路一段18巷83弄5號,19.047619047619047
865,Shelly,怡然自德露營區,313新竹縣尖石鄉梅花村,848,Shelly,怡德露營區,88.88888888888889,313新竹縣尖石鄉水田147,85.71428571428572
866,Shelly,霞喀羅露營地,村民 石 324 之 20 五峰鄉新竹縣311,1479,Eta,霞喀羅,100.0,新竹縣五峰鄉村,46.15384615384615
867,Shelly,分享家樹苗園,313001新竹縣尖石鄉號,51,Shelly,享樂玩家露營區,40.0,555南投縣魚池鄉五馬巷2-3號,26.66666666666667
868,Shelly,杉嵐營地,311新竹縣五峰鄉,1487,Eta,杉嵐營地,100.0,新竹縣五峰鄉竹林村1鄰羅山23之2號,80.0
869,Shelly,花現營地,313新竹縣尖石鄉部落,1499,Eta,蓪草花園營地,75.0,新竹縣五峰鄉花園村,47.05882352941176
870,Shelly,尤命築園露營區,313新竹縣尖石鄉新樂村煤源段8號,695,Shelly,樂園露營區,88.88888888888889,929屏東縣琉球鄉復興路32-15號,26.086956521739136
871,Shelly,高山寨露營區,311新竹縣五峰鄉上比來道路,1450,Eta,高山寨露營區,100.0,新竹縣五峰鄉花園村四鄰78之1號,60.0
872,Shelly,小尖石露營區,313新竹縣尖石鄉,863,Shelly,印象尖石露營區,90.9090909090909,313新竹縣尖石鄉煤源29–3號,100.0
873,Shelly,露露米露營區,311新竹縣五峰鄉,1460,Eta,露露米露營區,100.0,新竹縣五峰鄉竹林村,80.0
874,Shelly,寶石蘭露營區,31332新竹縣尖石鄉61之8號,846,Shelly,芬蘭露營區,88.88888888888889,311新竹縣五峰鄉,58.82352941176471
875,Shelly,有愛一家露營區,311新竹縣五峰鄉一鄰23-5號,503,Shelly,天一露營區,80.0,604嘉義縣竹崎鄉光華村11鄰茄苳仔29號,40.0
876,Shelly,松木青露營區,311新竹縣五峰鄉大隘村14鄰266號,693,Shelly,青山露營區,88.88888888888889,946屏東縣恆春鎮鵝鑾里砂島路234-3號,25.0
877,Shelly,大東田露營區,311新竹縣五峰鄉,1441,Eta,大東田露營區,100.0,新竹縣五峰鄉花園村6鄰121之5號,80.0
878,Shelly,大霸雅脈露營區,311新竹縣五峰鄉,640,Shelly,戴雅露營區,80.0,901屏東縣三地門鄉Unnamed Road,33.333333333333336
879,Shelly,香吉樂活露營趣,311新竹縣五峰鄉羅山2鄰31號,1592,Eta,樂活露營區,80.0,苗栗縣公館鄉,33.333333333333336
880,Shelly,瑞森雲烟露營區,313新竹縣尖石鄉錦屏後山產業道路184號,823,Shelly,觀雲露營區,80.0,311新竹縣五峰鄉,66.66666666666667
881,Shelly,鐵露局露營區,311新竹縣五峰鄉花園村天湖221-5號,1495,Eta,鐵露局露營區,100.0,新竹縣五峰鄉天湖221-5號,78.57142857142857
882,Shelly,蟬說: 霧語 Chanshuo WooYuu,311新竹縣五峰鄉白蘭315-5號,820,Shelly,蟬說: 霧繞 Chanshuo Woorao glamping,87.8048780487805,311新竹縣五峰鄉,100.0
883,Shelly,谷漢休閒露營區,313新竹縣尖石鄉14鄰160之1號,1151,Shelly,云仙谷休閒露營區,92.3076923076923,36541苗栗縣泰安鄉15號,41.666666666666664
884,Shelly,雪花的露營區,313新竹縣尖石鄉梅花9鄰236號,1503,Eta,雪花的露營區,100.0,新竹縣尖石鄉梅花村9鄰農路,76.92307692307692
885,Shelly,尖石天空小木屋露營區,313新竹縣尖石鄉,299,Shelly,露舍營家露營區,60.0,845高雄市內門區,0.0
886,Shelly,老牛露營區,新竹縣五峰鄉18 鄰 312-3 號,1461,Eta,老牛露營區,100.0,新竹縣五峰鄉桃山村18鄰白蘭312-3號,72.22222222222221
887,Shelly,梅花梯田免裝備露營區,313新竹縣尖石鄉3鄰梅花79之3號,299,Shelly,露舍營家露營區,60.0,845高雄市內門區,0.0
888,Shelly,野薑花露營區,313新竹縣尖石鄉錦屏村那羅一部落,1538,Eta,順花露營區,88.88888888888889,桃園市復興區武道能敢道路9號,0.0
889,Shelly,比拉多露營區,311新竹縣五峰鄉25號,979,Shelly,拉嘎露營區,80.0,桃園市復興區霞雲里佳志14之1號,35.29411764705882
890,Shelly,水田谷露營地,313新竹縣尖石鄉水田第4鄰123之1號,261,Shelly,水田園農莊,57.14285714285714,207新北市萬里區,15.384615384615385
891,Shelly,尖石鄉 星光閃閃露營區,313新竹縣尖石鄉玉峰段682號,299,Shelly,露舍營家露營區,60.0,845高雄市內門區,16.666666666666664
892,Shelly,梅村露營區,313新竹縣尖石鄉185號,1470,Eta,梅村露營區,100.0,新竹縣尖石鄉185號,100.0
893,Shelly,飛鼠不渴山上學校露營農場,336桃園市復興區,31,Shelly,大衛營露營農場,72.72727272727273,542南投縣草屯鎮富德街66巷75號,14.28571428571429
894,Shelly,福田美地休閒農場-露營,336桃園市復興區庫志道路11鄰24號,513,Shelly,美淞露營地,57.14285714285714,608嘉義縣水上鄉,16.666666666666664
895,Shelly,沒搞頭露營區,33643桃園市復興區6鄰21號,199,Shelly,頭櫃山露營區,80.0,426台中市新社區永櫃22-1號,41.379310344827594
896,Shelly,美腿山親子露營區,336桃園市復興區11鄰75號,1266,Shelly,山水炎親子露營區,85.71428571428572,844高雄市六龜區尾庄路55-2號,29.629629629629626
897,Shelly,葛鹿營地－桃園 露營小木屋｜木屋住宿｜露營區預約｜親子露營｜雨棚營地｜露營地點 推薦,336桃園市復興區2鄰合流48之8號,603,Shelly,露樹露營區,60.0,262001宜蘭縣礁溪鄉白石腳路101號,19.047619047619047
898,Shelly,樂悠露營,33643桃園市復興區奎輝里2鄰下奎輝3-1號,140,Shelly,樂悠悠露營區,75.0,台中市和平區42415鄰73號東關路一段里冷巷,31.57894736842105
899,Shelly,溪口台露營渡假園區(部落體驗&旅居車),336桃園市復興區羅馬路二段268號,695,Shelly,樂園露營區,40.0,929屏東縣琉球鄉復興路32-15號,37.03703703703704
900,Shelly,森森親子露營區,335桃園市大溪區福山一路118-1號,806,Shelly,秘花園親子露營區,83.33333333333334,313新竹縣尖石鄉錦屏村12鄰那羅209號,19.047619047619047
901,Shelly,亞霧香草營區,336桃園市復興區,287,Shelly,卧虎營區,66.66666666666667,72045台南市官田區南119鄉道南120鄉道南119鄉道南120鄉道,22.22222222222222
902,Shelly,八度野溪露營區(免裝備露營車、豪華狩獵帳、自搭帳),336桃園市復興區羅馬路三段238號,603,Shelly,露樹露營區,60.0,262001宜蘭縣礁溪鄉白石腳路101號,19.047619047619047
903,Shelly,Kusu 庫司景觀露營區,336桃園市復興區336 TW 桃園市 復興區 復興區庫志道路35之30 24°49'11.0''N 121°24,1527,Eta,庫司景觀露營區,100.0,桃園市復興區,100.0
904,Shelly,叢林開始懶人露營區Glamping-桃園店,325桃園市龍潭區德湖街369號,1088,Shelly,叢林開始懶人露營區Glamping-苗栗店,92.3076923076923,362苗栗縣頭屋鄉仁隆87號,33.333333333333336
905,Shelly,溫度露營區,336桃園市復興區12號,945,Shelly,馬莎度露營區,88.88888888888889,336桃園市復興區,100.0
906,Shelly,壘薩露營區,33643桃園市復興區卡普,992,Shelly,蒝區,66.66666666666667,32659桃園市楊梅區幼獅路一段439號東南側,50.0
907,Shelly,桃園復興鄉露營地‧日青露營區,33644桃園市復興區8鄰26號,661,Shelly,桃花園,80.0,屏東縣瑪家鄉崑山巷16號,28.57142857142857
908,Shelly,比亞山露營區,336桃園市復興區,433,Shelly,羅山露營區,88.88888888888889,983花蓮縣富里鄉,19.999999999999996
909,Shelly,塔木休閒農場,336桃園市復興區10鄰29之5號,28,Shelly,春陽觀休閒農場,80.0,546南投縣仁愛鄉虎門巷135號,25.806451612903224
910,Shelly,可飛鹿露營區,336桃園市復興區羅馬公路2鄰12號52.3km處之3,992,Shelly,蒝區,66.66666666666667,32659桃園市楊梅區幼獅路一段439號東南側,39.02439024390244
911,Shelly,長興山水靜露營區,336桃園市復興區長興里17鄰54號,1456,Eta,靜觀露營區,88.88888888888889,新竹縣五峰鄉桃山村18鄰311-30號,25.806451612903224
912,Shelly,恩愛農場露營地,桃園市復興區華陵里巴崚143之1號,1122,Shelly,拍片場露營地,80.0,363苗栗縣公館鄉開礦2626 號,19.047619047619047
913,Shelly,好馨勤齊露營（區）,336桃園市復興區羅馬公路57K處號,1252,Shelly,貴梅露營區（A區）,71.42857142857143,849高雄市那瑪夏區23.250880120號,22.22222222222222
914,Shelly,布納星空露營區,桃園市復興區25之6號,1481,Eta,星空下露營區,90.9090909090909,新竹縣五峰鄉,0.0
915,Shelly,夢想家園露營區,336桃園市復興區華陵里9鄰85號,695,Shelly,樂園露營區,88.88888888888889,929屏東縣琉球鄉復興路32-15號,30.76923076923077
916,Shelly,利河伯休閒農園露營區,336桃園市復興區爺亨段,1528,Eta,利河伯休閒農園露營區,100.0,桃園市復興區三光里爺亨段410地號,75.0
917,Shelly,熊老大露營區,336桃園市復興區,145,Shelly,綠大地露營區,80.0,42646台中市新社區上坪4-6號,33.333333333333336
918,Shelly,露薩 Lu Sa 露營區,336桃園市復興區號,299,Shelly,露舍營家露營區,60.0,845高雄市內門區,28.57142857142857
919,Shelly,泰雅秘境露營區,336桃園市復興區2號,1128,Shelly,秘境露營區,100.0,353苗栗縣南庄鄉,36.36363636363637
920,Shelly,蜻蜓露營區-嘎色鬧,336桃園市復興區奎輝里7鄰嘎色鬧2號,1537,Eta,蜻蜓露營區-嘎色鬧,100.0,桃園市復興區奎輝里嘎色鬧7鄰2號,87.5
921,Shelly,山雲海露營農場,336桃園市復興區中心路156號,16,Shelly,南投北山露營農場,83.33333333333334,544南投縣國姓鄉長石巷42-5號,22.22222222222222
922,Shelly,庫巴露營區,336桃園市復興區庫志道路31-3號,665,Shelly,巴里露營區,88.88888888888889,943012屏東縣獅子鄉村竹坑巷2之9號,17.391304347826086
923,Shelly,比固花園,336桃園市復興區,1516,Eta,比固花園,100.0,桃園市復興區高義村,80.0
924,Shelly,伊萬農場露營區,336桃園市復興區高義里雪霧鬧,33,Shelly,高峰農場露營區,83.33333333333334,544南投縣國姓鄉長石巷42-9號,0.0
925,Shelly,達彥休閒露營區,336桃園市復興區庫志道路32號,61,Shelly,仙聞休閒露營區,83.33333333333334,555南投縣魚池鄉華龍巷73號,22.22222222222222
926,Shelly,達拉蓋風景露營區(狩獵帳),336桃園市復興區,1106,Shelly,風露營,66.66666666666667,365苗栗縣泰安鄉馬那邦64號,36.36363636363637
927,Shelly,拉拉山長榮果園露營區,336桃園市復興區中心路138-2號,299,Shelly,露舍營家露營區,60.0,845高雄市內門區,22.22222222222222
928,Shelly,雲霧農場,336桃園市復興區色霧鬧10-21號,921,Shelly,山雲海露營農場,66.66666666666667,336桃園市復興區中心路156號,72.0
929,Shelly,馬灣露營區,336桃園市復興區霞雲里,333,Shelly,白石馬露營區,88.88888888888889,606011嘉義縣中埔鄉灣潭子段13-24地號金記宅,15.384615384615385
930,Shelly,奎輝營地,336桃園市復興區奎輝里5鄰12號,8,Shelly,緣溪行森林營地,66.66666666666667,545南投縣埔里鎮乾溪景觀橋545號,21.42857142857143
931,Shelly,清龍谷渡假中心,33643桃園市復興區流霞路50號,963,Shelly,清清露營區,33.333333333333336,336桃園市復興區207-4、,69.23076923076923
932,Shelly,翠墨莊園,336桃園市復興區,88,Shelly,遇見東平莊園,66.66666666666667,545南投縣埔里鎮覆金路21之1號,0.0
933,Shelly,石秀灣五葉松露營區,336桃園市復興區羅馬路五段330號,593,Shelly,五葉松林休閒露營區,80.0,267宜蘭縣大同鄉泰雅路二段33巷31之1號,34.48275862068966
934,Shelly,爺亨溫泉夢幻莊園露營區,336桃園市復興區爺亨道路24號,988,Shelly,爺亨溫泉露營區,72.72727272727273,336桃園市復興區爺亨道路24號,100.0
935,Shelly,歐陽莊園,336桃園市復興區高義蘭道路65之7號,1534,Eta,歐陽莊園,100.0,桃園市復興區高義蘭道路65之7號,100.0
936,Shelly,上杉露營區,336桃園市復興區6鄰28之6,146,Shelly,森杉露營區,88.88888888888889,424台中市和平區東崎路一段桃山巷32號,22.22222222222222
937,Shelly,哇吶訕露營區,336桃園市復興區14之18號,1546,Eta,哇吶訕露營區,100.0,桃園市復興區三光里武道能敢4鄰14之18號,57.14285714285714
938,Shelly,培雅境休閒露營區,336桃園市復興區羅馬公路,1535,Eta,培雅境休閒露營區,100.0,桃園市復興區羅浮里羅馬路一段301之6號,72.0
939,Shelly,拉拉山樂野露營區,336桃園市復興區華陵村11鄰180-11號,204,Shelly,原野露營區,88.88888888888889,424台中市和平區東關路三段2號,16.000000000000004
940,Shelly,谷力農場(狩獵帳),336桃園市復興區義盛村10鄰義興29號,456,Shelly,晨光露營區(狩獵帳),71.42857142857143,60594嘉義縣阿里山鄉2鄰86號,33.333333333333336
941,Shelly,拉拉山木村的家露營區,336桃園市復興區中心路156-2號,299,Shelly,露舍營家露營區,72.72727272727273,845高雄市內門區,22.22222222222222
942,Shelly,拉拉山塔曼之光露營區,336桃園市復興區中心路315號,299,Shelly,露舍營家露營區,60.0,845高雄市內門區,22.22222222222222
943,Shelly,綠果子休憩站,335桃園市大溪區美山路一段號166巷65號,312,Shelly,綠野果園,66.66666666666667,731台南市後壁區,33.333333333333336
944,Shelly,桃園•復興露營區／鑫彩霞谷fun露營,336桃園市復興區,661,Shelly,桃花園,80.0,屏東縣瑪家鄉崑山巷16號,18.181818181818176
945,Shelly,馬莎度露營區,336桃園市復興區,905,Shelly,溫度露營區,88.88888888888889,336桃園市復興區12號,100.0
946,Shelly,山大王休閒農莊,336桃園市復興區成福路,993,Shelly,山大王露營區,66.66666666666667,336桃園市復興區成福路,100.0
947,Shelly,木河谷營地,336桃園市復興區,1531,Eta,木河谷,100.0,桃園市復興區,100.0
948,Shelly,拉拉山觀星營地,33644桃園市復興區14鄰143-7號,29,Shelly,龍泉營地,66.66666666666667,54550南投縣埔里鎮武界路28之10號,21.42857142857143
949,Shelly,和平橋露營區,336桃園市復興區上宇內道路,1524,Eta,和平橋露營區,100.0,桃園市復興區,100.0
950,Shelly,一號地露營區,336桃園市復興區,90,Shelly,迦南之地露營區,80.0,546南投縣仁愛鄉投71鄉道34號,16.666666666666664
951,Shelly,古渡園地,33644桃園市復興區中心路86巷11號,1521,Eta,古渡園地,100.0,桃園市復興區華陵里中心路86巷11號,90.9090909090909
952,Shelly,雲河露營農場,336桃園市復興區中心路,921,Shelly,山雲海露營農場,83.33333333333334,336桃園市復興區中心路156號,100.0
953,Shelly,桃園復興鄉桃子菇菇休閒農莊,336桃園市復興區中心路148號,1545,Eta,桃子菇菇休閒農莊,100.0,桃園市復興區中心路華陵里148號,89.65517241379311
954,Shelly,桃園市龍潭區石門國民小學第二校區,325桃園市龍潭區民治路100號,661,Shelly,桃花園,80.0,屏東縣瑪家鄉崑山巷16號,25.0
955,Shelly,Hola吼辣露營農場,336桃園市復興區16號,31,Shelly,大衛營露營農場,72.72727272727273,542南投縣草屯鎮富德街66巷75號,33.333333333333336
956,Shelly,摩亞露營區,336桃園市復興區高義村雪霧鬧7鄰10-8號,539,Shelly,亞亞竹露營區,80.0,605嘉義縣阿里山鄉,19.999999999999996
957,Shelly,遠見之星露營區,336桃園市復興區中心路86 巷28 號,837,Shelly,星院露營區,88.88888888888889,新竹縣北埔鄉314 鄉下 10 鄰,17.391304347826086
958,Shelly,融奎霖休閒露營區,336桃園市復興區13號,61,Shelly,仙聞休閒露營區,83.33333333333334,555南投縣魚池鄉華龍巷73號,28.57142857142857
959,Shelly,Colin 亞力山大露營區,65-9 號 高義蘭道路復興區桃園市336,299,Shelly,露舍營家露營區,60.0,845高雄市內門區,23.529411764705888
960,Shelly,比該溪生態露營區,336桃園市復興區9鄰89-1號,1182,Shelly,逸境生態露營區,83.33333333333334,64343雲林縣林內鄉自強路1巷23之8號,30.000000000000004
961,Shelly,蝶木窩露營休閒坊,336桃園市復興區羅浮里4鄰羅浮92號,909,Shelly,塔木休閒農場,50.0,336桃園市復興區10鄰29之5號,69.23076923076923
962,Shelly,Insuna‘尹宿納露營區,336桃園市復興區,1550,Eta,尹宿納,100.0,桃園市復興區,100.0
963,Shelly,清清露營區,336桃園市復興區207-4、,1536,Eta,清清露營區,100.0,桃園市復興區華陵里8鄰40號,56.00000000000001
964,Shelly,拉拉山芘雅尚露營區,336桃園市復興區141-9號,299,Shelly,露舍營家露營區,60.0,845高雄市內門區,22.22222222222222
965,Shelly,綠境農場,335桃園市大溪區中華路369巷33號,0,Shelly,樂活森林農場,66.66666666666667,545南投縣埔里鎮桃米路55-1號,23.529411764705888
966,Shelly,山上陽光休閒農莊,336桃園市復興區一鄰號,407,Shelly,福鹿山休閒農莊,72.72727272727273,955台東縣鹿野鄉高台路42巷,0.0
967,Shelly,雅比斯露營區,336桃園市復興區華陵里9鄰69號,992,Shelly,蒝區,66.66666666666667,32659桃園市楊梅區幼獅路一段439號東南側,42.85714285714286
968,Shelly,高坡金磐石露營區,336桃園市復興區5號15,215,Shelly,石壁露營區,88.88888888888889,424台中市和平區,23.529411764705888
969,Shelly,喜樂麻谷烤肉露營休閒園區,336桃園市復興區霞雲里4鄰佳志13-1號,562,Shelly,淺山休閒露營園區,66.66666666666667,267宜蘭縣大同鄉古魯巷1-17號,36.36363636363637
970,Shelly,拉拉山得拉互露營區,336桃園市復興區,1519,Eta,得拉互,100.0,桃園市復興區華陵里巴崚8鄰55之2號,80.0
971,Shelly,戀戀雅渡農場,336桃園市復興區色霧鬧7鄰10之3號,1548,Eta,戀戀雅渡農場,100.0,桃園市復興區高義里七鄰10之3號,75.0
972,Shelly,山豬王露營區,336桃園市復興區7鄰1之12號,1539,Eta,山豬王露營區,100.0,桃園市復興區7鄰1之12號,100.0
973,Shelly,阿爸的故事,336桃園市復興區華陵里華陵村11鄰180號,633,Shelly,亞爸的山,57.14285714285714,267012宜蘭縣大同鄉泰雅路七段363之1號,28.57142857142857
974,Shelly,貳柒珈琲露營區,336桃園市復興區30-3號,992,Shelly,蒝區,66.66666666666667,32659桃園市楊梅區幼獅路一段439號東南側,48.0
975,Shelly,施工中暫停服務（營業） 快樂農莊(復興區 住宿包棟/車泊/露營),336桃園市復興區,1177,Shelly,快樂露營區,50.0,365苗栗縣泰安鄉高熊卡4鄰60號,36.36363636363637
976,Shelly,兔子坑露營區,325桃園市龍潭區永昌路51巷18弄108之2號,1420,Eta,粗坑露營區,88.88888888888889,宜蘭縣員山鄉粗坑路151號,30.76923076923077
977,Shelly,卡普休閒農莊(Qapu Camping Area),336桃園市復興區23號,635,Shelly,尤酷玩家 CampArea,69.23076923076923,27291宜蘭縣南澳鄉東岳部落聯絡道路連絡道路,15.384615384615385
978,Shelly,杉與山 露營區,336桃園市復興區中心路86巷,1543,Eta,杉與山露營區,83.33333333333334,桃園市復興區中心路86巷,100.0
979,Shelly,拉嘎露營區,桃園市復興區霞雲里佳志14之1號,889,Shelly,比拉多露營區,80.0,311新竹縣五峰鄉25號,35.29411764705882
980,Shelly,享慢活 Double 5,327004桃園市新屋區港興路310號,1572,Eta,芬享露營區,33.333333333333336,苗栗縣泰安鄉大興村5鄰38-1號,36.36363636363637
981,Shelly,微笑草地,33644桃園市復興區中心路86巷21號,185,Shelly,微笑Glamping《懶人露營》豪華露營｜雙人｜團體露營｜冷氣露營｜免搭帳｜免設備｜免裝備露營,66.66666666666667,423台中市東勢區東崎路三段175巷28號,35.89743589743589
982,Shelly,那山達雅賀,336桃園市復興區9-6號,620,Shelly,那山那谷,66.66666666666667,272宜蘭縣南澳鄉金洋路2號,14.28571428571429
983,Shelly,Mliyang米利漾 x Camping Chill 露營,336桃園市復興區2號,1532,Eta,米利漾,100.0,桃園市復興區2號,100.0
984,Shelly,基拉耳山莊,336桃園市復興區溪口路16巷29號,447,Shelly,大武山莊,66.66666666666667,902屏東縣霧台鄉東川巷63號,23.529411764705888
985,Shelly,蘋果農莊,336桃園市復興區色霧鬧7鄰10-20號,46,Shelly,芭喇露營區休閒農莊,66.66666666666667,546南投縣仁愛鄉武界林道,12.5
986,Shelly,庭綩小棧,桃園市復興區1鄰16-3號,1570,Eta,楓李小棧,66.66666666666667,苗栗縣泰安鄉大興村4鄰61-7號,45.45454545454546
987,Shelly,天成逸旅-朋趣豪華露營 Bon Chill Glamping by Cosmos Oasis,325桃園市龍潭區悅華路100號,316,Shelly,露悠悠Glamping,72.72727272727273,844高雄市六龜區尾庄55之2號,22.22222222222222
988,Shelly,爺亨溫泉露營區,336桃園市復興區爺亨道路24號,934,Shelly,爺亨溫泉夢幻莊園露營區,72.72727272727273,336桃園市復興區爺亨道路24號,100.0
989,Shelly,享恩商店露營區,33643桃園市復興區溪口路86號,992,Shelly,蒝區,66.66666666666667,32659桃園市楊梅區幼獅路一段439號東南側,45.16129032258065
990,Shelly,拉拉山．沄峰農場,336桃園市復興區華陵村10鄰143之22號,1324,Eta,高峰農場,85.71428571428572,南投縣國姓鄉南港村長石巷42-9號,28.57142857142857
991,Shelly,桃園復興大樹下露營區,336桃園市復興區32號,661,Shelly,桃花園,80.0,屏東縣瑪家鄉崑山巷16號,28.57142857142857
992,Shelly,蒝區,32659桃園市楊梅區幼獅路一段439號東南側,1,Shelly,陽光露營區,66.66666666666667,546南投縣仁愛鄉榮光巷50號5,19.999999999999996
993,Shelly,山大王露營區,336桃園市復興區成福路,946,Shelly,山大王休閒農莊,66.66666666666667,336桃園市復興區成福路,100.0
994,Shelly,友善露營區,336桃園市復興區中心路160-7號,23,Shelly,樂沐山林_親子友善露營區 （鼓勵親子陪伴，管理嚴謹）,100.0,555南投縣魚池鄉五馬巷4號,13.33333333333333
995,Shelly,雅緻露營區,33644桃園市復興區三光段122地號果園,98,Shelly,石頭窩景緻露營區,88.88888888888889,552南投縣集集鎮梨頭巷10-6號,18.181818181818176
996,Shelly,休旅家 梧桐心境露營區,325桃園市龍潭區粗坑路622巷280號,299,Shelly,露舍營家露營區,60.0,845高雄市內門區,33.333333333333336
997,Shelly,花蓮海洋露營區,974花蓮縣壽豐鄉大橋30之6號號,676,Shelly,海山露營區,80.0,946屏東縣恆春鎮島路200-2號,30.303030303030297
998,Shelly,花蓮悠悠太魯閣露營區,972花蓮縣秀林鄉民治132之11號,299,Shelly,露舍營家露營區,60.0,845高雄市內門區,0.0
999,Shelly,巴罕營家 | 花蓮豪華露營,97253花蓮縣秀林鄉70-36,299,Shelly,露舍營家露營區,44.44444444444444,845高雄市內門區,15.384615384615385
1000,Shelly,Ocean Chill 海憩露營區,971花蓮縣新城鄉順安村,299,Shelly,露舍營家露營區,60.0,845高雄市內門區,0.0
1001,Shelly,踏浪星辰豪華露營Camp,971花蓮縣新城鄉七星街41巷11號,374,Shelly,都蘭五線-山海賞星緣 （露營區Camping area）,58.33333333333333,959台東縣東河鄉59-2號,26.086956521739136
1002,Shelly,花蓮鯉魚潭露營渡假村,974花蓮縣壽豐鄉池南路二段90號,1353,Eta,沙八渡假村,75.0,南投縣國姓鄉北港村北原路34-1號,27.586206896551722
1003,Shelly,高巢農場 - 花蓮 ( 預約制咖啡廳 義大利麵 炸物 下午茶 全地形車 UTV 包套行程 豪華 奢華 草地露營 海邊露營 必玩沙灘車 寵物友善免搭帳露營 花蓮崇德海灘 清水斷崖獨木舟SUP推薦 免裝備懶人露營推薦),972花蓮縣秀林鄉崇德192之43號,1324,Eta,高峰農場,75.0,南投縣國姓鄉南港村長石巷42-9號,26.66666666666667
1004,Shelly,花蓮8個浪露營區（漆彈 獨木舟SUP）,972花蓮縣秀林鄉,603,Shelly,露樹露營區,60.0,262001宜蘭縣礁溪鄉白石腳路101號,22.22222222222222
1005,Shelly,花蓮光復吉利潭星光露營區,976花蓮縣光復鄉256號,299,Shelly,露舍營家露營區,60.0,845高雄市內門區,16.666666666666664
1006,Shelly,那座山隱癮coffee｜露營區｜咖啡廳｜花蓮景點｜下午茶,972花蓮縣秀林鄉,603,Shelly,露樹露營區,60.0,262001宜蘭縣礁溪鄉白石腳路101號,22.22222222222222
1007,Shelly,崇德瑩農場,972花蓮縣秀林鄉下台地,112,Shelly,德芙蘭農場,66.66666666666667,424台中市和平區東關路一段359號,25.0
1008,Shelly,山棧水居-野人露營趣,972花蓮縣秀林鄉19-12號,1103,Shelly,紮營趣,80.0,36445苗栗縣大湖鄉大南村8鄰 大南勢34-1號,33.333333333333336
1009,Shelly,鷹谷露營區,977花蓮縣豐濱鄉Unnamed Road,451,Shelly,櫻之谷露營區,88.88888888888889,848高雄市桃源區南橫公路三段東莊巷30之6號,0.0
1010,Shelly,石梯坪營地（眺浪二園區）,977花蓮縣豐濱鄉石梯坪52號,695,Shelly,樂園露營區,50.0,929屏東縣琉球鄉復興路32-15號,28.57142857142857
1011,Shelly,風七十營地,974花蓮縣壽豐鄉大橋36-9號,1106,Shelly,風露營,50.0,365苗栗縣泰安鄉馬那邦64號,30.76923076923077
1012,Shelly,嚮海·邊境Yearning for the sea,972花蓮縣秀林鄉崇德192之45號,332,Shelly,嚮露,66.66666666666667,844高雄市六龜區土壠149之10號,31.999999999999996
1013,Shelly,野宅 ye.zhai,972花蓮縣秀林鄉192之28號,1541,Eta,松野,66.66666666666667,桃園市復興區10-16號,21.052631578947366
1014,Shelly,後山星月,974花蓮縣壽豐鄉月眉村月眉二段37-1號,220,Shelly,星月假期-台中露營-住宿-烤肉-飯店-泡湯,66.66666666666667,421台中市后里區月眉北路482號之1號,27.586206896551722
1015,Shelly,利巴哈克露營區,972花蓮縣秀林鄉192之21號,992,Shelly,蒝區,66.66666666666667,32659桃園市楊梅區幼獅路一段439號東南側,19.047619047619047
1016,Shelly,後山逍遙露營區,97643花蓮縣光復鄉建國路一段15巷5-6號,992,Shelly,蒝區,66.66666666666667,32659桃園市楊梅區幼獅路一段439號東南側,24.242424242424242
1017,Shelly,石寨美自然生態工坊（花蓮露營）,979花蓮縣萬榮鄉,998,Shelly,花蓮悠悠太魯閣露營區,53.333333333333336,972花蓮縣秀林鄉民治132之11號,66.66666666666667
1018,Shelly,山民治97漫活營地,972002花蓮縣秀林鄉民治97號,29,Shelly,龍泉營地,66.66666666666667,54550南投縣埔里鎮武界路28之10號,26.086956521739136
1019,Shelly,醉浪露營區,974花蓮縣壽豐鄉大橋30-7號,190,Shelly,里浪露營區,88.88888888888889,424台中市和平區東關路一段裡冷巷15號之 10,11.764705882352944
1020,Shelly,眺浪一園區（露營地）,977花蓮縣豐濱鄉,503,Shelly,天一露營區,44.44444444444444,604嘉義縣竹崎鄉光華村11鄰茄苳仔29號,22.22222222222222
1021,Shelly,吉米雄露營地,978花蓮縣瑞穗鄉興鶴路一段42號,1302,Shelly,雄工濕地,50.0,807高雄市三民區建工路419號,27.27272727272727
1022,Shelly,花蓮吉安海邊野營點,973花蓮縣吉安鄉,613,Shelly,睡海邊,66.66666666666667,270宜蘭縣蘇澳鎮東澳路101巷19號,26.66666666666667
1023,Shelly,AKI Camping 車宿露營區,97242花蓮縣秀林鄉98-22號,299,Shelly,露舍營家露營區,60.0,845高雄市內門區,15.384615384615385
1024,Shelly,奇蹟農場,972花蓮縣秀林鄉,0,Shelly,樂活森林農場,66.66666666666667,545南投縣埔里鎮桃米路55-1號,13.33333333333333
1025,Shelly,白鮑溪休閒農場,972花蓮縣秀林鄉,744,Shelly,星錡休閒農場,80.0,512彰化縣永靖鄉東畔路238之46號,33.333333333333336
1026,Shelly,納格林野營,976007花蓮縣光復鄉,1551,Eta,納格林野營,100.0,花蓮縣光復鄉157之1號,66.66666666666667
1027,Shelly,眺躍鳥水域活動營區,972花蓮縣秀林鄉,287,Shelly,卧虎營區,66.66666666666667,72045台南市官田區南119鄉道南120鄉道南119鄉道南120鄉道,36.36363636363637
1028,Shelly,Aki camping,972花蓮縣秀林鄉佳民98號,70,Shelly,飛瀑露營區feipucamping,77.77777777777779,546南投縣仁愛鄉中正路1之1號處左轉(人止關左前岔路轉入約4公里，15分路程73K,21.42857142857143
1029,Shelly,海放你基地 Have Funny Base,977004花蓮縣豐濱鄉永豐路11-5號,613,Shelly,睡海邊,50.0,270宜蘭縣蘇澳鎮東澳路101巷19號,37.83783783783784
1030,Shelly,山風露宿,97943花蓮縣萬榮鄉219號,1106,Shelly,風露營,66.66666666666667,365苗栗縣泰安鄉馬那邦64號,30.76923076923077
1031,Shelly,七腳川露營民宿,973花蓮縣吉安鄉福昌路800號,691,Shelly,華園露營民宿,80.0,945屏東縣牡丹鄉大梅路1之7號,31.25
1032,Shelly,夢星緣｜車宿、野營,974花蓮縣壽豐鄉,850,Shelly,野足營地,66.66666666666667,311新竹縣五峰鄉天湖9鄰196-6號,22.22222222222222
1033,Shelly,#太陽農莊#CIDAL農莊#預約制風味餐#寵物友善空間#機車天空之鏡,972花蓮縣秀林鄉崇德192之9號,1106,Shelly,風露營,33.333333333333336,365苗栗縣泰安鄉馬那邦64號,22.22222222222222
1034,Shelly,七彩湖營地,979花蓮縣萬榮鄉,249,Shelly,大舌湖營地,75.0,232新北市坪林區大舌湖30號。,0.0
1035,Shelly,奇蹟野戰營,972花蓮縣秀林鄉加灣地號436號,1024,Shelly,奇蹟農場,66.66666666666667,972花蓮縣秀林鄉,100.0
1036,Shelly,鹽寮民宿,974花蓮縣壽豐鄉花東海岸公路39號,223,Shelly,MOMO佳園民宿,66.66666666666667,42646台中市新社區協中街189-2號,18.181818181818176
1037,Shelly,白石池營地,Baishi Chi 萬榮鄉花蓮縣979,1053,Shelly,南雙池營地,75.0,982花蓮縣卓溪鄉,40.0
1038,Shelly,松村,981花蓮縣玉里鎮號,144,Shelly,松風谷種苗休閒園區,66.66666666666667,424台中市和平區東關路一段台電巷122-20號,23.529411764705888
1039,Shelly,太平溪源營地,982花蓮縣卓溪鄉,1046,Shelly,荖溪營地,75.0,972花蓮縣秀林鄉,66.66666666666667
1040,Shelly,新富興露營區,978花蓮縣瑞穗鄉拉吉禾部落聯絡道路,992,Shelly,蒝區,66.66666666666667,32659桃園市楊梅區幼獅路一段439號東南側,12.5
1041,Shelly,魚的家休閒農場,976花蓮縣光復鄉西富村民有街51-2號,744,Shelly,星錡休閒農場,80.0,512彰化縣永靖鄉東畔路238之46號,33.333333333333336
1042,Shelly,大理石營地（廣寒宮）,972花蓮縣秀林鄉,249,Shelly,大舌湖營地,60.0,232新北市坪林區大舌湖30號。,23.529411764705888
1043,Shelly,太平谷營地,982花蓮縣卓溪鄉,211,Shelly,完美谷營地,75.0,424台中市和平區,18.181818181818176
1044,Shelly,安通十全果園露營區,981花蓮縣玉里鎮981,299,Shelly,露舍營家露營區,60.0,845高雄市內門區,18.181818181818176
1045,Shelly,丘壑營地,982花蓮縣卓溪鄉,8,Shelly,緣溪行森林營地,66.66666666666667,545南投縣埔里鎮乾溪景觀橋545號,22.22222222222222
1046,Shelly,荖溪營地,972花蓮縣秀林鄉,753,Shelly,桶後溪營地,85.71428571428572,233新北市烏來區,19.999999999999996
1047,Shelly,雪玉工作室/露營,974009花蓮縣壽豐鄉592號,1048,Shelly,雪玉工作室｜露營ㄗㄖ,87.5,974009花蓮縣壽豐鄉橋上岸弱肉強😑,85.71428571428572
1048,Shelly,雪玉工作室｜露營ㄗㄖ,974009花蓮縣壽豐鄉橋上岸弱肉強😑,1047,Shelly,雪玉工作室/露營,87.5,974009花蓮縣壽豐鄉592號,85.71428571428572
1049,Shelly,超好躺的木頭,970花蓮縣花蓮市,199,Shelly,頭櫃山露營區,28.57142857142857,426台中市新社區永櫃22-1號,13.33333333333333
1050,Shelly,奇萊山北峰三叉營地,972花蓮縣秀林鄉,216,Shelly,三叉營地,100.0,424台中市和平區,18.181818181818176
1051,Shelly,豐盛美地,975花蓮縣鳳林鎮鳳林鎮中泰路37號,513,Shelly,美淞露營地,40.0,608嘉義縣水上鄉,13.33333333333333
1052,Shelly,許家福園,978花蓮縣瑞穗鄉Unnamed Road,1466,Eta,明當家園,66.66666666666667,新竹縣尖石鄉新樂村水田7鄰190-1號,14.28571428571429
1053,Shelly,南雙池營地,982花蓮縣卓溪鄉,1037,Shelly,白石池營地,75.0,Baishi Chi 萬榮鄉花蓮縣979,40.0
1054,Shelly,牛山呼庭,974花蓮縣壽豐鄉牛山39-5號,839,Shelly,石牛山露營區,57.14285714285714,306新竹縣關西鎮石牛山石福宮旁,22.22222222222222
1055,Shelly,CIDAL 阿美式風味餐,972花蓮縣秀林鄉,1106,Shelly,風露營,33.333333333333336,365苗栗縣泰安鄉馬那邦64號,22.22222222222222
1056,Shelly,黑水塘(尖山下山屋舊址),982花蓮縣卓溪鄉,292,Shelly,尖山埤露營區,33.333333333333336,736台南市柳營區南107鄉道,18.181818181818176
1057,Shelly,臺灣池營地,972花蓮縣秀林鄉,1037,Shelly,白石池營地,75.0,Baishi Chi 萬榮鄉花蓮縣979,40.0
1058,Shelly,水牛山農牧場,974花蓮縣壽豐鄉牛山32號,1497,Eta,天山農場,75.0,新竹縣五峰鄉桃山村20鄰民石353之5號,33.333333333333336
1059,Shelly,莫那營地,972花蓮縣秀林鄉崇德99之20號,8,Shelly,緣溪行森林營地,66.66666666666667,545南投縣埔里鎮乾溪景觀橋545號,13.33333333333333
1060,Shelly,瑞穗露營區2024,978花蓮縣瑞穗鄉中山路三段215號,603,Shelly,露樹露營區,60.0,262001宜蘭縣礁溪鄉白石腳路101號,33.333333333333336
1061,Shelly,綠水營地,972花蓮縣秀林鄉,18,Shelly,空若水營地,85.71428571428572,555南投縣魚池鄉文武巷1-33號,22.22222222222222
1062,Shelly,花蓮崇德瑩聽海童話村,97253花蓮縣秀林鄉崇德瑩-聽海童話村,1038,Shelly,松村,66.66666666666667,981花蓮縣玉里鎮號,44.44444444444444
1063,Shelly,花蓮崇德-免裝備露營、車泊露營、懶人露營、野外求生、沙灘車、獨木舟、SUP、漆彈、天空之鏡,972花蓮縣秀林鄉材下台地霧溪旁,887,Shelly,梅花梯田免裝備露營區,60.0,313新竹縣尖石鄉3鄰梅花79之3號,16.000000000000004
1064,Shelly,東豐露營區 （因颱風影響將無限期暫停營業）,981花蓮縣玉里鎮11之1號,1106,Shelly,風露營,66.66666666666667,365苗栗縣泰安鄉馬那邦64號,16.666666666666664
1065,Shelly,O.B露營小屋,972花蓮縣秀林鄉號,321,Shelly,橘屋,66.66666666666667,712台南市新化區150號,30.76923076923077
1066,Shelly,放空荒野-小羅家,975花蓮縣鳳林鎮,504,Shelly,羅老爸的家露營區,40.0,605嘉義縣阿里山鄉,26.66666666666667
1067,Shelly,谷風野趣農場,982花蓮縣卓溪鄉古風村石平51之6號,1106,Shelly,風露營,40.0,365苗栗縣泰安鄉馬那邦64號,30.000000000000004
1068,Shelly,鍾佳地,971花蓮縣新城鄉花6鄉道971號,8,Shelly,緣溪行森林營地,50.0,545南投縣埔里鎮乾溪景觀橋545號,13.33333333333333
1069,Shelly,集禾小農,981花蓮縣玉里鎮大橋223-3號,493,Shelly,禾田農莊,57.14285714285714,605嘉義縣阿里山鄉2鄰82號,37.03703703703704
1070,Shelly,橄欖莊園,363004苗栗縣公館鄉,88,Shelly,遇見東平莊園,66.66666666666667,545南投縣埔里鎮覆金路21之1號,22.22222222222222
1071,Shelly,一畝稻田露營區,353苗栗縣南庄鄉5鄰64-2號,1629,Eta,山田露營區,88.88888888888889,苗栗縣獅潭鄉新店村12鄰151-7號,37.5
1072,Shelly,柚香露露野樂地 Yio au Champ,366苗栗縣銅鑼鄉1號,417,Shelly,Dodoro Camp,58.82352941176471,961台東縣成功鎮東河鄉都蘭村,28.57142857142857
1073,Shelly,星樂親子露營,36542苗栗縣泰安鄉68號,267,Shelly,水樂活親子農場,54.54545454545454,320桃園市中壢區福達路二段628號,44.44444444444444
1074,Shelly,南山傳奇露營區(自搭帳.露營車.狩獵帳),353苗栗縣南庄鄉大湳聯絡道路二,1077,Shelly,一片天露營區(自搭帳.狩獵帳),73.33333333333334,365苗栗縣泰安鄉4鄰69-1號,48.0
1075,Shelly,紅毛印象露營窩P1,35345苗栗縣南庄鄉五 鄰66 號紅 毛 館,332,Shelly,嚮露,50.0,844高雄市六龜區土壠149之10號,11.111111111111116
1076,Shelly,雲霧灣灣｜一泊四食懶人露營,364苗栗縣大湖鄉9號,928,Shelly,雲霧農場,66.66666666666667,336桃園市復興區色霧鬧10-21號,28.57142857142857
1077,Shelly,一片天露營區(自搭帳.狩獵帳),365苗栗縣泰安鄉4鄰69-1號,1074,Shelly,南山傳奇露營區(自搭帳.露營車.狩獵帳),73.33333333333334,353苗栗縣南庄鄉大湳聯絡道路二,48.0
1078,Shelly,逗點露營區,352苗栗縣三灣鄉內灣村龍峎頂5-17號,189,Shelly,星星點燈露營區,80.0,424台中市和平區Unnamed Road,9.090909090909093
1079,Shelly,河岸星空 露營地,353苗栗縣南庄鄉南江村小東河14鄰8-1號,1378,Eta,星空谷露營地,83.33333333333334,南投縣仁愛鄉中正村平等巷1號,29.629629629629626
1080,Shelly,寬闊露營區(狩獵帳),365苗栗縣泰安鄉,456,Shelly,晨光露營區(狩獵帳),88.88888888888889,60594嘉義縣阿里山鄉2鄰86號,35.29411764705882
1081,Shelly,苗栗自由露营區,366苗栗縣銅鑼鄉興隆村193號,603,Shelly,露樹露營區,50.0,262001宜蘭縣礁溪鄉白石腳路101號,28.57142857142857
1082,Shelly,四季非露不可親子露營區,36446苗栗縣大湖鄉,786,Shelly,四季露營區,75.0,No. 305-2號 No 五峰鄉新竹縣311,14.28571428571429
1083,Shelly,橘舍三食,369苗栗縣卓蘭鎮西坪路43-15號,321,Shelly,橘屋,66.66666666666667,712台南市新化區150號,37.5
1084,Shelly,請按照此導航路線：1.清安國小 2.藍天嶺露營區,365苗栗縣泰安鄉,299,Shelly,露舍營家露營區,60.0,845高雄市內門區,16.666666666666664
1085,Shelly,南庄麒麟山露營區,353苗栗縣南庄鄉小東河11號,433,Shelly,羅山露營區,88.88888888888889,983花蓮縣富里鄉,33.333333333333336
1086,Shelly,森日快樂露營區｜苗栗豪華露營｜苗栗懶人露營｜有分離式變頻冷暖氣的免搭帳露營｜苗栗親子營區｜戲水池｜滑草場｜GLAMPING,369苗栗縣卓蘭鎮36-29號,246,Shelly,迴山里 GLAMPING,80.0,23343新北市烏來區金堰115巷10之1號,22.22222222222222
1087,Shelly,裕見生活《懶人露營推薦》南庄親子露營｜免搭帳｜團體露營｜特色｜熱門｜好玩露營區,353苗栗縣南庄鄉東江38之12號,299,Shelly,露舍營家露營區,60.0,845高雄市內門區,18.181818181818176
1088,Shelly,叢林開始懶人露營區Glamping-苗栗店,362苗栗縣頭屋鄉仁隆87號,904,Shelly,叢林開始懶人露營區Glamping-桃園店,92.3076923076923,325桃園市龍潭區德湖街369號,33.333333333333336
1089,Shelly,坐忘草堂露營區,366苗栗縣銅鑼鄉盛隆5鄰45-20號,992,Shelly,蒝區,66.66666666666667,32659桃園市楊梅區幼獅路一段439號東南側,26.086956521739136
1090,Shelly,苗栗泰安目上景露營區,365苗栗縣泰安鄉,299,Shelly,露舍營家露營區,60.0,845高雄市內門區,16.666666666666664
1091,Shelly,司馬限雲端露營區,365苗栗縣泰安鄉司馬限5鄰20號,1625,Eta,司馬限山嵐,75.0,苗栗縣泰安鄉中興村,66.66666666666667
1092,Shelly,苗栗縣大湖鄉彩雲親子露營區,364苗栗縣大湖鄉7號,299,Shelly,露舍營家露營區,60.0,845高雄市內門區,16.666666666666664
1093,Shelly,桃樂絲露營區,363苗栗縣公館鄉尖山40號,77,Shelly,唯樂露營區,80.0,555南投縣魚池鄉協力巷11-6號,25.0
1094,Shelly,川夏野奢露營區,353苗栗縣南庄鄉福南17鄰50號,204,Shelly,原野露營區,80.0,424台中市和平區東關路三段2號,11.764705882352944
1095,Shelly,苗栗泰安 UP露營區,苗栗縣泰安鄉93之10,299,Shelly,露舍營家露營區,60.0,845高雄市內門區,0.0
1096,Shelly,露營區推薦-苗栗泰安覓境露營區,36541苗栗縣泰安鄉錦水村圓墩34-1號,299,Shelly,露舍營家露營區,60.0,845高雄市內門區,16.666666666666664
1097,Shelly,荒野半島露營區,362003苗栗縣頭屋鄉仁隆20鄰62號,281,Shelly,空島露營區,88.88888888888889,606中埔鄉三層村崎頭仔7號,31.57894736842105
1098,Shelly,漁光中露營區 Fisher Campground,369苗栗縣卓蘭鎮27-2號,522,Shelly,特富野露營區 Tfuya Campground,68.18181818181819,605嘉義縣阿里山鄉拉拉克斯部落聯絡道,19.999999999999996
1099,Shelly,赫利豐岳露營區,苗栗縣南庄鄉353,992,Shelly,蒝區,66.66666666666667,32659桃園市楊梅區幼獅路一段439號東南側,30.76923076923077
1100,Shelly,浮岸別境(Buan Byacing.)《住宿推薦》泰安豪華露營｜家庭露營｜寵物友善營區｜免搭帳｜懶人露營｜景點旅遊｜一卡皮箱入住,365苗栗縣泰安鄉梅興道路,994,Shelly,友善露營區,80.0,336桃園市復興區中心路160-7號,31.999999999999996
1101,Shelly,自然圈農場 LoFi Land｜生態美學｜親子遊程｜景觀咖啡｜戶外婚禮｜團體包場,369苗栗縣卓蘭鎮西坪36-20號,679,Shelly,士文自然休閒農場,61.53846153846154,942屏東縣春日鄉士文路52-2號,31.25
1102,Shelly,巴卡的天空(露營區．鄉村露營車．自搭帳．歐式料理．日式燒肉),353苗栗縣南庄鄉30-16號,1561,Eta,巴卡的天空,100.0,苗栗縣南庄鄉蓬萊村14大湳30-16號,57.14285714285714
1103,Shelly,紮營趣,36445苗栗縣大湖鄉大南村8鄰 大南勢34-1號,1008,Shelly,山棧水居-野人露營趣,80.0,972花蓮縣秀林鄉19-12號,33.333333333333336
1104,Shelly,司馬限360度景觀露營區,365苗栗縣泰安鄉,1624,Eta,司馬限360度景觀,100.0,苗栗縣泰安鄉中興村5鄰司馬限18之10號,80.0
1105,Shelly,《綠野雲仙》 露營區,365苗栗縣泰安鄉第5鄰高熊卡47之18號Kaohuing T'Ai-Wan,1598,Eta,綠野雲仙露營區,71.42857142857143,苗栗縣泰安鄉大興村,66.66666666666667
1106,Shelly,風露營,365苗栗縣泰安鄉馬那邦64號,144,Shelly,松風谷種苗休閒園區,40.0,424台中市和平區東關路一段台電巷122-20號,12.5
1107,Shelly,上巴爺爺露營區,36541苗栗縣泰安鄉橫龍山9鄰44號,1615,Eta,上巴爺爺露營區,100.0,苗栗縣泰安鄉錦水村,66.66666666666667
1108,Shelly,三號秘境露營區,苗栗縣三灣鄉16-2號,1128,Shelly,秘境露營區,100.0,353苗栗縣南庄鄉,53.333333333333336
1109,Shelly,微笑山丘露營區,364苗栗縣大湖鄉義和村和興22-5號,464,Shelly,吉恩典山丘露營區,83.33333333333334,608嘉義縣水上鄉三界埔段532-4地號,31.999999999999996
1110,Shelly,微時光露營園區,362苗栗縣頭屋鄉4鄰46-1號,695,Shelly,樂園露營區,66.66666666666667,929屏東縣琉球鄉復興路32-15號,45.45454545454546
1111,Shelly,古道秘境露營區,Unnamed Road 泰安鄉苗栗縣365,1128,Shelly,秘境露營區,100.0,353苗栗縣南庄鄉,40.0
1112,Shelly,水玉妮光GC《推薦露營區》苗栗熱門露營區｜親子露營區｜免搭帳｜法式小屋｜落羽松露營區｜場地租借｜戶外婚禮場地,369苗栗縣卓蘭鎮,603,Shelly,露樹露營區,60.0,262001宜蘭縣礁溪鄉白石腳路101號,23.529411764705888
1113,Shelly,星野天空露營區,苗栗縣泰安鄉小南角3鄰66之1號365,281,Shelly,空島露營區,88.88888888888889,606中埔鄉三層村崎頭仔7號,27.27272727272727
1114,Shelly,苗栗卓蘭鎮代觀山湖畔農場露營區,369003苗栗縣卓蘭鎮景山119-3號,299,Shelly,露舍營家露營區,60.0,845高雄市內門區,0.0
1115,Shelly,武嵐露營區,365苗栗縣泰安鄉10鄰橫龍山64之36號,1639,Eta,武嵐露營區,100.0,苗栗縣泰安鄉錦水村10鄰橫龍山64之36號,92.3076923076923
1116,Shelly,苗栗南庄金成露營渡假山莊,353苗栗縣南庄鄉東村東江2鄰26號,1359,Eta,森活家露營渡假山莊,80.0,南投縣草屯鎮雙冬里雙龍巷5之20號,20.68965517241379
1117,Shelly,逸視界,365苗栗縣泰安鄉3鄰63號,1655,Eta,逸視界露營區,100.0,苗栗縣泰安鄉大興村3鄰63號,88.0
1118,Shelly,放牛吃草露營區,365苗栗縣泰安鄉大興村高熊卡4鄰61-8號,992,Shelly,蒝區,66.66666666666667,32659桃園市楊梅區幼獅路一段439號東南側,23.809523809523814
1119,Shelly,鹿場青松露營區(本部),353苗栗縣南庄鄉鹿場聯絡道路24鄰 14-2號,443,Shelly,初鹿牧場,66.66666666666667,954台東縣卑南鄉牧場1號,41.666666666666664
1120,Shelly,瑪那邦之星-蟲蟲生態營地,36446苗栗縣大湖鄉,29,Shelly,龍泉營地,66.66666666666667,54550南投縣埔里鎮武界路28之10號,21.052631578947366
1121,Shelly,亞哇斯露營區,365苗栗縣泰安鄉八卦村3鄰53號,1661,Eta,亞哇斯露營區,100.0,苗栗縣泰安鄉八卦村3鄰53號,100.0
1122,Shelly,拍片場露營地,363苗栗縣公館鄉開礦2626 號,54,Shelly,滾石部落露營場地,60.0,544南投縣國姓鄉544,19.047619047619047
1123,Shelly,Coffee Industry｜Camp Sora露營區｜苗栗露營區｜露營區推薦,364苗栗縣大湖鄉竹橋20號1F,603,Shelly,露樹露營區,60.0,262001宜蘭縣礁溪鄉白石腳路101號,36.36363636363637
1124,Shelly,伊夕尚露營區,365苗栗縣泰安鄉,1656,Eta,伊夕尚露營區,100.0,苗栗縣泰安鄉,100.0
1125,Shelly,帆船村露營區,353苗栗縣南庄鄉,892,Shelly,梅村露營區,88.88888888888889,313新竹縣尖石鄉185號,44.44444444444444
1126,Shelly,馬嘟溪營地,365苗栗縣泰安鄉清安村洗水坑114之9號,1046,Shelly,荖溪營地,85.71428571428572,972花蓮縣秀林鄉,22.22222222222222
1127,Shelly,南庄慢生活 露營區,353苗栗縣南庄鄉4鄰72-3號,299,Shelly,露舍營家露營區,60.0,845高雄市內門區,18.181818181818176
1128,Shelly,秘境露營區,353苗栗縣南庄鄉,500,Shelly,林間秘境露營區,100.0,605嘉義縣阿里山鄉,35.29411764705882
1129,Shelly,夏綠地露營區,364苗栗縣大湖鄉,145,Shelly,綠大地露營區,90.9090909090909,42646台中市新社區上坪4-6號,30.76923076923077
1130,Shelly,寨酌然 野奢庄園 the Forest museum,369苗栗縣卓蘭鎮壢西坪43-20號,312,Shelly,綠野果園,50.0,731台南市後壁區,19.999999999999996
1131,Shelly,斷橋部落．輕奢露營,367003苗栗縣三義鄉,299,Shelly,露舍營家露營區,44.44444444444444,845高雄市內門區,0.0
1132,Shelly,有鬼露營區,苗栗縣南庄鄉鹿 場 部落 24 鄰 11 號,992,Shelly,蒝區,66.66666666666667,32659桃園市楊梅區幼獅路一段439號東南側,14.28571428571429
1133,Shelly,司馬限山嵐露營區,365苗栗縣泰安鄉,1625,Eta,司馬限山嵐,100.0,苗栗縣泰安鄉中興村,80.0
1134,Shelly,花石間景觀露營區｜苗栗泰安｜輕露營,365苗栗縣泰安鄉,603,Shelly,露樹露營區,60.0,262001宜蘭縣礁溪鄉白石腳路101號,22.22222222222222
1135,Shelly,巧遇露營區,363苗栗縣獅潭鄉八角坑34號,1610,Eta,巧遇露營區,100.0,苗栗縣獅潭鄉新豐村八角坑34號,88.88888888888889
1136,Shelly,水云山植物景觀休閒農場,365苗栗縣泰安鄉65號高熊卡,28,Shelly,春陽觀休閒農場,83.33333333333334,546南投縣仁愛鄉虎門巷135號,34.48275862068966
1137,Shelly,啊！露吧Camping聖地 (ChinUp Cafe),353苗栗縣南庄鄉35號紅毛館,316,Shelly,露悠悠Glamping,63.63636363636363,844高雄市六龜區尾庄55之2號,30.000000000000004
1138,Shelly,17 杉境露營休閒農場,苗栗縣獅潭鄉354 35438-1號,744,Shelly,星錡休閒農場,80.0,512彰化縣永靖鄉東畔路238之46號,31.25
1139,Shelly,自由之丘露營地,352苗栗縣三灣鄉龍峎頂6-2號,1045,Shelly,丘壑營地,75.0,982花蓮縣卓溪鄉,33.333333333333336
1140,Shelly,星原谷露營區,353004苗栗縣南庄鄉南江村里金館8鄰25號,1009,Shelly,鷹谷露營區,88.88888888888889,977花蓮縣豐濱鄉Unnamed Road,12.121212121212121
1141,Shelly,天晴野舍露營區,365苗栗縣泰安鄉Unnamed Road,204,Shelly,原野露營區,80.0,424台中市和平區東關路三段2號,0.0
1142,Shelly,苗栗大湖大南之美露營區,364苗栗縣大湖鄉57號,1566,Eta,大南之美露營區,100.0,苗栗縣大湖鄉,100.0
1143,Shelly,山居營地,365苗栗縣泰安鄉清安村洗水坑大坪部落,750,Shelly,青山營地,85.71428571428572,新北市坪林區48之1號,14.28571428571429
1144,Shelly,跳跳城堡,363苗栗縣公館鄉福星村福星7鄰227號,853,Shelly,移動城堡露營區,50.0,311新竹縣五峰鄉310-3號,25.0
1145,Shelly,苗栗筑林居露營區,364苗栗縣大湖鄉,992,Shelly,蒝區,66.66666666666667,32659桃園市楊梅區幼獅路一段439號東南側,33.333333333333336
1146,Shelly,山峰點伙露營區,357苗栗縣通霄鎮2鄰圳頭23之6號,1617,Eta,山峰點伙露營區,100.0,苗栗縣通霄鎮圳頭里2鄰圳頭23之6號,90.9090909090909
1147,Shelly,老官道休閒農場,364苗栗縣364 TW 苗栗縣 大湖鄉 新開村新開5鄰12-1號,525,Shelly,塘湖古道休閒農場,83.33333333333334,604嘉義縣竹崎鄉仁壽村福建坪5號,29.411764705882348
1148,Shelly,虹杉露營區,365苗栗縣泰安鄉大興村高熊卡4鄰57-5號,146,Shelly,森杉露營區,88.88888888888889,424台中市和平區東崎路一段桃山巷32號,14.814814814814813
1149,Shelly,天狗好地方露營區,36545苗栗縣泰安鄉4鄰天狗7之6號,1579,Eta,好地方露營區,100.0,苗栗縣泰安鄉梅園村4鄰天狗7之6號,90.32258064516128
1150,Shelly,小岔路露營區,354苗栗縣獅潭鄉和興39-1號,110,Shelly,小路露營區,88.88888888888889,426台中市新社區崑山里食水嵙6-2號,21.052631578947366
1151,Shelly,云仙谷休閒露營區,36541苗栗縣泰安鄉15號,1662,Eta,云仙谷休閒露營區,100.0,苗栗縣泰安鄉,100.0
1152,Shelly,鷂婆山露營區,365苗栗縣泰安鄉小南角2鄰6號,1651,Eta,耀婆山露營區,90.9090909090909,苗栗縣泰安鄉清安村小南角2鄰6號,89.65517241379311
1153,Shelly,松山露營區,369苗栗縣卓蘭鎮松山農路,52,Shelly,三乘山露營區,88.88888888888889,542南投縣草屯鎮三層巷50號,18.181818181818176
1154,Shelly,不遠山莊《推薦露營區》三義親子露營｜戶外婚禮露營區｜懶人免搭帳露營區｜豪華露營區｜員工旅遊露營區｜團體包場露營區｜露營器材租借,367苗栗縣三義鄉雙連潭道路9鄰199號,603,Shelly,露樹露營區,60.0,262001宜蘭縣礁溪鄉白石腳路101號,31.25
1155,Shelly,遊牧民族露營區,365苗栗縣泰安鄉大興村5鄰高熊卡47-6號,1650,Eta,遊牧民族露營區,100.0,苗栗縣泰安鄉大興村５鄰47之6號,75.0
1156,Shelly,逸山露營,35877苗栗縣苑裡鎮22-7號,24,Shelly,山福情森露營區,57.14285714285714,555南投縣魚池鄉華龍巷43-3號,30.000000000000004
1157,Shelly,小份美營地,352苗栗縣三灣鄉小份美20-1 號,211,Shelly,完美谷營地,75.0,424台中市和平區,16.666666666666664
1158,Shelly,高熊卡露營區,365苗栗縣泰安鄉,1577,Eta,高熊卡露營區,100.0,苗栗縣泰安鄉大興村,80.0
1159,Shelly,星空夜語露營地,357苗栗縣通霄鎮4鄰42號,1482,Eta,星空夜語,100.0,新竹縣五峰鄉,16.666666666666664
1160,Shelly,南庄山河苑露營區《露營區推薦》懶人露營｜免裝備｜免搭帳｜免設備｜熱門｜冷氣露營｜乾淨營區,353苗栗縣南庄鄉,287,Shelly,卧虎營區,66.66666666666667,72045台南市官田區南119鄉道南120鄉道南119鄉道南120鄉道,26.66666666666667
1161,Shelly,鄉町露營區,35242苗栗縣三灣鄉大銅鑼圈88號,86,Shelly,咿喲ㄟ故鄉露營區,88.88888888888889,545南投縣埔里鎮種瓜路126- 2號,25.0
1162,Shelly,苗栗泰安一線天露營區,365苗栗縣泰安鄉苗栗縣泰安鄉中興村中象道路3鄰,1663,Eta,一線天,100.0,苗栗縣泰安鄉中興村,100.0
1163,Shelly,南灣蹓蹓農埸,36541苗栗縣泰安鄉,1608,Eta,南灣蹓蹓,100.0,苗栗縣泰安鄉大興村,80.0
1164,Shelly,苗栗南庄 蘿菈松靜露營區,No. 22號 石壁 南庄鄉苗栗縣353,1594,Eta,蘿菈松靜露營區,100.0,苗栗縣南庄鄉東河村21鄰石壁22號,26.086956521739136
1165,Shelly,通霄三合院農庒｜苗栗露營區、三合院民宿,357苗栗縣通霄鎮,603,Shelly,露樹露營區,60.0,262001宜蘭縣礁溪鄉白石腳路101號,11.111111111111116
1166,Shelly,兩朵雲露營區,369苗栗縣卓蘭鎮西坪125之6號,823,Shelly,觀雲露營區,88.88888888888889,311新竹縣五峰鄉,26.66666666666667
1167,Shelly,撒萬露營區,35345苗栗縣南庄鄉大㓓14鄰30號,992,Shelly,蒝區,66.66666666666667,32659桃園市楊梅區幼獅路一段439號東南側,23.076923076923073
1168,Shelly,東耕露營地,369苗栗縣卓蘭鎮西坪里9鄰109-37號,674,Shelly,屏東三地門_德文獵人學校民宿露營區,50.0,901屏東縣三地門鄉德文村,21.052631578947366
1169,Shelly,藏雲露營一區,365苗栗縣泰安鄉,503,Shelly,天一露營區,66.66666666666667,604嘉義縣竹崎鄉光華村11鄰茄苳仔29號,33.333333333333336
1170,Shelly,333露營區｜camping,369苗栗縣卓蘭鎮雙連道路33之3號,1028,Shelly,Aki camping,77.77777777777779,972花蓮縣秀林鄉佳民98號,19.999999999999996
1171,Shelly,紫逸露營區,365苗栗縣泰安鄉麻 必皓 部落,1666,Eta,紫逸露營區,100.0,苗栗縣泰安鄉,100.0
1172,Shelly,花香果樂露營區,364苗栗縣大湖鄉水流東路1之19號,1582,Eta,花香果樂,100.0,苗栗縣大湖鄉水流東路1之19號,100.0
1173,Shelly,水與樹莊園（民宿、露營）,353苗栗縣南庄鄉18鄰9號,691,Shelly,華園露營民宿,50.0,945屏東縣牡丹鄉大梅路1之7號,35.71428571428571
1174,Shelly,雲想家露營區,367苗栗縣三義鄉36-8號,915,Shelly,夢想家園露營區,83.33333333333334,336桃園市復興區華陵里9鄰85號,35.29411764705882
1175,Shelly,KK露營區,365苗栗縣泰安鄉9之16號,844,Shelly,KT露營區,88.88888888888889,311新竹縣五峰鄉花園村8鄰167-1號,31.57894736842105
1176,Shelly,小白屋農園,369苗栗縣卓蘭鎮老庄17鄰147之15號,209,Shelly,何必館景觀小屋,57.14285714285714,424台中市和平區東關路一段裡冷巷1-7號,24.0
1177,Shelly,快樂露營區,365苗栗縣泰安鄉高熊卡4鄰60號,344,Shelly,月媽媽快樂露營區,100.0,845高雄市內門區木柵43號木柵教會隔壁,25.806451612903224
1178,Shelly,逢雲露營區,36545苗栗縣泰安鄉2鄰66-25號,1573,Eta,逢雲露營區,100.0,苗栗縣泰安鄉梅園村2鄰66-25號,90.32258064516128
1179,Shelly,禾森 Ichigo 露營區,36445苗栗縣大湖鄉,299,Shelly,露舍營家露營區,60.0,845高雄市內門區,28.57142857142857
1180,Shelly,開礦露營區,363苗栗縣公館鄉,1590,Eta,開礦露營區,100.0,苗栗縣公館鄉,100.0
1181,Shelly,吻吻露營區 Wen Wen Camping Area,353苗栗縣南庄鄉,1642,Eta,吻吻露營區,100.0,苗栗縣南庄鄉,100.0
1182,Shelly,逸境生態露營區,64343雲林縣林內鄉自強路1巷23之8號,74,Shelly,三生園生態露營區,83.33333333333334,558南投縣鹿谷鄉民生巷8-1號,33.333333333333336
1183,Shelly,夢遊仙境露營區（需預約）,64650雲林縣古坑鄉文淵路2巷,603,Shelly,露樹露營區,60.0,262001宜蘭縣礁溪鄉白石腳路101號,31.25
1184,Shelly,露上樟湖露營區,64646雲林縣古坑鄉石橋50之5號,798,Shelly,天湖露營區,88.88888888888889,311新竹縣五峰鄉,22.22222222222222
1185,Shelly,林家花園休閒露營區,643雲林縣林內鄉忠庒18-20號,593,Shelly,五葉松林休閒露營區,80.0,267宜蘭縣大同鄉泰雅路二段33巷31之1號,27.27272727272727
1186,Shelly,古坑伴山邀休閒農場露營區,64647雲林縣古坑鄉華南45號,299,Shelly,露舍營家露營區,60.0,845高雄市內門區,33.333333333333336
1187,Shelly,佳南美地露營區,64646雲林縣古坑鄉,841,Shelly,花湖美地露營區,83.33333333333334,311新竹縣五峰鄉花園村9鄰196號,19.999999999999996
1188,Shelly,九九莊園豪華懶人露營｜一泊三食｜莊園婚宴會館、企業活動場地 (預約制),640雲林縣斗六市十三南路65-1號,48,Shelly,山見懶人露營,66.66666666666667,555南投縣魚池鄉通文巷54號對面號,24.0
1189,Shelly,十三番生態農場露營區,640雲林縣斗六市,299,Shelly,露舍營家露營區,60.0,845高雄市內門區,26.66666666666667
1190,Shelly,椬梧滯洪池露營區(Free Campsite),653雲林縣口湖鄉,603,Shelly,露樹露營區,60.0,262001宜蘭縣礁溪鄉白石腳路101號,22.22222222222222
1191,Shelly,石壁休閒農場,646雲林縣古坑鄉,28,Shelly,春陽觀休閒農場,80.0,546南投縣仁愛鄉虎門巷135號,44.44444444444444
1192,Shelly,海口故事館 免費露營 園區,653雲林縣口湖鄉海豐路50-12號,695,Shelly,樂園露營區,60.0,929屏東縣琉球鄉復興路32-15號,38.70967741935484
1193,Shelly,杉林雲境,557南投縣竹山鎮安山路41-1號,1648,Eta,雲境露營區,66.66666666666667,苗栗縣泰安鄉大興村,22.22222222222222
1194,Shelly,仙夷農場,646雲林縣古坑鄉,0,Shelly,樂活森林農場,66.66666666666667,545南投縣埔里鎮桃米路55-1號,26.66666666666667
1195,Shelly,湖光山舍,646雲林縣古坑鄉1-12號,1215,Shelly,湖山水庫秘境露營區,66.66666666666667,557南投縣竹山鎮鯉行路,11.111111111111116
1196,Shelly,楓野民餐,646雲林縣古坑鄉號,683,Shelly,綠野遊蹤民宿露營區,50.0,906屏東縣高樹鄉義興路16之1號,31.57894736842105
1197,Shelly,十字關露營區,646雲林縣古坑鄉,992,Shelly,蒝區,66.66666666666667,32659桃園市楊梅區幼獅路一段439號東南側,16.666666666666664
1198,Shelly,華山童軍營地,646雲林縣古坑鄉華山41號,241,Shelly,格致童軍營地,80.0,111台北市士林區仰德大道四段75號,16.000000000000004
1199,Shelly,騰雲農莊露營區,544南投縣國姓鄉長石巷42號,1376,Eta,騰雲農莊,100.0,南投縣國姓鄉南港村,66.66666666666667
1200,Shelly,山中奇緣明山莊,檨 林 路 43 號 斗六市雲林縣640,447,Shelly,大武山莊,66.66666666666667,902屏東縣霧台鄉東川巷63號,21.052631578947366
1201,Shelly,馬蹄蛤露營場,653雲林縣口湖鄉,91,Shelly,馬沙露營區,60.0,544南投縣國姓鄉大長路616-1號,33.333333333333336
1202,Shelly,古坑5號莊園,646雲林縣古坑鄉號,134,Shelly,覓靜莊園,66.66666666666667,424台中市和平區東關路一段裡冷巷99號,18.181818181818176
1203,Shelly,松美莊園,631雲林縣大埤鄉,88,Shelly,遇見東平莊園,66.66666666666667,545南投縣埔里鎮覆金路21之1號,18.181818181818176
1204,Shelly,仙地露營度假村,646雲林縣古坑鄉桃源1之29號,476,Shelly,詩情花園度假村,60.0,606嘉義縣中埔鄉1號,40.0
1205,Shelly,雲淡風清營地,541南投縣中寮鄉瀧林巷81-8號,1106,Shelly,風露營,66.66666666666667,365苗栗縣泰安鄉馬那邦64號,25.0
1206,Shelly,星夜露營區,64650雲林縣古坑鄉朝陽路1之310號,957,Shelly,遠見之星露營區,88.88888888888889,336桃園市復興區中心路86 巷28 號,17.391304347826086
1207,Shelly,咖啡鄉 露營區,646雲林縣古坑鄉尖山坑路69號,680,Shelly,地穀倉咖啡露營區,83.33333333333334,921屏東縣泰武鄉老潭巷110號,22.22222222222222
1208,Shelly,深山林內生態農場,557南投縣竹山鎮大鞍里頂林路累藤巷6-66號,1544,Eta,桃蘆坑生態農場,72.72727272727273,桃園市蘆竹區山林路三段855-1號,35.29411764705882
1209,Shelly,夕霧山莊,646雲林縣古坑鄉華南村7 之 15 號,447,Shelly,大武山莊,66.66666666666667,902屏東縣霧台鄉東川巷63號,19.999999999999996
1210,Shelly,山思雲想,55770南投縣竹山鎮大林巷16-32號,921,Shelly,山雲海露營農場,66.66666666666667,336桃園市復興區中心路156號,27.27272727272727
1211,Shelly,大雪山觀山嶺露營區,423台中市東勢區東坑路978-7號,299,Shelly,露舍營家露營區,60.0,845高雄市內門區,33.333333333333336
1212,Shelly,楓寧翡翠咖啡莊園（籌備中）,646雲林縣古坑鄉神木對面,134,Shelly,覓靜莊園,50.0,424台中市和平區東關路一段裡冷巷99號,14.28571428571429
1213,Shelly,仙地咖啡/華山最高景點,646雲林縣古坑鄉桃源1之31號,680,Shelly,地穀倉咖啡露營區,50.0,921屏東縣泰武鄉老潭巷110號,37.03703703703704
1214,Shelly,翠林農場,555南投縣魚池鄉投69-3鄉道555號,0,Shelly,樂活森林農場,85.71428571428572,545南投縣埔里鎮桃米路55-1號,43.47826086956522
1215,Shelly,湖山水庫秘境露營區,557南投縣竹山鎮鯉行路,299,Shelly,露舍營家露營區,60.0,845高雄市內門區,19.999999999999996
1216,Shelly,日出藏雲,546022南投縣仁愛鄉親和巷42之3附3,1349,Eta,日出藏雲,100.0,南投縣仁愛鄉親愛村親和巷,75.0
1217,Shelly,半天岩梅王親子露營區,600嘉義縣番路鄉大華公路六段16.5,299,Shelly,露舍營家露營區,60.0,845高雄市內門區,19.999999999999996
1218,Shelly,楠林與露,558南投縣鹿谷鄉愛鄉路101-17號,332,Shelly,嚮露,66.66666666666667,844高雄市六龜區土壠149之10號,26.086956521739136
1219,Shelly,依星生態農場－南投 露營區｜免搭帳｜親子露營｜景觀露營｜推薦露營夜景｜高海拔露營 推薦,No. 1-1號 頂坑巷 中寮鄉南投縣541,603,Shelly,露樹露營區,60.0,262001宜蘭縣礁溪鄉白石腳路101號,21.42857142857143
1220,Shelly,喜樂福休閒露營區,54446南投縣國姓鄉北港村長北路95-20號,1365,Eta,喜樂福,100.0,南投縣國姓鄉北港村長北路95-20號,100.0
1221,Shelly,上山樂活露營區,557南投縣竹山鎮頂林路461號,1592,Eta,樂活露營區,100.0,苗栗縣公館鄉,16.666666666666664
1222,Shelly,雲野露營區,557南投縣竹山鎮中坑路318號,204,Shelly,原野露營區,88.88888888888889,424台中市和平區東關路三段2號,26.086956521739136
1223,Shelly,山湖水岸,557南投縣竹山鎮頂林路562之5號,82,Shelly,山水園露營農莊,66.66666666666667,544南投縣國姓鄉大長路117-1號,34.285714285714285
1224,Shelly,山林好蒔光露營區,546南投縣仁愛鄉高峰巷70附1號,1366,Eta,山林好蒔光,100.0,南投縣仁愛鄉高峰巷70附1號,100.0
1225,Shelly,國姓露營‧水秀農場,544南投縣國姓鄉長北路,218,Shelly,大棟農場,66.66666666666667,No. 1之7號 雪山路和平區台中市424,26.66666666666667
1226,Shelly,清境愛和華林園,546南投縣仁愛鄉榮光巷38附1號,265,Shelly,林園營地,66.66666666666667,232新北市坪林區號,26.66666666666667
1227,Shelly,廁所,648雲林縣西螺鎮建興路358號,555,Shelly,國榮製茶所,66.66666666666667,603嘉義縣梅山鄉龍眼林段3號附8號,34.78260869565217
1228,Shelly,秋之林自然生態園區,604嘉義縣竹崎鄉,695,Shelly,樂園露營區,57.14285714285714,929屏東縣琉球鄉復興路32-15號,22.22222222222222
1229,Shelly,瑞里幼葉林露營區,603嘉義縣梅山鄉幼葉林3鄰69號,111,Shelly,九甲林露營區,80.0,422台中市石岡區萬仙街岡仙巷7-1號請先搜尋五福臨門神木,7.14285714285714
1230,Shelly,芳秀露營區,603嘉義縣梅山鄉圳北村麻園寮5鄰23-6號,992,Shelly,蒝區,66.66666666666667,32659桃園市楊梅區幼獅路一段439號東南側,24.0
1231,Shelly,賣一天民宿露營區,646雲林縣古坑鄉80號,423,Shelly,原宿露營區,88.88888888888889,963台東縣太麻里鄉963,27.27272727272727
1232,Shelly,露營樂2號店(狩獵帳),80545高雄市旗津區旗津三路51號,791,Shelly,露營樂3號店(狩獵帳)新竹尖石臻美館,90.9090909090909,313新竹縣尖石鄉36-2號,25.0
1233,Shelly,內門瑞山樂活田莊露營區,845高雄市內門區田子墘2 號,1297,Shelly,瑞山樂活田莊民宿區,77.77777777777779,845高雄市內門區,100.0
1234,Shelly,田子路貳之壹露營區,845高雄市內門區,299,Shelly,露舍營家露營區,60.0,845高雄市內門區,100.0
1235,Shelly,那次嵐露營區,849高雄市那瑪夏區,1115,Shelly,武嵐露營區,88.88888888888889,365苗栗縣泰安鄉10鄰橫龍山64之36號,13.33333333333333
1236,Shelly,六龜新發麒麟露營區,844高雄市六龜區獅山15之20號,299,Shelly,露舍營家露營區,60.0,845高雄市內門區,66.66666666666667
1237,Shelly,桃源溪露營區,848高雄市桃源區205號,1635,Eta,桃花源,80.0,苗栗縣卓蘭鎮坪林里8鄰98號,33.333333333333336
1238,Shelly,彩虹森林快樂農場露營區,844高雄市六龜區和平路290 號,1675,Eta,彩虹森林露營區,72.72727272727273,高雄市六龜區和平路290號,92.3076923076923
1239,Shelly,輕風椰林,No. 70 三民路六龜區高雄市844,1106,Shelly,風露營,40.0,365苗栗縣泰安鄉馬那邦64號,12.5
1240,Shelly,六龜快樂熊露營區,844004高雄市六龜區裕濃路1之7號,1672,Eta,快樂熊露營區,100.0,高雄市六龜區裕濃路1之7號,100.0
1241,Shelly,野獸休閒基地,844高雄市六龜區和平路151-16號,1677,Eta,野獸休閒基地,100.0,高雄市六龜區和平路151-16號,100.0
1242,Shelly,飄漂生態農場/親子露營區,843高雄市美濃區獅山街73之8號美濃三聖堂旁,299,Shelly,露舍營家露營區,60.0,845高雄市內門區,66.66666666666667
1243,Shelly,情人谷休閒營地,高雄市茂林區68號15,42,Shelly,森露快樂休閒營地,72.72727272727273,555南投縣魚池鄉平和巷10號,16.666666666666664
1244,Shelly,美圳露營區,843高雄市美濃區中正路二段58巷39號,787,Shelly,蘇珊藏美露營區,88.88888888888889,311新竹縣五峰鄉17 鄰296-28 號,17.391304347826086
1245,Shelly,六龜童趣休憩露營區,844高雄市六龜區光明巷40號,299,Shelly,露舍營家露營區,60.0,845高雄市內門區,66.66666666666667
1246,Shelly,鳳之凰露營區,848高雄市桃源區15-12號,1669,Eta,鳳之凰露營區,100.0,高雄市桃源區15-12號,100.0
1247,Shelly,愛琴海岸海景渡假農場-露營區、車泊（露）,827高雄市彌陀區新庄路1-268號,603,Shelly,露樹露營區,60.0,262001宜蘭縣礁溪鄉白石腳路101號,26.086956521739136
1248,Shelly,高雄茂林_萬山寨休閒露營區,851高雄市茂林區萬山里,299,Shelly,露舍營家露營區,60.0,845高雄市內門區,66.66666666666667
1249,Shelly,高雄同學農場-露營區,843高雄市美濃區吉洋里外六寮500號,299,Shelly,露舍營家露營區,60.0,845高雄市內門區,66.66666666666667
1250,Shelly,雅悠露營區,849高雄市那瑪夏區平和巷209之10號,140,Shelly,樂悠悠露營區,88.88888888888889,台中市和平區42415鄰73號東關路一段里冷巷,28.57142857142857
1251,Shelly,家營農場露營區,844高雄市六龜區裕濃路81巷25-36號,31,Shelly,大衛營露營農場,60.0,542南投縣草屯鎮富德街66巷75號,26.086956521739136
1252,Shelly,貴梅露營區（A區）,849高雄市那瑪夏區23.250880120號,913,Shelly,好馨勤齊露營（區）,71.42857142857143,336桃園市復興區羅馬公路57K處號,22.22222222222222
1253,Shelly,高雄茂林_春天生態農場,851高雄市茂林區萬山里萬山巷38-20號,1544,Eta,桃蘆坑生態農場,72.72727272727273,桃園市蘆竹區山林路三段855-1號,36.36363636363637
1254,Shelly,藤枝好望角露營區,848高雄市桃源區732 號,1670,Eta,好望角,100.0,高雄市桃源區,100.0
1255,Shelly,露碼LOMAH休閒營區,高雄市桃源區15-9號,53,Shelly,合興休閒營區,80.0,555南投縣魚池鄉華龍巷73-1號,30.76923076923077
1256,Shelly,大樂休閒農場,84049高雄市大樹區統嶺路62-19號,28,Shelly,春陽觀休閒農場,80.0,546南投縣仁愛鄉虎門巷135號,27.27272727272727
1257,Shelly,一山沐露營區,851高雄市茂林區,87,Shelly,沐晨露營區,88.88888888888889,544002南投縣國姓鄉長豐村東一巷51-8號,28.57142857142857
1258,Shelly,和風休閒露營區,848高雄市桃源區南橫公路三段300號,1106,Shelly,風露營,66.66666666666667,365苗栗縣泰安鄉馬那邦64號,21.052631578947366
1259,Shelly,萬山仙境露營區--達魯瑪納,85141高雄市茂林區茂林巷39之66號,603,Shelly,露樹露營區,60.0,262001宜蘭縣礁溪鄉白石腳路101號,25.0
1260,Shelly,南屏山露營區,842高雄市旗山區中寮二路49之2號,433,Shelly,羅山露營區,88.88888888888889,983花蓮縣富里鄉,19.999999999999996
1261,Shelly,遠山望月 花旗木林草坪露營區,844高雄市六龜區,299,Shelly,露舍營家露營區,60.0,845高雄市內門區,66.66666666666667
1262,Shelly,依山山露營區,844高雄市六龜區新開路110號,433,Shelly,羅山露營區,88.88888888888889,983花蓮縣富里鄉,19.999999999999996
1263,Shelly,Daluhan 露營,848高雄市桃源區,377,Shelly,82遶灣 Pa’alawan露營區,63.1578947368421,962台東縣長濱鄉真柄四鄰,0.0
1264,Shelly,豐林農場露營區,高雄市桃源區848,0,Shelly,樂活森林農場,60.0,545南投縣埔里鎮桃米路55-1號,18.181818181818176
1265,Shelly,橙月緣 露營區,844高雄市六龜區荖濃溪林道,1667,Eta,晨月緣露營區,83.33333333333334,高雄市桃源區寶山巷98-8號,40.0
1266,Shelly,山水炎親子露營區,844高雄市六龜區尾庄路55-2號,896,Shelly,美腿山親子露營區,85.71428571428572,336桃園市復興區11鄰75號,29.629629629629626
1267,Shelly,福濃,844高雄市六龜區裕濃路81巷12之30號,132,Shelly,福壽山農場露營區,66.66666666666667,424台中市和平區福壽路29號,37.03703703703704
1268,Shelly,樂暢園,844高雄市六龜區復興巷37-21號,197,Shelly,濱海樂園,80.0,439台中市大安區大安港海堤,26.086956521739136
1269,Shelly,蕭窯鋕寨,824高雄市燕巢區泥火山附近,871,Shelly,高山寨露營區,28.57142857142857,311新竹縣五峰鄉上比來道路,0.0
1270,Shelly,玳菈Daiza,848高雄市桃源區建山巷15-10號,279,Shelly,"關子嶺- 一家園農場露營區 Camping House, Guanziling, Tainan",50.0,732台南市白河區98-1號 98-1號,36.36363636363637
1271,Shelly,民權大橋露營區,849高雄市那瑪夏區台29線,1303,Shelly,紅橋露營區,88.88888888888889,848高雄市桃源區梅山巷18號,52.17391304347826
1272,Shelly,梅山露營區,848高雄市桃源區南部橫貫公路,52,Shelly,三乘山露營區,88.88888888888889,542南投縣草屯鎮三層巷50號,21.052631578947366
1273,Shelly,麥的莊園露營區,849高雄市那瑪夏區,695,Shelly,樂園露營區,88.88888888888889,929屏東縣琉球鄉復興路32-15號,18.181818181818176
1274,Shelly,嘻嘎嘎休閒露營,849高雄市那瑪夏區平和巷126號,61,Shelly,仙聞休閒露營區,72.72727272727273,555南投縣魚池鄉華龍巷73號,19.999999999999996
1275,Shelly,麗湖探索教育園區,842高雄市旗山區旗亭巷500弄99號,695,Shelly,樂園露營區,57.14285714285714,929屏東縣琉球鄉復興路32-15號,28.57142857142857
1276,Shelly,露舍營家入口,845高雄市內門區華園3912號,299,Shelly,露舍營家露營區,80.0,845高雄市內門區,100.0
1277,Shelly,拉比尼亞露營山莊,849高雄市那瑪夏區平和巷209之1號,908,Shelly,比亞山露營區,66.66666666666667,336桃園市復興區,22.22222222222222
1278,Shelly,草地人溫泉露營區,844高雄市六龜區844,413,Shelly,樂山溫泉露營區,83.33333333333334,954台東縣卑南鄉龍泉路113巷29號,13.33333333333333
1279,Shelly,大樹忘憂園（棒山）,840高雄市大樹區三和路,543,Shelly,大白樹旅行村,50.0,604嘉義縣竹崎鄉22號,14.28571428571429
1280,Shelly,迪哈您露營區,848高雄市桃源區寶山巷98-3號,457,Shelly,來灣哈露營區,80.0,605嘉義縣阿里山鄉四鄰125-1號,22.22222222222222
1281,Shelly,渡露灣的家,851高雄市茂林區,155,Shelly,照哥的家,66.66666666666667,424台中市和平區東關路一段裡冷巷86號,22.22222222222222
1282,Shelly,高雄茂林達魯瑪娜露營區,844高雄市六龜區獅山15之20號,299,Shelly,露舍營家露營區,60.0,845高雄市內門區,66.66666666666667
1283,Shelly,烏啦露營區,851高雄市茂林區茂林巷15之65號,992,Shelly,蒝區,66.66666666666667,32659桃園市楊梅區幼獅路一段439號東南側,22.22222222222222
1284,Shelly,山水炎民宿露營區,844高雄市六龜區尾庒路55-2號,423,Shelly,原宿露營區,88.88888888888889,963台東縣太麻里鄉963,0.0
1285,Shelly,集頂山莊園咖啡,848高雄市桃源區寶山巷101號,419,Shelly,石山園,66.66666666666667,953台東縣延平鄉,0.0
1286,Shelly,烏巴克藝術空間,高雄市茂林區茂林巷116號,1015,Shelly,利巴哈克露營區,40.0,972花蓮縣秀林鄉192之21號,36.36363636363637
1287,Shelly,內門小田園露營區,845高雄市內門區,695,Shelly,樂園露營區,88.88888888888889,929屏東縣琉球鄉復興路32-15號,18.181818181818176
1288,Shelly,東長老露營區,845高雄市內門區內興集貨場號,886,Shelly,老牛露營區,88.88888888888889,新竹縣五峰鄉18 鄰 312-3 號,15.384615384615385
1289,Shelly,文家果園,848高雄市桃源區寶山里,1676,Eta,文家果園,100.0,高雄市桃源區,100.0
1290,Shelly,蝴蝶谷秘境露營區,849高雄市那瑪夏區,1128,Shelly,秘境露營區,100.0,353苗栗縣南庄鄉,0.0
1291,Shelly,代天宮露營區,827高雄市彌陀區,503,Shelly,天一露營區,80.0,604嘉義縣竹崎鄉光華村11鄰茄苳仔29號,16.666666666666664
1292,Shelly,隱君子的撒野,820高雄市岡山區三和里菜寮路2-26號,1541,Eta,松野,66.66666666666667,桃園市復興區10-16號,37.5
1293,Shelly,土由上園,840高雄市大樹區和山路40號,591,Shelly,夢土上Glamping,57.14285714285714,262宜蘭縣礁溪鄉二結路8之2號,21.052631578947366
1294,Shelly,陳家茶園露營區,849高雄市那瑪夏區青山巷40號,695,Shelly,樂園露營區,88.88888888888889,929屏東縣琉球鄉復興路32-15號,12.5
1295,Shelly,小長城露營區 - 高雄 茂林 專業露營區推薦 熱門營地首選 搭帳露營 親子家庭避暑好評 露營車旅行評價 人氣打卡網紅景點 網友推薦高CP值露天搭帳 秘境高山雲海 雲瀑 流星星海 健行步道 車宿 近多納吊橋 蛇頭山,851高雄市茂林區132縣10公里處,67,Shelly,採茶媽媽景觀露營區 - 南投露營區推薦 仁愛鄉露營區推薦 高山營地露營首選 包區 搭帳露營 親子家庭避暑好評 雨棚露營評價 網友推薦高CP值露天搭帳 高海拔 秘境 雲海 雲瀑 流星星海 原始林健行步道,69.43005181347151,546南投縣仁愛鄉高峰巷70附5號,19.047619047619047
1296,Shelly,牛食坑生態露營區,815高雄市大社區食坑巷19-8號,1182,Shelly,逸境生態露營區,83.33333333333334,64343雲林縣林內鄉自強路1巷23之8號,33.333333333333336
1297,Shelly,瑞山樂活田莊民宿區,845高雄市內門區,423,Shelly,原宿露營區,57.14285714285714,963台東縣太麻里鄉963,0.0
1298,Shelly,太陽回首的地方,848005高雄市桃源區寶山巷9-9號,1579,Eta,好地方露營區,50.0,苗栗縣泰安鄉梅園村4鄰天狗7之6號,11.111111111111116
1299,Shelly,挪亞方舟露營區,844高雄市六龜區和平路130之5號,450,Shelly,諾亞方舟露營區,92.3076923076923,923屏東縣萬巒鄉東興路58之3號,27.27272727272727
1300,Shelly,春日露營,844高雄市六龜區三民路103-16號,13,Shelly,日月潭 九蛙秘境露營區,57.14285714285714,555南投縣魚池鄉中山路510巷9之22號日月潭,25.0
1301,Shelly,美濃熊咖啡農場,843高雄市美濃區成功路460巷1 號,218,Shelly,大棟農場,66.66666666666667,No. 1之7號 雪山路和平區台中市424,18.181818181818176
1302,Shelly,雄工濕地,807高雄市三民區建工路419號,1021,Shelly,吉米雄露營地,50.0,978花蓮縣瑞穗鄉興鶴路一段42號,27.27272727272727
1303,Shelly,紅橋露營區,848高雄市桃源區梅山巷18號,949,Shelly,和平橋露營區,88.88888888888889,336桃園市復興區上宇內道路,17.391304347826086
1304,Shelly,東九道露營區,842高雄市旗山區南寮巷2-18號,153,Shelly,后豐鐵馬道露營區,80.0,420台中市豐原區朴子街323巷13號,35.29411764705882
1305,Shelly,野營點無水，林相美可遮陽,845高雄市內門區,338,Shelly,野營點無水，有樹遮陽,75.0,712台南市新化區,30.76923076923077
1306,Shelly,藤枝製茶露營區,848高雄市桃源區寶山巷98 之 10 號,397,Shelly,武茶露營區,88.88888888888889,957台東縣海端鄉中福路一鄰18之3號,28.57142857142857
1307,Shelly,大寮山,846高雄市杉林區,335,Shelly,大山拾光休閒莊園,80.0,844高雄市六龜區和平路130-35號,66.66666666666667
1308,Shelly,烏材林覓境營地,814高雄市仁武區林森巷105號,29,Shelly,龍泉營地,66.66666666666667,54550南投縣埔里鎮武界路28之10號,38.095238095238095
1309,Shelly,勤和休閒營區,848高雄市桃源區南橫公路三段201-5號,53,Shelly,合興休閒營區,80.0,555南投縣魚池鄉華龍巷73-1號,21.052631578947366
1310,Eta,阿里曼山莊,南投縣信義鄉,459,Shelly,阿里山草堂露營渡假村(露營樂9號店),75.0,60245嘉義縣番路鄉茶科 159甲線道26k,33.333333333333336
1311,Eta,邊界,南投縣水里鄉新南路,613,Shelly,睡海邊,66.66666666666667,270宜蘭縣蘇澳鎮東澳路101巷19號,22.22222222222222
1312,Eta,本之山露營區,南投縣中寮鄉,433,Shelly,羅山露營區,88.88888888888889,983花蓮縣富里鄉,40.0
1313,Eta,蹦米香三合院露營區,南投縣魚池鄉水尾巷4-2號,299,Shelly,露舍營家露營區,60.0,845高雄市內門區,15.384615384615385
1314,Eta,伴天聊露營地,南投縣仁愛鄉山林巷,26,Shelly,伴天聊露營區,90.9090909090909,546南投縣仁愛鄉山林巷18附1號,100.0
1315,Eta,白雲朵朵,南投縣鹿谷鄉凍頂巷32之18號,706,Shelly,白沙露營區,40.0,946屏東縣恆春鎮樹林路3之6號,31.57894736842105
1316,Eta,蔽月山房,南投縣埔里鎮水上巷8號,1490,Eta,星月橫山,57.14285714285714,新竹縣橫山鄉頭份林1-8號,30.76923076923077
1317,Eta,潺潺森活,南投縣中寮鄉,1359,Eta,森活家露營渡假山莊,66.66666666666667,南投縣草屯鎮雙冬里雙龍巷5之20號,66.66666666666667
1318,Eta,麒麟岩臼苑,南投縣埔里鎮武界路7-1號,367,Shelly,麒麟部落露營區,57.14285714285714,961台東縣成功鎮麒麟路52-6號,40.0
1319,Eta,清翠露營區,南投縣仁愛鄉信義巷38附2號,963,Shelly,清清露營區,88.88888888888889,336桃園市復興區207-4、,16.666666666666664
1320,Eta,宸羽坊衫,南投縣埔里鎮桃米路12-15號,961,Shelly,蝶木窩露營休閒坊,40.0,336桃園市復興區羅浮里4鄰羅浮92號,26.086956521739136
1321,Eta,大塊森林,南投縣仁愛鄉新生村山林巷,805,Shelly,森林遇,80.0,313新竹縣尖石鄉號,25.0
1322,Eta,鳳凰山日出湖秘密基地,南投縣鹿谷鄉鳳凰村鳳園路88-50號,43,Shelly,鳳凰山日出湖秘密基地露營區,100.0,558南投縣鹿谷鄉鳳園路88之50號,84.84848484848484
1323,Eta,峰芢苑露營區,南投縣魚池鄉永川巷25之6號,102,Shelly,峰芢苑露營區,100.0,555南投縣魚池鄉永川巷25之6號,100.0
1324,Eta,高峰農場,南投縣國姓鄉南港村長石巷42-9號,33,Shelly,高峰農場露營區,100.0,544南投縣國姓鄉長石巷42-9號,90.32258064516128
1325,Eta,小豬迷露,南投縣國姓鄉南港村港頭巷,1641,Eta,泰安王子小豬仔露營區,75.0,苗栗縣泰安鄉大興村,33.333333333333336
1326,Eta,亨宿露營區,南投縣鹿谷鄉光復路8之60號,423,Shelly,原宿露營區,88.88888888888889,963台東縣太麻里鄉963,24.0
1327,Eta,幸埔森農場,南投縣埔里鎮,0,Shelly,樂活森林農場,66.66666666666667,545南投縣埔里鎮桃米路55-1號,100.0
1328,Eta,合興休閒露營區,南投縣魚池鄉五城村華龍巷73-1號,53,Shelly,合興休閒營區,83.33333333333334,555南投縣魚池鄉華龍巷73-1號,90.32258064516128
1329,Eta,迦南之地,南投縣仁愛鄉投71鄉道34號,90,Shelly,迦南之地露營區,100.0,546南投縣仁愛鄉投71鄉道34號,100.0
1330,Eta,金青松露營區,南投縣國姓鄉北港村北圳巷26-3號,147,Shelly,松嶺露營區,88.88888888888889,424台中市和平區Unnamed Road,10.526315789473683
1331,Eta,九份二山連興露營區,南投縣國姓鄉鳳鳴巷18之2號,81,Shelly,九份二山連興露營區,100.0,544南投縣國姓鄉鳳鳴巷39-6號,71.42857142857143
1332,Eta,樟湖山居民宿露營區,南投縣國姓鄉港頭巷10-8號,299,Shelly,露舍營家露營區,60.0,845高雄市內門區,18.181818181818176
1333,Eta,集元果觀光工廠露營區,南投縣集集鎮富山里大坪巷38號,299,Shelly,露舍營家露營區,60.0,845高雄市內門區,18.181818181818176
1334,Eta,中原秘境,南投縣仁愛鄉,1128,Shelly,秘境露營區,66.66666666666667,353苗栗縣南庄鄉,44.44444444444444
1335,Eta,快樂中原,南投縣仁愛鄉互助村原名路43附7號,1177,Shelly,快樂露營區,66.66666666666667,365苗栗縣泰安鄉高熊卡4鄰60號,27.586206896551722
1336,Eta,龍品園,南投縣魚池鄉,22,Shelly,武界雲夢茗園,50.0,546南投縣仁愛鄉茶園巷1之1號,66.66666666666667
1337,Eta,露宿,南投縣埔里鎮,1030,Shelly,山風露宿,100.0,97943花蓮縣萬榮鄉219號,16.666666666666664
1338,Eta,綠野森林農場露營區,南投縣埔里鎮西安路一段550巷,100,Shelly,綠野森林農場室內營位屋 露營區,80.0,545南投縣埔里鎮西安路一段550巷12-1號,100.0
1339,Eta,夢谷伊優達雅露營區,南投縣仁愛鄉松原巷,101,Shelly,夢谷伊優達雅露營區,100.0,546南投縣仁愛鄉信義巷,77.77777777777779
1340,Eta,玫花露露營區,南投縣埔里鎮東峰路18號,99,Shelly,玫花露露營區,100.0,545南投縣埔里鎮東峰路18號,100.0
1341,Eta,慕名而來,南投縣中寮鄉,1604,Eta,慕木露營區,40.0,苗栗縣南庄鄉,44.44444444444444
1342,Eta,陌上冬梅露營區,南投縣信義鄉明德村新開巷11之9號,892,Shelly,梅村露營區,88.88888888888889,313新竹縣尖石鄉185號,33.333333333333336
1343,Eta,滿天馨露營區,南投縣仁愛鄉山農巷,503,Shelly,天一露營區,80.0,604嘉義縣竹崎鄉光華村11鄰茄苳仔29號,22.22222222222222
1344,Eta,非比露營區,南投縣仁愛鄉高峰巷70號,967,Shelly,雅比斯露營區,80.0,336桃園市復興區華陵里9鄰69號,15.384615384615385
1345,Eta,埔里聽瀑森林營地,南投縣埔里鎮武界路33-8號,265,Shelly,林園營地,85.71428571428572,232新北市坪林區號,28.57142857142857
1346,Eta,波尼亞灣,南投縣魚池鄉銃櫃巷18號,507,Shelly,山波Δ露營,33.333333333333336,605嘉義縣阿里山鄉124號,38.095238095238095
1347,Eta,青綠園,南投縣魚池鄉五城村五城巷11-22號,63,Shelly,青綠園露營區,100.0,555南投縣魚池鄉五城巷11-22號,90.9090909090909
1348,Eta,廬山日記,南投縣仁愛鄉榮華巷153號,43,Shelly,鳳凰山日出湖秘密基地露營區,50.0,558南投縣鹿谷鄉鳳園路88之50號,38.46153846153846
1349,Eta,日出藏雲,南投縣仁愛鄉親愛村親和巷,1216,Shelly,日出藏雲,100.0,546022南投縣仁愛鄉親和巷42之3附3,75.0
1350,Eta,入森林. 露森林,南投縣魚池鄉共和村五馬巷2-30號,1352,Eta,露野森林,85.71428571428572,南投縣仁愛鄉虎門巷,53.333333333333336
1351,Eta,綠舍潭果露營區,南投縣埔里鎮蜈蚣里鯉魚路32號,306,Shelly,芒果香露營區,80.0,714台南市玉井區714,15.384615384615385
1352,Eta,露野森林,南投縣仁愛鄉虎門巷,19,Shelly,露野森林SNUWING,100.0,546南投縣仁愛鄉,80.0
1353,Eta,沙八渡假村,南投縣國姓鄉北港村北原路34-1號,416,Shelly,東遊季溫泉渡假村,75.0,954台東縣卑南鄉溫泉路376巷18號,41.379310344827594
1354,Eta,溪寶梅園,南投縣仁愛鄉明月巷95-1號,348,Shelly,梅園野營秘境,66.66666666666667,848高雄市桃源區梅山巷,11.111111111111116
1355,Eta,香茶樹,南投縣魚池鄉華龍巷,304,Shelly,梅嶺青青河畔茶樹露營區,66.66666666666667,715台南市楠西區灣丘里梅嶺,14.28571428571429
1356,Eta,森德磊安,南投縣仁愛鄉清風路,146,Shelly,森杉露營區,40.0,424台中市和平區東崎路一段桃山巷32號,11.111111111111116
1357,Eta,石方緣,南投縣信義鄉開信巷1-1號,8,Shelly,緣溪行森林營地,50.0,545南投縣埔里鎮乾溪景觀橋545號,31.57894736842105
1358,Eta,四心小草,南投縣魚池鄉五城村華龍巷41-8號,1374,Eta,田心小營地,57.14285714285714,南投縣仁愛鄉,66.66666666666667
1359,Eta,森活家露營渡假山莊,南投縣草屯鎮雙冬里雙龍巷5之20號,1116,Shelly,苗栗南庄金成露營渡假山莊,80.0,353苗栗縣南庄鄉東村東江2鄰26號,20.68965517241379
1360,Eta,森之境露營區,南投縣國姓鄉南港二號,4,Shelly,新境露營區,88.88888888888889,544南投縣國姓鄉長北路70之1號,63.1578947368421
1361,Eta,舒谷露營區,南投縣仁愛鄉,60,Shelly,舒谷SuKu 農場,57.14285714285714,546南投縣仁愛鄉,100.0
1362,Eta,樹樂露營區,南投縣魚池鄉共和村五馬巷5之1號,5,Shelly,暮雲春樹露營區,88.88888888888889,545南投縣埔里鎮種瓜路33-3號,27.27272727272727
1363,Eta,161森林,南投縣仁愛鄉原名路66附5號,805,Shelly,森林遇,80.0,313新竹縣尖石鄉號,25.0
1364,Eta,森露其境渡假村,南投縣埔里鎮種瓜路33-15號,1353,Eta,沙八渡假村,75.0,南投縣國姓鄉北港村北原路34-1號,47.61904761904761
1365,Eta,喜樂福,南投縣國姓鄉北港村長北路95-20號,1220,Shelly,喜樂福休閒露營區,100.0,54446南投縣國姓鄉北港村長北路95-20號,100.0
1366,Eta,山林好蒔光,南投縣仁愛鄉高峰巷70附1號,1224,Shelly,山林好蒔光露營區,100.0,546南投縣仁愛鄉高峰巷70附1號,100.0
1367,Eta,森露快樂,南投縣魚池鄉平和巷10號,42,Shelly,森露快樂休閒營地,100.0,555南投縣魚池鄉平和巷10號,100.0
1368,Eta,山林曉境露營區,南投縣國姓鄉南港2號,4,Shelly,新境露營區,88.88888888888889,544南投縣國姓鄉長北路70之1號,63.1578947368421
1369,Eta,星夢露營區,南投縣埔里鎮福長路12巷75號,957,Shelly,遠見之星露營區,88.88888888888889,336桃園市復興區中心路86 巷28 號,25.0
1370,Eta,梢楠林民宿露營區,南投縣魚池鄕,423,Shelly,原宿露營區,88.88888888888889,963台東縣太麻里鄉963,16.666666666666664
1371,Eta,史努櫻多肉果園,南投縣仁愛鄉虎門巷61-3號,312,Shelly,綠野果園,66.66666666666667,731台南市後壁區,19.999999999999996
1372,Eta,仙聞露營區,南投縣魚池鄉五城村華龍巷73號,61,Shelly,仙聞休閒露營區,75.0,555南投縣魚池鄉華龍巷73號,88.88888888888889
1373,Eta,採茶媽媽露營區,南投縣仁愛鄉,36,Shelly,採茶媽媽景觀茶園雨棚區 - 南投露營區推薦 仁愛鄉露營區推薦 高山營地露營首選 包區 搭帳露營 親子家庭避暑好評 雨棚露營評價 網友推薦高CP值露天搭帳 高海拔 秘境 雲海 雲瀑 流星星海 原始林健行步道,72.72727272727273,546南投縣仁愛鄉,100.0
1374,Eta,田心小營地,南投縣仁愛鄉,1157,Shelly,小份美營地,75.0,352苗栗縣三灣鄉小份美20-1 號,33.333333333333336
1375,Eta,童心園,南投縣埔里鎮中成路13之2號,1658,Eta,云心園,80.0,苗栗縣泰安鄉,22.22222222222222
1376,Eta,騰雲農莊,南投縣國姓鄉南港村,1199,Shelly,騰雲農莊露營區,100.0,544南投縣國姓鄉長石巷42號,66.66666666666667
1377,Eta,W.H窩,南投縣鹿谷鄉中正路三段686巷,92,Shelly,W.H窩露營區,100.0,55812南投縣鹿谷鄉中正路三段686巷21號55812,100.0
1378,Eta,星空谷露營地,南投縣仁愛鄉中正村平等巷1號,361,Shelly,曉晴星空露營地,90.9090909090909,962台東縣長濱鄉成靜公路,21.052631578947366
1379,Eta,雲的嘉露營區,南投縣國姓鄉南港二號,57,Shelly,雲的嘉露營區,100.0,54448南投縣國姓鄉南港二號橋,100.0
1380,Eta,遇見東平莊園,南投縣埔里鎮覆金路21-1號,88,Shelly,遇見東平莊園,100.0,545南投縣埔里鎮覆金路21之1號,92.85714285714286
1381,Eta,漾嵐山庄,南投縣國姓鄉長流村大長路584之9號,164,Shelly,嵐山驛站 露營區,66.66666666666667,42647台中市新社區中興街217之6號,19.047619047619047
1382,Eta,雲享清峰,南投縣國姓鄉墘溝村中西巷,1508,Eta,雲淡風清,57.14285714285714,新竹縣尖石鄉,33.333333333333336
1383,Eta,友樹溪露營區,南投縣國姓鄉北港村長北路95-26號,5,Shelly,暮雲春樹露營區,80.0,545南投縣埔里鎮種瓜路33-3號,31.25
1384,Eta,埔里紫月樹葡萄營地,南投縣埔里鎮溪南里水牆巷5號,29,Shelly,龍泉營地,66.66666666666667,54550南投縣埔里鎮武界路28之10號,48.0
1385,Eta,愛露營商店,台中市北屯區崇德九路369號,989,Shelly,享恩商店露營區,50.0,33643桃園市復興區溪口路86號,41.666666666666664
1386,Eta,邦古河那彎,台中市和平區東關路一段松鶴三巷199-11號,1587,Eta,轉個彎露營區,25.0,苗栗縣南庄鄉東河村,12.5
1387,Eta,晨融家筑,台中市和平區東關路一段松鶴三巷60-16號,87,Shelly,沐晨露營區,33.333333333333336,544002南投縣國姓鄉長豐村東一巷51-8號,34.48275862068966
1388,Eta,谷關365露營區,台中市和平區東關路一段20之5號,170,Shelly,谷關365露營區,100.0,424台中市和平區東關路一段20之5號,100.0
1389,Eta,哈露米露營區,台中市和平區博愛里東關路一段430號,159,Shelly,哈露米露營區,100.0,424台中市和平區東關路一段430號,90.9090909090909
1390,Eta,照哥的家,台中市和平區博愛里裡冷巷86號,155,Shelly,照哥的家,100.0,424台中市和平區東關路一段裡冷巷86號,66.66666666666667
1391,Eta,家霖農場,台中市和平區東關路一段台電巷122-2號,856,Shelly,新竹縣峨眉湖吾家農場,85.71428571428572,315新竹縣峨眉鄉環湖路8-8號,27.27272727272727
1392,Eta,綠大地露營區,台中市新社區上坪4-6號,145,Shelly,綠大地露營區,100.0,42646台中市新社區上坪4-6號,100.0
1393,Eta,裡冷溪探索園區,台中市和平區東關路一段裡冷巷69號,150,Shelly,裡冷溪探索園區,100.0,424台中市和平區裡冷巷69號,66.66666666666667
1394,Eta,夢鄉農場露營區,台中市東勢區茂興里13鄰東蘭路213號,33,Shelly,高峰農場露營區,83.33333333333334,544南投縣國姓鄉長石巷42-9號,19.047619047619047
1395,Eta,Momo佳園民宿,台中市新社區協成村協中街189-2號,691,Shelly,華園露營民宿,66.66666666666667,945屏東縣牡丹鄉大梅路1之7號,19.999999999999996
1396,Eta,ㄡ熊熊露營園地,台中市和平區東關路一段松鶴三巷103號,124,Shelly,ㄡ熊熊露營園地,100.0,424台中市和平區東關路一段松鶴三巷103號,100.0
1397,Eta,石壁露營區,台中市和平區東關路一段430號,215,Shelly,石壁露營區,100.0,424台中市和平區,80.0
1398,Eta,松風谷園區,台中市和平區博愛里東關路一段台電巷122-20號,1106,Shelly,風露營,40.0,365苗栗縣泰安鄉馬那邦64號,12.5
1399,Eta,松鶴唐麻丹,台中市和平區博愛里東關路一段松鶴三巷,195,Shelly,松鶴唐麻丹露營區,100.0,42404台中市和平區東關路一段松鶴三巷,90.9090909090909
1400,Eta,松鶴延年,台中市和平區東關路一段松鶴三巷95-11號,163,Shelly,松鶴延年露營區,100.0,424台中市和平區東關路一段松鶴三巷95-11號,100.0
1401,Eta,司卡尤納,台中市和平區達觀里東崎路一段育英巷47-1號,446,Shelly,玥納露營區,33.333333333333336,851高雄市茂林區多納林道,21.052631578947366
1402,Eta,小熊寶貝麥鄉農村,台中市大雅區上山五路和上山五路55巷,1038,Shelly,松村,66.66666666666667,981花蓮縣玉里鎮號,0.0
1403,Eta,三山來此,台中市北屯區東山路二段183-33號,158,Shelly,三山來此咖啡莊園,100.0,406台中市北屯區東山路二段183-33號,100.0
1404,Eta,山上松亭,台中市和平區東關路一段360之5號,171,Shelly,山上松亭露營區,100.0,424台中市和平區東關路一段360之5號,100.0
1405,Eta,彩虹奇菁,台中市東勢區慶福里慶福街26號之2號,167,Shelly,彩虹奇菁露營區（含民宿）,100.0,423台中市東勢區慶福里慶福街26-2號,91.42857142857143
1406,Eta,巴歌浪藝術園區,台東縣長濱鄉樟原村大峰峰15號,695,Shelly,樂園露營區,57.14285714285714,929屏東縣琉球鄉復興路32-15號,41.379310344827594
1407,Eta,阿里山 迷糊露營區,嘉義縣阿里山鄉樂野村2鄰樂野68號,523,Shelly,阿里山迷糊露營區,87.5,605嘉義縣阿里山鄉69號,70.0
1408,Eta,吉恩典山丘,嘉義縣水上鄉三界埔段532-4地號,464,Shelly,吉恩典山丘露營區,100.0,608嘉義縣水上鄉三界埔段532-4地號,100.0
1409,Eta,美栗民宿露營區,嘉義縣番路鄉公興村下路14號,423,Shelly,原宿露營區,88.88888888888889,963台東縣太麻里鄉963,21.052631578947366
1410,Eta,美淞露營地,嘉義縣水上鄉,513,Shelly,美淞露營地,100.0,608嘉義縣水上鄉,100.0
1411,Eta,三寶山露營區,嘉義縣番路鄉大湖村紅筆仔壽2之8號,501,Shelly,三寶山露營區-番路露營區推薦|必去露營區|人氣露營區|好評露營區|親子露營區|網美露營區|打卡露營區,100.0,602嘉義縣番路鄉,80.0
1412,Eta,草地兄弟,嘉義縣番路鄉大湖村2鄰17附1號,541,Shelly,草地兄弟露營區,100.0,602嘉義縣番路鄉大華公路,70.0
1413,Eta,汪爸露營區,嘉義縣阿里山鄉樂野村,517,Shelly,汪爸露營區,100.0,605嘉義縣阿里山鄉樂野村四鄰129-6號,100.0
1414,Eta,鵲子山露營區,宜蘭縣頭城鎮北宜路二段71巷51號,433,Shelly,羅山露營區,88.88888888888889,983花蓮縣富里鄉,16.666666666666664
1415,Eta,飛亞蘭露營區,宜蘭縣大同鄉茂安村泰雅路五段,589,Shelly,飛亞蘭露營區,100.0,267宜蘭縣大同鄉泰雅路五段46號,78.57142857142857
1416,Eta,舊寮之心,宜蘭縣冬山鄉中山村舊寮路131巷37號,1375,Eta,童心園,50.0,南投縣埔里鎮中成路13之2號,37.03703703703704
1417,Eta,橘子園露營區,宜蘭縣礁溪鄉白石腳路135-1號,571,Shelly,橘子園露營區,100.0,262宜蘭縣礁溪鄉白石腳路135號之1號,87.5
1418,Eta,山谷星空露營區,宜蘭縣三星鄉泰雅一路301巷71號,595,Shelly,山谷星空,100.0,266宜蘭縣三星鄉泰雅一路301巷71號,100.0
1419,Eta,石頭屋蝴蝶農場,宜蘭縣冬山鄉梅林路971號,218,Shelly,大棟農場,66.66666666666667,No. 1之7號 雪山路和平區台中市424,19.047619047619047
1420,Eta,粗坑露營區,宜蘭縣員山鄉粗坑路151號,711,Shelly,貓仔坑露營區,88.88888888888889,946屏東縣恆春鎮,16.666666666666664
1421,Eta,Uwah露營區,宜蘭縣大同鄉寒溪村華興巷42-18號,607,Shelly,Uwah露營區,100.0,267宜蘭縣大同鄉華興巷42-18號,90.9090909090909
1422,Eta,無憂花露營區,宜蘭縣礁溪鄉白石腳路157巷88號,570,Shelly,無憂花露營區,100.0,262宜蘭縣礁溪鄉白石腳路157巷88號,100.0
1423,Eta,又想露營趣,宜蘭縣冬山鄉照安一路360-1號,588,Shelly,又想露營趣,100.0,269宜蘭縣冬山鄉照安一路360之1號,93.75
1424,Eta,大羅蘭,新北市烏來區大羅蘭七號,760,Shelly,福山大羅蘭露營區,100.0,233新北市烏來區大羅蘭七號,100.0
1425,Eta,福山達卡露營區,新北市烏來區大羅蘭19之1號,759,Shelly,福山達卡露營區,100.0,233新北市烏來區大羅蘭19之1號,100.0
1426,Eta,十分自然露營區,新北市平溪區靜安路三段391號,273,Shelly,十分自然露營區,100.0,226新北市平溪區靜安路三段391之7號,93.33333333333333
1427,Eta,布魯的家,新竹縣五峰鄉桃山村11鄰197-7號,155,Shelly,照哥的家,66.66666666666667,424台中市和平區東關路一段裡冷巷86號,10.526315789473683
1428,Eta,阿貴營地,新竹縣五峰鄉大隘村23鄰466號,8,Shelly,緣溪行森林營地,66.66666666666667,545南投縣埔里鎮乾溪景觀橋545號,21.052631578947366
1429,Eta,愛喜露營區,新竹縣尖石鄉梅花九鄰梅花242號,1504,Eta,喜樂露營區,88.88888888888889,新竹縣尖石鄉義興村馬胎七鄰22-9號,58.06451612903225
1430,Eta,愛上比來,新竹縣五峰鄉,792,Shelly,新竹·五峰露營區：愛上天湖露營區/狩獵帳、小木屋,50.0,311新竹縣五峰鄉花園村9鄰196-2號,100.0
1431,Eta,北得拉曼露營區,新竹縣尖石鄉,858,Shelly,北得拉曼休閒營地,72.72727272727273,206新竹縣尖石鄉新樂村5鄰上水田150-2號,100.0
1432,Eta,巴棍民宿露營區,新竹縣五峰鄉桃山村18鄰311-2號,423,Shelly,原宿露營區,88.88888888888889,963台東縣太麻里鄉963,23.076923076923073
1433,Eta,巴棍杉林,新竹縣五峰鄉茅圃產業道路,601,Shelly,杉林奇蹟露營區,66.66666666666667,262宜蘭縣礁溪鄉二結路94號,27.27272727272727
1434,Eta,北埔星月天空露營區,新竹縣北埔鄉大湖村下大湖12鄰22-30號,299,Shelly,露舍營家露營區,60.0,845高雄市內門區,0.0
1435,Eta,白蘭時光,新竹縣五峰鄉,1110,Shelly,微時光露營園區,57.14285714285714,362苗栗縣頭屋鄉4鄰46-1號,33.333333333333336
1436,Eta,巴斯瓜藍露營區,新竹縣五峰鄉桃山村18鄰312號,992,Shelly,蒝區,66.66666666666667,32659桃園市楊梅區幼獅路一段439號東南側,22.22222222222222
1437,Eta,巴萬五峰,新竹縣五峰鄉205-6號,804,Shelly,巴萬五峰露營區,100.0,311新竹縣五峰鄉,80.0
1438,Eta,穿山甲咖啡露營休閒莊園,新竹縣北埔鄉南埔村番婆坑8-22號,551,Shelly,穿山甲露營區,66.66666666666667,605嘉義縣阿里山鄉里佳村里佳29號,33.333333333333336
1439,Eta,清心忘憂露營區,新竹縣尖石鄉義興村馬胎107-2號,830,Shelly,忘憂農莊露營區,83.33333333333334,312新竹縣橫山鄉,53.333333333333336
1440,Eta,清悠忘我露營區,新竹縣尖石鄉新樂村,992,Shelly,蒝區,66.66666666666667,32659桃園市楊梅區幼獅路一段439號東南側,0.0
1441,Eta,大東田露營區,新竹縣五峰鄉花園村6鄰121之5號,877,Shelly,大東田露營區,100.0,311新竹縣五峰鄉,80.0
1442,Eta,大湖山林,新竹縣北埔鄉大湖村三鄰上大湖28之8號,325,Shelly,茂升山林,66.66666666666667,845高雄市內門區號,33.333333333333336
1443,Eta,大山背小曠野營地,新竹縣橫山鄉豐鄉村大山背5鄰52號,850,Shelly,野足營地,85.71428571428572,311新竹縣五峰鄉天湖9鄰196-6號,36.36363636363637
1444,Eta,大山北月,新竹縣橫山鄉豐鄉村大山背5鄰80號,1307,Shelly,大寮山,80.0,846高雄市杉林區,16.666666666666664
1445,Eta,飛仙居露營區,新竹縣五峰鄉桃山村,462,Shelly,夕落山居露營區,80.0,602嘉義縣番路鄉,30.76923076923077
1446,Eta,楓櫻杉林,新竹縣五峰鄉花園村,601,Shelly,杉林奇蹟露營區,66.66666666666667,262宜蘭縣礁溪鄉二結路94號,22.22222222222222
1447,Eta,格步霧露營區,新竹縣五峰鄉桃山村,813,Shelly,格步霧露營區(新竹縣五峰鄉),100.0,311新竹縣五峰鄉311-1,66.66666666666667
1448,Eta,谷漢露營區,新竹縣尖石鄉嘉樂村14鄰160之1號,451,Shelly,櫻之谷露營區,88.88888888888889,848高雄市桃源區南橫公路三段東莊巷30之6號,27.27272727272727
1449,Eta,閣馬雅農場,新竹縣尖石鄉,843,Shelly,閣馬雅農場附設露營區,100.0,121313 TW 新竹縣 尖石鄉 24.7217172002244.2528473,83.33333333333334
1450,Eta,高山寨露營區,新竹縣五峰鄉花園村四鄰78之1號,871,Shelly,高山寨露營區,100.0,311新竹縣五峰鄉上比來道路,60.0
1451,Eta,鬼澤157,新竹縣五峰鄉157號,547,Shelly,57秘密基地,57.14285714285714,603嘉義縣梅山鄉大坪57號,52.63157894736843
1452,Eta,航道休閒露營區,新竹縣尖石鄉新樂村7鄰水田185號,61,Shelly,仙聞休閒露營區,83.33333333333334,555南投縣魚池鄉華龍巷73號,26.66666666666667
1453,Eta,花湖美地,新竹縣五峰鄉花園村9鄰196號,841,Shelly,花湖美地露營區,100.0,311新竹縣五峰鄉花園村9鄰196號,100.0
1454,Eta,豪祥露營區,新竹縣尖石鄉錦屏村7鄰那羅25之1號,992,Shelly,蒝區,66.66666666666667,32659桃園市楊梅區幼獅路一段439號東南側,18.181818181818176
1455,Eta,迦得營地,新竹縣尖石鄉,8,Shelly,緣溪行森林營地,66.66666666666667,545南投縣埔里鎮乾溪景觀橋545號,16.666666666666664
1456,Eta,靜觀露營區,新竹縣五峰鄉桃山村18鄰311-30號,564,Shelly,幸福城景觀露營區,88.88888888888889,267宜蘭縣大同鄉住址：大同鄉泰雅路二段29巷58-6號！,25.0
1457,Eta,嘉揚露營區,新竹縣五峰鄉,57,Shelly,雲的嘉露營區,88.88888888888889,54448南投縣國姓鄉南港二號橋,33.333333333333336
1458,Eta,竹鷹露營區,新竹縣五峰鄉,539,Shelly,亞亞竹露營區,88.88888888888889,605嘉義縣阿里山鄉,36.36363636363637
1459,Eta,靜月居,新竹縣峨眉鄉湖光村十二寮12鄰6-5號,56,Shelly,靜竹星空景觀露營區,50.0,557南投縣竹山鎮鹿山路604號,22.22222222222222
1460,Eta,露露米露營區,新竹縣五峰鄉竹林村,873,Shelly,露露米露營區,100.0,311新竹縣五峰鄉,80.0
1461,Eta,老牛露營區,新竹縣五峰鄉桃山村18鄰白蘭312-3號,886,Shelly,老牛露營區,100.0,新竹縣五峰鄉18 鄰 312-3 號,72.22222222222221
1462,Eta,旅人山泉農場,新竹縣北埔鄉,1497,Eta,天山農場,75.0,新竹縣五峰鄉桃山村20鄰民石353之5號,66.66666666666667
1463,Eta,戀上瓜麗,新竹縣五峰鄉320-3號,1556,Eta,阿麗露營區,33.333333333333336,苗栗縣泰安鄉大興村5鄰38號,33.333333333333336
1464,Eta,司馬庫斯拉娃露營區,新竹縣尖石鄉16號,299,Shelly,露舍營家露營區,60.0,845高雄市內門區,0.0
1465,Eta,馬丘比丘露營區,新竹縣五峰鄉,992,Shelly,蒝區,66.66666666666667,32659桃園市楊梅區幼獅路一段439號東南側,0.0
1466,Eta,明當家園,新竹縣尖石鄉新樂村水田7鄰190-1號,795,Shelly,明園星空營地,66.66666666666667,30504新竹縣新埔鎮52之20號,33.333333333333336
1467,Eta,梅后蔓瀑布露營區,新竹縣五峰鄉,796,Shelly,梅后蔓露營區,66.66666666666667,31141新竹縣五峰鄉花園村8鄰花園185之11,100.0
1468,Eta,Mspat露營區,新竹縣尖石鄉十鄰145號,992,Shelly,蒝區,66.66666666666667,32659桃園市楊梅區幼獅路一段439號東南側,21.052631578947366
1469,Eta,馬薩保耐露營區,新竹縣五峰鄉5鄰和平165號,992,Shelly,蒝區,66.66666666666667,32659桃園市楊梅區幼獅路一段439號東南側,22.22222222222222
1470,Eta,梅村露營區,新竹縣尖石鄉185號,892,Shelly,梅村露營區,100.0,313新竹縣尖石鄉185號,100.0
1471,Eta,馬武督露營趣,新竹縣關西鎮,808,Shelly,馬武督露營趣,100.0,新竹縣關西鎮306,100.0
1472,Eta,馬雅竹軒,新竹縣五峰鄉305號,843,Shelly,閣馬雅農場附設露營區,57.14285714285714,121313 TW 新竹縣 尖石鄉 24.7217172002244.2528473,40.0
1473,Eta,牧羊小豆子,新竹縣五峰鄉竹林村4鄰93號,162,Shelly,山上小日子Camping,40.0,424台中市和平區東關路一段裡冷巷1-8號,13.33333333333333
1474,Eta,Payan露營區,新竹縣尖石鄉新樂村,825,Shelly,Payan露營區,100.0,313新竹縣尖石鄉,80.0
1475,Eta,山的那一邊,新竹縣五峰鄉桃山村18鄰311-37號,824,Shelly,山的那一邊露營區,100.0,311新竹縣五峰鄉18鄰311-37號,91.42857142857143
1476,Eta,石福山莊,新竹縣關西鎮,268,Shelly,福山緣,66.66666666666667,233新北市烏來區卡拉模基2號,19.999999999999996
1477,Eta,仙湖露營區,新竹縣五峰鄉大隘村10鄰194號,781,Shelly,戀戀天湖露營區,88.88888888888889,311新竹縣五峰鄉花園村天湖219-15號,56.25
1478,Eta,生活原鄉,新竹縣關西鎮9鄰96-3號,343,Shelly,善知院-禪的生活園地,50.0,732台南市白河區37號,28.57142857142857
1479,Eta,霞喀羅,新竹縣五峰鄉村,866,Shelly,霞喀羅露營地,100.0,村民 石 324 之 20 五峰鄉新竹縣311,46.15384615384615
1480,Eta,斯卡嵐慕,新竹縣五峰鄉,1604,Eta,慕木露營區,40.0,苗栗縣南庄鄉,40.0
1481,Eta,星空下露營區,新竹縣五峰鄉,396,Shelly,金山星空露營區,90.9090909090909,964台東縣金峰鄉佳崙產業道路,50.0
1482,Eta,星空夜語,新竹縣五峰鄉,1159,Shelly,星空夜語露營地,100.0,357苗栗縣通霄鎮4鄰42號,16.666666666666664
1483,Eta,小米露營區,新竹縣五峰鄉竹林村4鄰忠興91之5號,833,Shelly,小米露營區,100.0,311新竹縣五峰鄉,80.0
1484,Eta,司馬庫斯舊部落營地,新竹縣尖石鄉,29,Shelly,龍泉營地,66.66666666666667,54550南投縣埔里鎮武界路28之10號,16.666666666666664
1485,Eta,斯摩亞營地,新竹縣關西鎮10鄰106號,861,Shelly,斯摩亞露營地,80.0,335新竹縣關西鎮10鄰106號,100.0
1486,Eta,石牛山露營區,新竹縣關西鎮,839,Shelly,石牛山露營區,100.0,306新竹縣關西鎮石牛山石福宮旁,100.0
1487,Eta,杉嵐營地,新竹縣五峰鄉竹林村1鄰羅山23之2號,868,Shelly,杉嵐營地,100.0,311新竹縣五峰鄉,80.0
1488,Eta,相思園露營區,新竹縣尖石鄉錦屏村2鄰比麟96號,802,Shelly,相思園露營區,100.0,313新竹縣尖石鄉96號 錦屏村2鄰比麟96號,76.92307692307692
1489,Eta,小途溪伴,新竹縣關西鎮錦山191之1號,110,Shelly,小路露營區,40.0,426台中市新社區崑山里食水嵙6-2號,22.22222222222222
1490,Eta,星月橫山,新竹縣橫山鄉頭份林1-8號,220,Shelly,星月假期-台中露營-住宿-烤肉-飯店-泡湯,66.66666666666667,421台中市后里區月眉北路482號之1號,26.66666666666667
1491,Eta,山野悠活的熊山露營區,新竹縣尖石鄉錦屏段5地號,299,Shelly,露舍營家露營區,60.0,845高雄市內門區,16.666666666666664
1492,Eta,天湖露營區,新竹縣五峰鄉花園村10鄰天湖218-11號,781,Shelly,戀戀天湖露營區,100.0,311新竹縣五峰鄉花園村天湖219-15號,82.05128205128204
1493,Eta,彩虹喬露營區,新竹縣尖石鄉義興村2鄰59-3號,149,Shelly,彩虹星光農園露營區,66.66666666666667,422台中市石岡區豐勢路山下巷11之8號,13.33333333333333
1494,Eta,天景露營區,新竹縣五峰鄉花園村10鄰天湖205號,474,Shelly,景山露營區,88.88888888888889,604嘉義縣竹崎鄉光華村2鄰23號,36.36363636363637
1495,Eta,鐵露局露營區,新竹縣五峰鄉天湖221-5號,881,Shelly,鐵露局露營區,100.0,311新竹縣五峰鄉花園村天湖221-5號,78.57142857142857
1496,Eta,田埔露營地,新竹縣尖石鄉,890,Shelly,水田谷露營地,80.0,313新竹縣尖石鄉水田第4鄰123之1號,100.0
1497,Eta,天山農場,新竹縣五峰鄉桃山村20鄰民石353之5號,16,Shelly,南投北山露營農場,66.66666666666667,544南投縣國姓鄉長石巷42-5號,27.27272727272727
1498,Eta,桃喜悠境休閒莊園,新竹縣五峰鄉桃山村清泉209-36號,236,Shelly,甜蜜點休閒莊園,72.72727272727273,251新北市淡水區奎柔山路189號,25.0
1499,Eta,蓪草花園營地,新竹縣五峰鄉花園村,265,Shelly,林園營地,85.71428571428572,232新北市坪林區號,15.384615384615385
1500,Eta,舞之海露營區,新竹縣五峰鄉,676,Shelly,海山露營區,88.88888888888889,946屏東縣恆春鎮島路200-2號,16.666666666666664
1501,Eta,微居解秘,新竹縣關西鎮六曲窩188-8號,838,Shelly,微居。解秘,75.0,306001新竹縣關西鎮號,63.1578947368421
1502,Eta,蔚嵐青青,新竹縣峨眉鄉七星村六寮80號,304,Shelly,梅嶺青青河畔茶樹露營區,50.0,715台南市楠西區灣丘里梅嶺,0.0
1503,Eta,雪花的露營區,新竹縣尖石鄉梅花村9鄰農路,884,Shelly,雪花的露營區,100.0,313新竹縣尖石鄉梅花9鄰236號,76.92307692307692
1504,Eta,喜樂露營區,新竹縣尖石鄉義興村馬胎七鄰22-9號,77,Shelly,唯樂露營區,88.88888888888889,555南投縣魚池鄉協力巷11-6號,24.242424242424242
1505,Eta,閑情園,新竹縣尖石鄉梅花村,476,Shelly,詩情花園度假村,66.66666666666667,606嘉義縣中埔鄉1號,26.66666666666667
1506,Eta,星墅露營窩,新竹縣關西鎮錦山里9鄰錦山99-9號,864,Shelly,窩.露營,57.14285714285714,311新竹縣五峰鄉羅山1鄰4-9號,41.17647058823529
1507,Eta,尤巴士露營區,新竹縣五峰鄉桃山村,1644,Eta,尤巴斯露營區,83.33333333333334,苗栗縣泰安鄉大興村5鄰高熊卡45號,33.333333333333336
1508,Eta,雲淡風清,新竹縣尖石鄉,1106,Shelly,風露營,40.0,365苗栗縣泰安鄉馬那邦64號,33.333333333333336
1509,Eta,雲頂天湖露營區,新竹縣五峰鄉,798,Shelly,天湖露營區,100.0,311新竹縣五峰鄉,100.0
1510,Eta,悅光綠境,新竹縣五峰鄉白蘭311-17號,284,Shelly,綠境1號露營農場,66.66666666666667,715台南市楠西區,18.181818181818176
1511,Eta,一沐露營區,新竹縣橫山鄉,87,Shelly,沐晨露營區,88.88888888888889,544002南投縣國姓鄉長豐村東一巷51-8號,33.333333333333336
1512,Eta,一抹河,新竹縣五峰鄉大隘村茅圃352-1號,118,Shelly,一棵樹露營區,50.0,413台中市霧峰區民生路426巷77號,20.68965517241379
1513,Eta,雅娜營地,新竹縣五峰鄉,512,Shelly,特富野伊利雅娜露營區,75.0,605030嘉義縣阿里山鄉第9鄰245附5號,33.333333333333336
1514,Eta,有你真好阿嬌,新竹縣五峰鄉竹林村2鄰37號,1132,Shelly,有鬼露營區,33.333333333333336,苗栗縣南庄鄉鹿 場 部落 24 鄰 11 號,26.086956521739136
1515,Eta,營墅風晴露營區,新竹縣關西鎮錦山里9鄰96號,834,Shelly,營墅風晴露營區,100.0,306新竹縣關西鎮錦山里9鄰96號,100.0
1516,Eta,比固花園,桃園市復興區高義村,923,Shelly,比固花園,100.0,336桃園市復興區,80.0
1517,Eta,北戶露營區,桃園市復興區武道能敢道路地號,296,Shelly,北側露營區,80.0,720台南市官田區720,22.22222222222222
1518,Eta,夏蝶冬櫻山谷園地-保羅先生,桃園市復興區高義里高義蘭36-1號,419,Shelly,石山園,66.66666666666667,953台東縣延平鄉,14.28571428571429
1519,Eta,得拉互,桃園市復興區華陵里巴崚8鄰55之2號,970,Shelly,拉拉山得拉互露營區,100.0,336桃園市復興區,80.0
1520,Eta,飛督努露營區,桃園市復興區霞雲里5鄰成福路559號,775,Shelly,飛督努休閒 露營區,66.66666666666667,桃園市復興區20-1號,70.58823529411764
1521,Eta,古渡園地,桃園市復興區華陵里中心路86巷11號,951,Shelly,古渡園地,100.0,33644桃園市復興區中心路86巷11號,90.9090909090909
1522,Eta,嘎色鬧露營區,桃園市復興區奎輝里8鄰嘎色鬧23號,920,Shelly,蜻蜓露營區-嘎色鬧,66.66666666666667,336桃園市復興區奎輝里7鄰嘎色鬧2號,90.9090909090909
1523,Eta,HOLA露營區,桃園市復興區羅浮里七鄰高坡16號,992,Shelly,蒝區,66.66666666666667,32659桃園市楊梅區幼獅路一段439號東南側,31.25
1524,Eta,和平橋露營區,桃園市復興區,949,Shelly,和平橋露營區,100.0,336桃園市復興區上宇內道路,100.0
1525,Eta,角板山露營區,桃園市復興區,433,Shelly,羅山露營區,88.88888888888889,983花蓮縣富里鄉,0.0
1526,Eta,高崗露營區,桃園市復興區武崙路33號,992,Shelly,蒝區,66.66666666666667,32659桃園市楊梅區幼獅路一段439號東南側,41.666666666666664
1527,Eta,庫司景觀露營區,桃園市復興區,823,Shelly,觀雲露營區,88.88888888888889,311新竹縣五峰鄉,0.0
1528,Eta,利河伯休閒農園露營區,桃園市復興區三光里爺亨段410地號,916,Shelly,利河伯休閒農園露營區,100.0,336桃園市復興區爺亨段,75.0
1529,Eta,樂見山,桃園市復興區,774,Shelly,樂見山露營區,100.0,336桃園市復興區成福路,100.0
1530,Eta,露薩休閒露營區,桃園市復興區三光里爺亨35-1號,212,Shelly,大雄的家露營休閒區,66.66666666666667,426台中市新社區永豐45-2號,37.03703703703704
1531,Eta,木河谷,桃園市復興區,947,Shelly,木河谷營地,100.0,336桃園市復興區,100.0
1532,Eta,米利漾,桃園市復興區2號,983,Shelly,Mliyang米利漾 x Camping Chill 露營,100.0,336桃園市復興區2號,100.0
1533,Eta,那結山露營區,桃園市復興區奎輝產業道路,433,Shelly,羅山露營區,88.88888888888889,983花蓮縣富里鄉,0.0
1534,Eta,歐陽莊園,桃園市復興區高義蘭道路65之7號,935,Shelly,歐陽莊園,100.0,336桃園市復興區高義蘭道路65之7號,100.0
1535,Eta,培雅境休閒露營區,桃園市復興區羅浮里羅馬路一段301之6號,938,Shelly,培雅境休閒露營區,100.0,336桃園市復興區羅馬公路,72.0
1536,Eta,清清露營區,桃園市復興區華陵里8鄰40號,963,Shelly,清清露營區,100.0,336桃園市復興區207-4、,56.00000000000001
1537,Eta,蜻蜓露營區-嘎色鬧,桃園市復興區奎輝里嘎色鬧7鄰2號,920,Shelly,蜻蜓露營區-嘎色鬧,100.0,336桃園市復興區奎輝里7鄰嘎色鬧2號,87.5
1538,Eta,順花露營區,桃園市復興區武道能敢道路9號,570,Shelly,無憂花露營區,88.88888888888889,262宜蘭縣礁溪鄉白石腳路157巷88號,18.181818181818176
1539,Eta,山豬王露營區,桃園市復興區7鄰1之12號,972,Shelly,山豬王露營區,100.0,336桃園市復興區7鄰1之12號,100.0
1540,Eta,鑫彩霞谷露營區,桃園市復興區,944,Shelly,桃園•復興露營區／鑫彩霞谷fun露營,57.14285714285714,336桃園市復興區,100.0
1541,Eta,松野,桃園市復興區10-16號,69,Shelly,野趣凍頂-奢華露營,66.66666666666667,558南投縣鹿谷鄉凍頂巷7-26號,37.5
1542,Eta,鑫園馬告露營區,桃園市復興區羅馬路六段36號,91,Shelly,馬沙露營區,80.0,544南投縣國姓鄉大長路616-1號,28.57142857142857
1543,Eta,杉與山露營區,桃園市復興區中心路86巷,978,Shelly,杉與山 露營區,83.33333333333334,336桃園市復興區中心路86巷,100.0
1544,Eta,桃蘆坑生態農場,桃園市蘆竹區山林路三段855-1號,1208,Shelly,深山林內生態農場,72.72727272727273,557南投縣竹山鎮大鞍里頂林路累藤巷6-66號,35.29411764705882
1545,Eta,桃子菇菇休閒農莊,桃園市復興區中心路華陵里148號,953,Shelly,桃園復興鄉桃子菇菇休閒農莊,100.0,336桃園市復興區中心路148號,89.65517241379311
1546,Eta,哇吶訕露營區,桃園市復興區三光里武道能敢4鄰14之18號,937,Shelly,哇吶訕露營區,100.0,336桃園市復興區14之18號,57.14285714285714
1547,Eta,熊居露營趣,桃園市復興區中心路169-8號,184,Shelly,嵐山譯站露營趣,75.0,426台中市新社區中興街225號,30.76923076923077
1548,Eta,戀戀雅渡農場,桃園市復興區高義里七鄰10之3號,971,Shelly,戀戀雅渡農場,100.0,336桃園市復興區色霧鬧7鄰10之3號,75.0
1549,Eta,爺亨溪岸,桃園市復興區,777,Shelly,爺亨溪岸露營區,100.0,33644桃園市復興區7鄰15之21號,100.0
1550,Eta,尹宿納,桃園市復興區,962,Shelly,Insuna‘尹宿納露營區,100.0,336桃園市復興區,100.0
1551,Eta,納格林野營,花蓮縣光復鄉157之1號,1026,Shelly,納格林野營,100.0,976007花蓮縣光復鄉,66.66666666666667
1552,Eta,眺浪營地,花蓮縣豐濱鄉港口村石梯坪33號,8,Shelly,緣溪行森林營地,66.66666666666667,545南投縣埔里鎮乾溪景觀橋545號,14.28571428571429
1553,Eta,佐倉高地,花蓮縣秀林鄉水源村,36,Shelly,採茶媽媽景觀茶園雨棚區 - 南投露營區推薦 仁愛鄉露營區推薦 高山營地露營首選 包區 搭帳露營 親子家庭避暑好評 雨棚露營評價 網友推薦高CP值露天搭帳 高海拔 秘境 雲海 雲瀑 流星星海 原始林健行步道,50.0,546南投縣仁愛鄉,30.76923076923077
1554,Eta,布耶特景觀營地,苗栗縣泰安鄉大興村,29,Shelly,龍泉營地,66.66666666666667,54550南投縣埔里鎮武界路28之10號,11.764705882352944
1555,Eta,按個讚露營區,苗栗縣泰安鄉,510,Shelly,玉讚露營區,88.88888888888889,602嘉義縣番路鄉,40.0
1556,Eta,阿麗露營區,苗栗縣泰安鄉大興村5鄰38號,9,Shelly,湯尼瑪麗露營區,88.88888888888889,545南投縣埔里鎮種瓜路,13.33333333333333
1557,Eta,ㄠ嶩民宿露營區,苗栗縣泰安鄉梅園村2鄰23號,423,Shelly,原宿露營區,88.88888888888889,963台東縣太麻里鄉963,24.0
1558,Eta,薆繞,苗栗縣泰安鄉,779,Shelly,遇見嵨ㄨˇ繞（看到遇見嵨繞露營區大石頭由此處進入）,50.0,313新竹縣尖石鄉9號,33.333333333333336
1559,Eta,阿水泊露營區,苗栗縣泰安鄉10鄰橫龍山64之36號,75,Shelly,帖泊喀露營區,80.0,555南投縣魚池鄉中正路102號,33.333333333333336
1560,Eta,愛玉露營區,苗栗縣南庄鄉鹿場聯絡道路14-2號,510,Shelly,玉讚露營區,88.88888888888889,602嘉義縣番路鄉,26.66666666666667
1561,Eta,巴卡的天空,苗栗縣南庄鄉蓬萊村14大湳30-16號,1102,Shelly,巴卡的天空(露營區．鄉村露營車．自搭帳．歐式料理．日式燒肉),100.0,353苗栗縣南庄鄉30-16號,57.14285714285714
1562,Eta,部落傳奇露營區,苗栗縣泰安鄉象鼻村19-5號,367,Shelly,麒麟部落露營區,83.33333333333334,961台東縣成功鎮麒麟路52-6號,23.529411764705888
1563,Eta,緣野營客,苗栗縣卓蘭鎮坪林里9鄰103號,338,Shelly,野營點無水，有樹遮陽,66.66666666666667,712台南市新化區,15.384615384615385
1564,Eta,的貴露營區,苗栗縣泰安鄉象鼻村3鄰永安17號,398,Shelly,最接近海的露營區,88.88888888888889,962台東縣長濱鄉,26.66666666666667
1565,Eta,德佬露營區,苗栗縣南庄鄉東河村,848,Shelly,怡德露營區,88.88888888888889,313新竹縣尖石鄉水田147,22.22222222222222
1566,Eta,大南之美露營區,苗栗縣大湖鄉,1142,Shelly,苗栗大湖大南之美露營區,100.0,364苗栗縣大湖鄉57號,100.0
1567,Eta,法愛露營區,苗栗縣南庄鄉,1429,Eta,愛喜露營區,88.88888888888889,新竹縣尖石鄉梅花九鄰梅花242號,33.333333333333336
1568,Eta,豐之優露營區,苗栗縣泰安鄉清安村12鄰109之12號,992,Shelly,蒝區,66.66666666666667,32659桃園市楊梅區幼獅路一段439號東南側,16.666666666666664
1569,Eta,芳樺園,苗栗縣公館鄉開礦村開礦142-10號,22,Shelly,武界雲夢茗園,50.0,546南投縣仁愛鄉茶園巷1之1號,31.25
1570,Eta,楓李小棧,苗栗縣泰安鄉大興村4鄰61-7號,986,Shelly,庭綩小棧,66.66666666666667,桃園市復興區1鄰16-3號,45.45454545454546
1571,Eta,楓美露營區,苗栗縣南庄鄉鹿場聯絡道路24鄰號,787,Shelly,蘇珊藏美露營區,88.88888888888889,311新竹縣五峰鄉17 鄰296-28 號,25.0
1572,Eta,芬享露營區,苗栗縣泰安鄉大興村5鄰38-1號,846,Shelly,芬蘭露營區,80.0,311新竹縣五峰鄉,28.57142857142857
1573,Eta,逢雲露營區,苗栗縣泰安鄉梅園村2鄰66-25號,1178,Shelly,逢雲露營區,100.0,36545苗栗縣泰安鄉2鄰66-25號,90.32258064516128
1574,Eta,古道秘境露營區,苗栗縣泰安鄉,1111,Shelly,古道秘境露營區,100.0,Unnamed Road 泰安鄉苗栗縣365,50.0
1575,Eta,桂竹柿家,苗栗縣泰安鄉,757,Shelly,張家莊,50.0,227新北市雙溪區,0.0
1576,Eta,斑比跳跳 頂級豪華露營訂位,苗栗縣三灣鄉北埔村小北埔27號,332,Shelly,嚮露,50.0,844高雄市六龜區土壠149之10號,12.5
1577,Eta,高熊卡露營區,苗栗縣泰安鄉大興村,1158,Shelly,高熊卡露營區,100.0,365苗栗縣泰安鄉,80.0
1578,Eta,快樂露營區,苗栗縣泰安鄉大興村高熊卡60號,344,Shelly,月媽媽快樂露營區,100.0,845高雄市內門區木柵43號木柵教會隔壁,13.793103448275868
1579,Eta,好地方露營區,苗栗縣泰安鄉梅園村4鄰天狗7之6號,1149,Shelly,天狗好地方露營區,100.0,36545苗栗縣泰安鄉4鄰天狗7之6號,90.32258064516128
1580,Eta,喝納灣,苗栗縣南庄鄉24鄰鹿場13之8號353號,434,Shelly,Hawkes Bay-霍克海灣,50.0,954台東縣卑南鄉富山村11鄰168號,40.0
1581,Eta,南庄哈洛客露營區,苗栗縣南庄鄉東河137號,992,Shelly,蒝區,66.66666666666667,32659桃園市楊梅區幼獅路一段439號東南側,22.22222222222222
1582,Eta,花香果樂,苗栗縣大湖鄉水流東路1之19號,1172,Shelly,花香果樂露營區,100.0,364苗栗縣大湖鄉水流東路1之19號,100.0
1583,Eta,哈撒山莊,苗栗縣泰安鄉大興村高熊卡4鄰58號,447,Shelly,大武山莊,66.66666666666667,902屏東縣霧台鄉東川巷63號,19.999999999999996
1584,Eta,黃熊部落,苗栗縣泰安鄉大興村2鄰12-2號,73,Shelly,部落之丘 Camping,66.66666666666667,555南投縣魚池鄉文正巷1之45號,28.57142857142857
1585,Eta,好自在露營區,苗栗縣泰安鄉大興村四鄰57號,770,Shelly,自在草堂露營車改裝,66.66666666666667,224新北市瑞芳區,0.0
1586,Eta,金達鹿,苗栗縣南庄鄉鹿場聯絡道路,47,Shelly,達雅奇跡星球特色主題懶人露營一泊二食團體包場包區,50.0,544南投縣國姓鄉大長路529-1號,25.0
1587,Eta,轉個彎露營區,苗栗縣南庄鄉東河村,992,Shelly,蒝區,66.66666666666667,32659桃園市楊梅區幼獅路一段439號東南側,18.181818181818176
1588,Eta,竹木村露營區,苗栗縣獅潭鄉竹木村大興窩8鄰20-10號,892,Shelly,梅村露營區,88.88888888888889,313新竹縣尖石鄉185號,25.0
1589,Eta,橘園山谷,苗栗縣獅潭鄉永興村10鄰9號,64,Shelly,山谷露瑪露營區,66.66666666666667,556南投縣信義鄉,26.66666666666667
1590,Eta,開礦露營區,苗栗縣公館鄉,1180,Shelly,開礦露營區,100.0,363苗栗縣公館鄉,100.0
1591,Eta,鹿場綠地,苗栗縣南庄鄉,54,Shelly,滾石部落露營場地,66.66666666666667,544南投縣國姓鄉544,33.333333333333336
1592,Eta,樂活露營區,苗栗縣公館鄉,1221,Shelly,上山樂活露營區,100.0,557南投縣竹山鎮頂林路461號,16.666666666666664
1593,Eta,老古董民宿露營區,苗栗縣泰安鄉清安村洗水坑141-2號,423,Shelly,原宿露營區,88.88888888888889,963台東縣太麻里鄉963,21.052631578947366
1594,Eta,蘿菈松靜露營區,苗栗縣南庄鄉東河村21鄰石壁22號,1164,Shelly,苗栗南庄 蘿菈松靜露營區,100.0,No. 22號 石壁 南庄鄉苗栗縣353,26.086956521739136
1595,Eta,樂沐絲司馬縱谷露營區,苗栗縣泰安鄉中興村司馬限4鄰之2號,299,Shelly,露舍營家露營區,60.0,845高雄市內門區,14.28571428571429
1596,Eta,龍騰讚露營趣,苗栗縣三義鄉外庄20號,588,Shelly,又想露營趣,75.0,269宜蘭縣冬山鄉照安一路360之1號,27.27272727272727
1597,Eta,露也楓情露營區,苗栗縣泰安鄉大興村,332,Shelly,嚮露,66.66666666666667,844高雄市六龜區土壠149之10號,0.0
1598,Eta,綠野雲仙露營區,苗栗縣泰安鄉大興村,852,Shelly,仙境露營區,88.88888888888889,313新竹縣尖石鄉錦屏村6鄰吹上39之2,33.333333333333336
1599,Eta,瑪達法籟露營區,苗栗縣泰安鄉大興村5鄰48-1號,992,Shelly,蒝區,66.66666666666667,32659桃園市楊梅區幼獅路一段439號東南側,17.391304347826086
1600,Eta,美富安露營區,苗栗縣泰安鄉象鼻村永安33之6號,787,Shelly,蘇珊藏美露營區,80.0,311新竹縣五峰鄉17 鄰296-28 號,25.0
1601,Eta,麥露瘋露營區,苗栗縣泰安鄉,38,Shelly,茶吾此露露營區,80.0,545南投縣埔里鎮種瓜路33-13號,16.666666666666664
1602,Eta,沐嵐語露營區,苗栗縣泰安鄉大興村,608,Shelly,沐嵐園,80.0,267宜蘭縣大同鄉玉蘭21-6號,25.0
1603,Eta,哞哞露營地,苗栗縣頭屋鄉明德路32-8號,8,Shelly,緣溪行森林營地,57.14285714285714,545南投縣埔里鎮乾溪景觀橋545號,14.814814814814813
1604,Eta,慕木露營區,苗栗縣南庄鄉,345,Shelly,陸石五木露營區,88.88888888888889,846高雄市杉林區通仙巷236號,0.0
1605,Eta,明瓦南露營區,苗栗縣泰安鄉梅園村,992,Shelly,蒝區,66.66666666666667,32659桃園市楊梅區幼獅路一段439號東南側,12.5
1606,Eta,瑪亞鸞露營區,苗栗縣泰安鄉,64,Shelly,山谷露瑪露營區,80.0,556南投縣信義鄉,40.0
1607,Eta,南庄河畔露營區,苗栗縣南庄鄉南江村14鄰小東河8-1號,664,Shelly,河畔露營區,100.0,945屏東縣牡丹鄉大梅路1之20號,30.76923076923077
1608,Eta,南灣蹓蹓,苗栗縣泰安鄉大興村,1163,Shelly,南灣蹓蹓農埸,100.0,36541苗栗縣泰安鄉,80.0
1609,Eta,南庄 鳳凰谷,苗栗縣南庄鄉田美村7鄰田美125-1號,1246,Shelly,鳳之凰露營區,44.44444444444444,848高雄市桃源區15-12號,47.61904761904761
1610,Eta,巧遇露營區,苗栗縣獅潭鄉新豐村八角坑34號,1135,Shelly,巧遇露營區,100.0,363苗栗縣獅潭鄉八角坑34號,88.88888888888889
1611,Eta,日光角落,苗栗縣泰安鄉錦水村半天寮3鄰45之5號,645,Shelly,日光境,80.0,92141屏東縣泰武鄉泰武部落至佳興部落聯絡道路,19.999999999999996
1612,Eta,瑞娜京霖露營區,苗栗縣泰安鄉,992,Shelly,蒝區,66.66666666666667,32659桃園市楊梅區幼獅路一段439號東南側,0.0
1613,Eta,日旺休閒露營區,苗栗縣公館鄉北河村18鄰北河186-3號,61,Shelly,仙聞休閒露營區,83.33333333333334,555南投縣魚池鄉華龍巷73號,23.529411764705888
1614,Eta,象鼻休閒露營區,苗栗縣泰安鄉象鼻村1鄰9-3號,61,Shelly,仙聞休閒露營區,83.33333333333334,555南投縣魚池鄉華龍巷73號,31.999999999999996
1615,Eta,上巴爺爺露營區,苗栗縣泰安鄉錦水村,1107,Shelly,上巴爺爺露營區,100.0,36541苗栗縣泰安鄉橫龍山9鄰44號,66.66666666666667
1616,Eta,四方鮮乳休閒農場,苗栗縣竹南鎮崎頂里崎頂里12鄰東崎頂9-6號,744,Shelly,星錡休閒農場,80.0,512彰化縣永靖鄉東畔路238之46號,34.48275862068966
1617,Eta,山峰點伙露營區,苗栗縣通霄鎮圳頭里2鄰圳頭23之6號,1146,Shelly,山峰點伙露營區,100.0,357苗栗縣通霄鎮2鄰圳頭23之6號,90.9090909090909
1618,Eta,星光山岳露營區,苗栗縣泰安鄉梅園村2鄰38-1號,206,Shelly,鐵砧山星光露營區,83.33333333333334,437台中市大甲區成功路221號,31.57894736842105
1619,Eta,象之旅露營區,苗栗縣泰安鄉象鼻1鄰34號,763,Shelly,茶香村之旅露營區,90.9090909090909,232新北市坪林區,16.666666666666664
1620,Eta,水之悅休閒露營區,苗栗縣泰安鄉梅園12-9號,61,Shelly,仙聞休閒露營區,83.33333333333334,555南投縣魚池鄉華龍巷73號,26.086956521739136
1621,Eta,南庄星空玻璃屋露營區,苗栗縣南庄鄉田美村,299,Shelly,露舍營家露營區,60.0,845高雄市內門區,0.0
1622,Eta,思穀汗Skuhan休閒露營區,苗栗縣泰安鄉,299,Shelly,露舍營家露營區,60.0,845高雄市內門區,0.0
1623,Eta,莎酷菈露營區,苗栗縣泰安鄉,992,Shelly,蒝區,66.66666666666667,32659桃園市楊梅區幼獅路一段439號東南側,0.0
1624,Eta,司馬限360度景觀,苗栗縣泰安鄉中興村5鄰司馬限18之10號,1104,Shelly,司馬限360度景觀露營區,100.0,365苗栗縣泰安鄉,80.0
1625,Eta,司馬限山嵐,苗栗縣泰安鄉中興村,1133,Shelly,司馬限山嵐露營區,100.0,365苗栗縣泰安鄉,80.0
1626,Eta,雪松大砲露營區,苗栗縣泰安鄉梅園村,992,Shelly,蒝區,66.66666666666667,32659桃園市楊梅區幼獅路一段439號東南側,12.5
1627,Eta,山視界露營區,苗栗縣泰安鄉清安村小南角5鄰39號,1655,Eta,逸視界露營區,90.9090909090909,苗栗縣泰安鄉大興村3鄰63號,60.86956521739131
1628,Eta,洗水山露營區,苗栗縣泰安鄉清安村,330,Shelly,雲水山露營區,90.9090909090909,607嘉義縣大埔鄉,30.76923076923077
1629,Eta,山田露營區,苗栗縣獅潭鄉新店村12鄰151-7號,52,Shelly,三乘山露營區,88.88888888888889,542南投縣草屯鎮三層巷50號,26.086956521739136
1630,Eta,蘇彥露營區,苗栗縣泰安鄉八鄰8-2號,1636,Eta,烏嘎彥露營區,88.88888888888889,苗栗縣泰安鄉大興村3鄰63-10號,66.66666666666667
1631,Eta,司焉慕,苗栗縣南庄鄉,384,Shelly,慕樟露營區camphor camp-台11線82公里,50.0,962台東縣長濱鄉台11線,33.333333333333336
1632,Eta,三灣水漾森林露營區,苗栗縣三灣鄉北埔村小北埔7鄰2-13號,299,Shelly,露舍營家露營區,60.0,845高雄市內門區,0.0
1633,Eta,泰安哈尼,苗栗縣泰安鄉大興村,1641,Eta,泰安王子小豬仔露營區,66.66666666666667,苗栗縣泰安鄉大興村,100.0
1634,Eta,10.5k露營區,苗栗縣卓蘭鎮,992,Shelly,蒝區,66.66666666666667,32659桃園市楊梅區幼獅路一段439號東南側,0.0
1635,Eta,桃花源,苗栗縣卓蘭鎮坪林里8鄰98號,544,Shelly,桃花村有機休閒農場（預約制）,80.0,605嘉義縣阿里山鄉地6鄰,25.0
1636,Eta,烏嘎彥露營區,苗栗縣泰安鄉大興村3鄰63-10號,1630,Eta,蘇彥露營區,88.88888888888889,苗栗縣泰安鄉八鄰8-2號,66.66666666666667
1637,Eta,五隻小豬,苗栗縣泰安鄉農路一號,1325,Eta,小豬迷露,66.66666666666667,南投縣國姓鄉南港村港頭巷,25.0
1638,Eta,烏客藍露營區,苗栗縣泰安鄉,992,Shelly,蒝區,66.66666666666667,32659桃園市楊梅區幼獅路一段439號東南側,0.0
1639,Eta,武嵐露營區,苗栗縣泰安鄉錦水村10鄰橫龍山64之36號,1115,Shelly,武嵐露營區,100.0,365苗栗縣泰安鄉10鄰橫龍山64之36號,92.3076923076923
1640,Eta,五鄰休閒露營區,苗栗縣泰安鄉大興村5鄰42號,61,Shelly,仙聞休閒露營區,83.33333333333334,555南投縣魚池鄉華龍巷73號,25.0
1641,Eta,泰安王子小豬仔露營區,苗栗縣泰安鄉大興村,299,Shelly,露舍營家露營區,60.0,845高雄市內門區,0.0
1642,Eta,吻吻露營區,苗栗縣南庄鄉,1181,Shelly,吻吻露營區 Wen Wen Camping Area,100.0,353苗栗縣南庄鄉,100.0
1643,Eta,西湖祕密花園露營區,苗栗縣西湖鄉金獅村茶亭6-1號,299,Shelly,露舍營家露營區,60.0,845高雄市內門區,0.0
1644,Eta,尤巴斯露營區,苗栗縣泰安鄉大興村5鄰高熊卡45號,1507,Eta,尤巴士露營區,83.33333333333334,新竹縣五峰鄉桃山村,33.333333333333336
1645,Eta,鷹的故鄉,苗栗縣泰安鄉大興村4鄰57-9號,86,Shelly,咿喲ㄟ故鄉露營區,50.0,545南投縣埔里鎮種瓜路126- 2號,21.052631578947366
1646,Eta,一定行露營區,苗栗縣泰安鄉象鼻村,992,Shelly,蒝區,66.66666666666667,32659桃園市楊梅區幼獅路一段439號東南側,0.0
1647,Eta,尤法艾露營區,苗栗縣泰安鄉,992,Shelly,蒝區,66.66666666666667,32659桃園市楊梅區幼獅路一段439號東南側,0.0
1648,Eta,雲境露營區,苗栗縣泰安鄉大興村,4,Shelly,新境露營區,88.88888888888889,544南投縣國姓鄉長北路70之1號,22.22222222222222
1649,Eta,迎客山,苗栗縣大湖鄉,1156,Shelly,逸山露營,40.0,35877苗栗縣苑裡鎮22-7號,50.0
1650,Eta,遊牧民族露營區,苗栗縣泰安鄉大興村５鄰47之6號,1155,Shelly,遊牧民族露營區,100.0,365苗栗縣泰安鄉大興村5鄰高熊卡47-6號,75.0
1651,Eta,耀婆山露營區,苗栗縣泰安鄉清安村小南角2鄰6號,1152,Shelly,鷂婆山露營區,90.9090909090909,365苗栗縣泰安鄉小南角2鄰6號,89.65517241379311
1652,Eta,悠然之地,苗栗縣泰安鄉,898,Shelly,樂悠露營,40.0,33643桃園市復興區奎輝里2鄰下奎輝3-1號,0.0
1653,Eta,原心小團露,苗栗縣泰安鄉大興村五鄰45-9號,332,Shelly,嚮露,66.66666666666667,844高雄市六龜區土壠149之10號,27.27272727272727
1654,Eta,伊紹露營區,苗栗縣泰安鄉象鼻村大安35-1號,992,Shelly,蒝區,66.66666666666667,32659桃園市楊梅區幼獅路一段439號東南側,19.999999999999996
1655,Eta,逸視界露營區,苗栗縣泰安鄉大興村3鄰63號,1117,Shelly,逸視界,100.0,365苗栗縣泰安鄉3鄰63號,88.0
1656,Eta,伊夕尚露營區,苗栗縣泰安鄉,1124,Shelly,伊夕尚露營區,100.0,365苗栗縣泰安鄉,100.0
1657,Eta,鹽水頭露營區,苗栗縣獅潭鄉豐林村13鄰鹽水36-1號,199,Shelly,頭櫃山露營區,80.0,426台中市新社區永櫃22-1號,40.0
1658,Eta,云心園,苗栗縣泰安鄉,1375,Eta,童心園,80.0,南投縣埔里鎮中成路13之2號,22.22222222222222
1659,Eta,原始原味,苗栗縣泰安鄉大興村,391,Shelly,原始角落,66.66666666666667,964台東縣金峰鄉423號,23.529411764705888
1660,Eta,友田坊,苗栗縣泰安鄉清安村,584,Shelly,田野森農場Morilife,50.0,269宜蘭縣冬山鄉大進二路246號,22.22222222222222
1661,Eta,亞哇斯露營區,苗栗縣泰安鄉八卦村3鄰53號,1121,Shelly,亞哇斯露營區,100.0,365苗栗縣泰安鄉八卦村3鄰53號,100.0
1662,Eta,云仙谷休閒露營區,苗栗縣泰安鄉,1151,Shelly,云仙谷休閒露營區,100.0,36541苗栗縣泰安鄉15號,100.0
1663,Eta,一線天,苗栗縣泰安鄉中興村,1162,Shelly,苗栗泰安一線天露營區,100.0,365苗栗縣泰安鄉苗栗縣泰安鄉中興村中象道路3鄰,100.0
1664,Eta,永遠露宿,苗栗縣泰安鄉,1337,Eta,露宿,100.0,南投縣埔里鎮,22.22222222222222
1665,Eta,再露營,苗栗縣公館鄉福星村227-1號,0,Shelly,樂活森林農場,0.0,545南投縣埔里鎮桃米路55-1號,33.333333333333336
1666,Eta,紫逸露營區,苗栗縣泰安鄉,1171,Shelly,紫逸露營區,100.0,365苗栗縣泰安鄉麻 必皓 部落,100.0
1667,Eta,晨月緣露營區,高雄市桃源區寶山巷98-8號,1265,Shelly,橙月緣 露營區,83.33333333333334,844高雄市六龜區荖濃溪林道,40.0
1668,Eta,大學林,高雄市桃源區,346,Shelly,大學林露營區,100.0,848高雄市桃源區荖濃溪林道,100.0
1669,Eta,鳳之凰露營區,高雄市桃源區15-12號,1246,Shelly,鳳之凰露營區,100.0,848高雄市桃源區15-12號,100.0
1670,Eta,好望角,高雄市桃源區,1254,Shelly,藤枝好望角露營區,100.0,848高雄市桃源區732 號,100.0
1671,Eta,愛莉絲森林露營區,高雄市桃源區寶山巷98之18號,478,Shelly,小森林露營區,90.9090909090909,605嘉義縣阿里山鄉樂野村2鄰70-6號,14.814814814814813
1672,Eta,快樂熊露營區,高雄市六龜區裕濃路1之7號,1240,Shelly,六龜快樂熊露營區,100.0,844004高雄市六龜區裕濃路1之7號,100.0
1673,Eta,美濃客家庄,高雄市美濃區中興路二段6-1號,1301,Shelly,美濃熊咖啡農場,57.14285714285714,843高雄市美濃區成功路460巷1 號,60.0
1674,Eta,Savi部落咖啡,高雄市桃源區興中巷142-6號,1207,Shelly,咖啡鄉 露營區,44.44444444444444,646雲林縣古坑鄉尖山坑路69號,22.22222222222222
1675,Eta,彩虹森林露營區,高雄市六龜區和平路290號,1238,Shelly,彩虹森林快樂農場露營區,72.72727272727273,844高雄市六龜區和平路290 號,92.3076923076923
1676,Eta,文家果園,高雄市桃源區,1289,Shelly,文家果園,100.0,848高雄市桃源區寶山里,100.0
1677,Eta,野獸休閒基地,高雄市六龜區和平路151-16號,1241,Shelly,野獸休閒基地,100.0,844高雄市六龜區和平路151-16號,100.0
1678,Eta,燿興山茶咖啡坊,高雄市桃源區寶山98之12號,1156,Shelly,逸山露營,28.57142857142857,35877苗栗縣苑裡鎮22-7號,22.22222222222222
